{"type":"FeatureCollection","attribution":"© OpenStreetMap contributors (ODbL) · MCGM public toilet data via data.opencity.in (public domain)","generated":"2026-08-13T12:48:29.926Z","bbox":"18.87,72.77,19.32,73.02","features":[{"type":"Feature","geometry":{"type":"Point","coordinates":[72.806032,18.956382]},"properties":{"id":"osm:node/2638147450","name":null,"category":"bench","source":"osm"}},{"type":"Feature","geometry":{"type":"Point","coordinates":[72.805944,18.95639]},"properties":{"id":"osm:node/2638147451","name":null,"category":"bench","source":"osm"}},{"type":"Feature","geometry":{"type":"Point","coordinates":[72.8298,18.932624]},"properties":{"id":"osm:node/4327819890","name":null,"category":"bench","source":"osm"}},{"type":"Feature","geometry":{"type":"Point","coordinates":[72.845404,19.060092]},"properties":{"id":"osm:node/4328161792","name":null,"category":"bench","source":"osm"}},{"type":"Feature","geometry":{"type":"Point","coordinates":[72.912104,19.134028]},"properties":{"id":"osm:node/5071105178","name":null,"category":"bench","source":"osm"}},{"type":"Feature","geometry":{"type":"Point","coordinates":[72.915661,19.13062]},"properties":{"id":"osm:node/5072048065","name":"Kreset","category":"bench","source":"osm"}},{"type":"Feature","geometry":{"type":"Point","coordinates":[72.911678,19.135271]},"properties":{"id":"osm:node/5072048066","name":"Gymkhana Stairs","category":"bench","source":"osm"}},{"type":"Feature","geometry":{"type":"Point","coordinates":[72.913106,19.12549]},"properties":{"id":"osm:node/5072048067","name":"Drain Wall","category":"bench","source":"osm"}},{"type":"Feature","geometry":{"type":"Point","coordinates":[72.913808,19.129091]},"properties":{"id":"osm:node/5072048068","name":"Guest House Lakefront","category":"bench","source":"osm"}},{"type":"Feature","geometry":{"type":"Point","coordinates":[72.905788,19.135454]},"properties":{"id":"osm:node/5072048069","name":"Rain Shelter","category":"bench","source":"osm"}},{"type":"Feature","geometry":{"type":"Point","coordinates":[72.915725,19.13194]},"properties":{"id":"osm:node/5072048071","name":"SOM Well","category":"bench","source":"osm"}},{"type":"Feature","geometry":{"type":"Point","coordinates":[72.914591,19.135898]},"properties":{"id":"osm:node/5072048074","name":"Drain Wall","category":"bench","source":"osm"}},{"type":"Feature","geometry":{"type":"Point","coordinates":[72.91142,19.134147]},"properties":{"id":"osm:node/5072048075","name":"Football Bench","category":"bench","source":"osm"}},{"type":"Feature","geometry":{"type":"Point","coordinates":[72.912427,19.135271]},"properties":{"id":"osm:node/5072048077","name":"Gymkhana Stairs","category":"bench","source":"osm"}},{"type":"Feature","geometry":{"type":"Point","coordinates":[72.913459,19.134764]},"properties":{"id":"osm:node/5072048078","name":"SAC","category":"bench","source":"osm"}},{"type":"Feature","geometry":{"type":"Point","coordinates":[72.915699,19.129522]},"properties":{"id":"osm:node/5072048081","name":"H10","category":"bench","source":"osm"}},{"type":"Feature","geometry":{"type":"Point","coordinates":[72.905653,19.135043]},"properties":{"id":"osm:node/5072048084","name":"Amul Canteen","category":"bench","source":"osm"}},{"type":"Feature","geometry":{"type":"Point","coordinates":[72.915045,19.132161]},"properties":{"id":"osm:node/5072048085","name":"Two Stools","category":"bench","source":"osm"}},{"type":"Feature","geometry":{"type":"Point","coordinates":[72.909027,19.126129]},"properties":{"id":"osm:node/5072048087","name":"Temple","category":"bench","source":"osm"}},{"type":"Feature","geometry":{"type":"Point","coordinates":[72.904015,19.135225]},"properties":{"id":"osm:node/5072048088","name":"Open Bench H12","category":"bench","source":"osm"}},{"type":"Feature","geometry":{"type":"Point","coordinates":[72.915688,19.130486]},"properties":{"id":"osm:node/5072048090","name":"Kresit","category":"bench","source":"osm"}},{"type":"Feature","geometry":{"type":"Point","coordinates":[72.915458,19.130721]},"properties":{"id":"osm:node/5072048092","name":"Tiled Benches","category":"bench","source":"osm"}},{"type":"Feature","geometry":{"type":"Point","coordinates":[72.910271,19.134475]},"properties":{"id":"osm:node/5072048094","name":"Drain Wall","category":"bench","source":"osm"}},{"type":"Feature","geometry":{"type":"Point","coordinates":[72.910317,19.129937]},"properties":{"id":"osm:node/5072048095","name":"Boathouse","category":"bench","source":"osm"}},{"type":"Feature","geometry":{"type":"Point","coordinates":[72.915586,19.132491]},"properties":{"id":"osm:node/5072048096","name":"Main Building","category":"bench","source":"osm"}},{"type":"Feature","geometry":{"type":"Point","coordinates":[72.912227,19.136089]},"properties":{"id":"osm:node/5072048097","name":"Drain Wall","category":"bench","source":"osm"}},{"type":"Feature","geometry":{"type":"Point","coordinates":[72.904024,19.134605]},"properties":{"id":"osm:node/5072048098","name":"Open Bench H12","category":"bench","source":"osm"}},{"type":"Feature","geometry":{"type":"Point","coordinates":[72.91579,19.130329]},"properties":{"id":"osm:node/5072048099","name":"KreSIT Benches","category":"bench","source":"osm"}},{"type":"Feature","geometry":{"type":"Point","coordinates":[72.912233,19.135993]},"properties":{"id":"osm:node/5072048100","name":"Drain Wall","category":"bench","source":"osm"}},{"type":"Feature","geometry":{"type":"Point","coordinates":[72.913737,19.134803]},"properties":{"id":"osm:node/5072048102","name":"SAC","category":"bench","source":"osm"}},{"type":"Feature","geometry":{"type":"Point","coordinates":[72.913942,19.12693]},"properties":{"id":"osm:node/5072048103","name":"Lake Sitting Spot","category":"bench","source":"osm"}},{"type":"Feature","geometry":{"type":"Point","coordinates":[72.915827,19.132512]},"properties":{"id":"osm:node/5072048104","name":"Main Building","category":"bench","source":"osm"}},{"type":"Feature","geometry":{"type":"Point","coordinates":[72.90385,19.135205]},"properties":{"id":"osm:node/5072048105","name":"Open Bench H12","category":"bench","source":"osm"}},{"type":"Feature","geometry":{"type":"Point","coordinates":[72.9173,19.133499]},"properties":{"id":"osm:node/5072048106","name":"Bamboo Studio","category":"bench","source":"osm"}},{"type":"Feature","geometry":{"type":"Point","coordinates":[72.913431,19.135188]},"properties":{"id":"osm:node/5072048107","name":"SAC","category":"bench","source":"osm"}},{"type":"Feature","geometry":{"type":"Point","coordinates":[72.910181,19.134517]},"properties":{"id":"osm:node/5072048108","name":"Drain Wall","category":"bench","source":"osm"}},{"type":"Feature","geometry":{"type":"Point","coordinates":[72.9157,19.1325]},"properties":{"id":"osm:node/5072048109","name":"Main Building","category":"bench","source":"osm"}},{"type":"Feature","geometry":{"type":"Point","coordinates":[72.915318,19.130009]},"properties":{"id":"osm:node/5072048111","name":"Canara Bank","category":"bench","source":"osm"}},{"type":"Feature","geometry":{"type":"Point","coordinates":[72.911999,19.134005]},"properties":{"id":"osm:node/5072048112","name":"Cricket Bench","category":"bench","source":"osm"}},{"type":"Feature","geometry":{"type":"Point","coordinates":[72.914018,19.1291]},"properties":{"id":"osm:node/5072048113","name":"Guest House Stairs","category":"bench","source":"osm"}},{"type":"Feature","geometry":{"type":"Point","coordinates":[72.904765,19.134212]},"properties":{"id":"osm:node/5072048114","name":"Open Bench H13","category":"bench","source":"osm"}},{"type":"Feature","geometry":{"type":"Point","coordinates":[72.912821,19.133721]},"properties":{"id":"osm:node/5072048115","name":"Basketball bench","category":"bench","source":"osm"}},{"type":"Feature","geometry":{"type":"Point","coordinates":[72.91359,19.135156]},"properties":{"id":"osm:node/5072048116","name":"SAC","category":"bench","source":"osm"}},{"type":"Feature","geometry":{"type":"Point","coordinates":[72.921723,19.108308]},"properties":{"id":"osm:node/5439209207","name":null,"category":"bench","source":"osm"}},{"type":"Feature","geometry":{"type":"Point","coordinates":[72.949228,19.173259]},"properties":{"id":"osm:node/5590242321","name":null,"category":"bench","source":"osm"}},{"type":"Feature","geometry":{"type":"Point","coordinates":[72.949125,19.173267]},"properties":{"id":"osm:node/5641941323","name":null,"category":"bench","source":"osm"}},{"type":"Feature","geometry":{"type":"Point","coordinates":[72.959354,19.171704]},"properties":{"id":"osm:node/5760321127","name":null,"category":"bench","source":"osm"}},{"type":"Feature","geometry":{"type":"Point","coordinates":[72.959289,19.171845]},"properties":{"id":"osm:node/5760321128","name":null,"category":"bench","source":"osm"}},{"type":"Feature","geometry":{"type":"Point","coordinates":[72.959296,19.17173]},"properties":{"id":"osm:node/5761649134","name":null,"category":"bench","source":"osm"}},{"type":"Feature","geometry":{"type":"Point","coordinates":[72.959581,19.171439]},"properties":{"id":"osm:node/6008008588","name":null,"category":"bench","source":"osm"}},{"type":"Feature","geometry":{"type":"Point","coordinates":[72.959484,19.172086]},"properties":{"id":"osm:node/6008051985","name":null,"category":"bench","source":"osm"}},{"type":"Feature","geometry":{"type":"Point","coordinates":[72.93591,19.165357]},"properties":{"id":"osm:node/6052581668","name":null,"category":"bench","source":"osm"}},{"type":"Feature","geometry":{"type":"Point","coordinates":[72.91593,19.132611]},"properties":{"id":"osm:node/6212726036","name":"Main Building","category":"bench","source":"osm"}},{"type":"Feature","geometry":{"type":"Point","coordinates":[72.935613,19.166043]},"properties":{"id":"osm:node/6246572115","name":null,"category":"bench","source":"osm"}},{"type":"Feature","geometry":{"type":"Point","coordinates":[72.935546,19.165903]},"properties":{"id":"osm:node/6246572117","name":null,"category":"bench","source":"osm"}},{"type":"Feature","geometry":{"type":"Point","coordinates":[72.935572,19.1659]},"properties":{"id":"osm:node/6246572118","name":null,"category":"bench","source":"osm"}},{"type":"Feature","geometry":{"type":"Point","coordinates":[72.909798,19.116346]},"properties":{"id":"osm:node/6795432888","name":null,"category":"bench","source":"osm"}},{"type":"Feature","geometry":{"type":"Point","coordinates":[72.90989,19.116444]},"properties":{"id":"osm:node/6795432889","name":null,"category":"bench","source":"osm"}},{"type":"Feature","geometry":{"type":"Point","coordinates":[72.909687,19.116277]},"properties":{"id":"osm:node/6795432890","name":null,"category":"bench","source":"osm"}},{"type":"Feature","geometry":{"type":"Point","coordinates":[72.910045,19.116661]},"properties":{"id":"osm:node/6795433387","name":null,"category":"bench","source":"osm"}},{"type":"Feature","geometry":{"type":"Point","coordinates":[72.910148,19.116742]},"properties":{"id":"osm:node/6795436992","name":null,"category":"bench","source":"osm"}},{"type":"Feature","geometry":{"type":"Point","coordinates":[72.909228,19.115978]},"properties":{"id":"osm:node/6795437088","name":null,"category":"bench","source":"osm"}},{"type":"Feature","geometry":{"type":"Point","coordinates":[72.909148,19.115928]},"properties":{"id":"osm:node/6795437090","name":null,"category":"bench","source":"osm"}},{"type":"Feature","geometry":{"type":"Point","coordinates":[72.909029,19.115871]},"properties":{"id":"osm:node/6795437093","name":null,"category":"bench","source":"osm"}},{"type":"Feature","geometry":{"type":"Point","coordinates":[72.90917,19.115939]},"properties":{"id":"osm:node/6795453888","name":null,"category":"bench","source":"osm"}},{"type":"Feature","geometry":{"type":"Point","coordinates":[72.909009,19.115848]},"properties":{"id":"osm:node/6795453893","name":null,"category":"bench","source":"osm"}},{"type":"Feature","geometry":{"type":"Point","coordinates":[72.910008,19.116639]},"properties":{"id":"osm:node/6795455685","name":null,"category":"bench","source":"osm"}},{"type":"Feature","geometry":{"type":"Point","coordinates":[72.909254,19.115992]},"properties":{"id":"osm:node/6795476285","name":null,"category":"bench","source":"osm"}},{"type":"Feature","geometry":{"type":"Point","coordinates":[72.90979,19.116512]},"properties":{"id":"osm:node/6795476385","name":null,"category":"bench","source":"osm"}},{"type":"Feature","geometry":{"type":"Point","coordinates":[72.909549,19.116308]},"properties":{"id":"osm:node/6805321686","name":null,"category":"bench","source":"osm"}},{"type":"Feature","geometry":{"type":"Point","coordinates":[72.90936,19.116]},"properties":{"id":"osm:node/6805332887","name":null,"category":"bench","source":"osm"}},{"type":"Feature","geometry":{"type":"Point","coordinates":[72.909275,19.115923]},"properties":{"id":"osm:node/6805332888","name":null,"category":"bench","source":"osm"}},{"type":"Feature","geometry":{"type":"Point","coordinates":[72.909164,19.11583]},"properties":{"id":"osm:node/6805332986","name":null,"category":"bench","source":"osm"}},{"type":"Feature","geometry":{"type":"Point","coordinates":[72.965349,19.22428]},"properties":{"id":"osm:node/6813741386","name":null,"category":"bench","source":"osm"}},{"type":"Feature","geometry":{"type":"Point","coordinates":[72.965029,19.22429]},"properties":{"id":"osm:node/6813741387","name":null,"category":"bench","source":"osm"}},{"type":"Feature","geometry":{"type":"Point","coordinates":[72.9652,19.224291]},"properties":{"id":"osm:node/6813743885","name":null,"category":"bench","source":"osm"}},{"type":"Feature","geometry":{"type":"Point","coordinates":[72.965245,19.22476]},"properties":{"id":"osm:node/6813994831","name":null,"category":"bench","source":"osm"}},{"type":"Feature","geometry":{"type":"Point","coordinates":[72.96508,19.224534]},"properties":{"id":"osm:node/6813994905","name":null,"category":"bench","source":"osm"}},{"type":"Feature","geometry":{"type":"Point","coordinates":[72.965093,19.224633]},"properties":{"id":"osm:node/6813994906","name":null,"category":"bench","source":"osm"}},{"type":"Feature","geometry":{"type":"Point","coordinates":[72.965433,19.224626]},"properties":{"id":"osm:node/6813994907","name":null,"category":"bench","source":"osm"}},{"type":"Feature","geometry":{"type":"Point","coordinates":[72.965415,19.224541]},"properties":{"id":"osm:node/6813994908","name":null,"category":"bench","source":"osm"}},{"type":"Feature","geometry":{"type":"Point","coordinates":[72.973614,19.174517]},"properties":{"id":"osm:node/7905062780","name":null,"category":"bench","source":"osm"}},{"type":"Feature","geometry":{"type":"Point","coordinates":[72.973838,19.174628]},"properties":{"id":"osm:node/8196328260","name":null,"category":"bench","source":"osm"}},{"type":"Feature","geometry":{"type":"Point","coordinates":[72.973739,19.174629]},"properties":{"id":"osm:node/8196328263","name":null,"category":"bench","source":"osm"}},{"type":"Feature","geometry":{"type":"Point","coordinates":[72.973638,19.174604]},"properties":{"id":"osm:node/8196328266","name":null,"category":"bench","source":"osm"}},{"type":"Feature","geometry":{"type":"Point","coordinates":[72.973654,19.174467]},"properties":{"id":"osm:node/8196328270","name":null,"category":"bench","source":"osm"}},{"type":"Feature","geometry":{"type":"Point","coordinates":[72.971467,19.241441]},"properties":{"id":"osm:node/8325045723","name":null,"category":"bench","source":"osm"}},{"type":"Feature","geometry":{"type":"Point","coordinates":[72.971288,19.241502]},"properties":{"id":"osm:node/8325045724","name":null,"category":"bench","source":"osm"}},{"type":"Feature","geometry":{"type":"Point","coordinates":[72.969888,19.231841]},"properties":{"id":"osm:node/8336655677","name":null,"category":"bench","source":"osm"}},{"type":"Feature","geometry":{"type":"Point","coordinates":[72.97036,19.241514]},"properties":{"id":"osm:node/8458629656","name":null,"category":"bench","source":"osm"}},{"type":"Feature","geometry":{"type":"Point","coordinates":[72.969996,19.231195]},"properties":{"id":"osm:node/8458629659","name":null,"category":"bench","source":"osm"}},{"type":"Feature","geometry":{"type":"Point","coordinates":[72.971391,19.244276]},"properties":{"id":"osm:node/8459886095","name":null,"category":"bench","source":"osm"}},{"type":"Feature","geometry":{"type":"Point","coordinates":[72.971422,19.24424]},"properties":{"id":"osm:node/8459886097","name":null,"category":"bench","source":"osm"}},{"type":"Feature","geometry":{"type":"Point","coordinates":[72.970716,19.243737]},"properties":{"id":"osm:node/8459886100","name":null,"category":"bench","source":"osm"}},{"type":"Feature","geometry":{"type":"Point","coordinates":[72.970761,19.243741]},"properties":{"id":"osm:node/8459886101","name":null,"category":"bench","source":"osm"}},{"type":"Feature","geometry":{"type":"Point","coordinates":[72.970145,19.244081]},"properties":{"id":"osm:node/8459976554","name":null,"category":"bench","source":"osm"}},{"type":"Feature","geometry":{"type":"Point","coordinates":[72.970164,19.244104]},"properties":{"id":"osm:node/8459976555","name":null,"category":"bench","source":"osm"}},{"type":"Feature","geometry":{"type":"Point","coordinates":[72.968333,19.231759]},"properties":{"id":"osm:node/8460398218","name":null,"category":"bench","source":"osm"}},{"type":"Feature","geometry":{"type":"Point","coordinates":[72.968283,19.23172]},"properties":{"id":"osm:node/8460398220","name":null,"category":"bench","source":"osm"}},{"type":"Feature","geometry":{"type":"Point","coordinates":[72.971067,19.24426]},"properties":{"id":"osm:node/8485155196","name":null,"category":"bench","source":"osm"}},{"type":"Feature","geometry":{"type":"Point","coordinates":[72.97118,19.244212]},"properties":{"id":"osm:node/8485155198","name":null,"category":"bench","source":"osm"}},{"type":"Feature","geometry":{"type":"Point","coordinates":[72.971362,19.244104]},"properties":{"id":"osm:node/8485155201","name":null,"category":"bench","source":"osm"}},{"type":"Feature","geometry":{"type":"Point","coordinates":[72.971349,19.244093]},"properties":{"id":"osm:node/8485155202","name":null,"category":"bench","source":"osm"}},{"type":"Feature","geometry":{"type":"Point","coordinates":[72.971366,19.243958]},"properties":{"id":"osm:node/8485155204","name":null,"category":"bench","source":"osm"}},{"type":"Feature","geometry":{"type":"Point","coordinates":[72.970909,19.243382]},"properties":{"id":"osm:node/8485754649","name":null,"category":"bench","source":"osm"}},{"type":"Feature","geometry":{"type":"Point","coordinates":[72.972358,19.177276]},"properties":{"id":"osm:node/8947890803","name":null,"category":"bench","source":"osm"}},{"type":"Feature","geometry":{"type":"Point","coordinates":[72.967778,19.181531]},"properties":{"id":"osm:node/9035037845","name":null,"category":"bench","source":"osm"}},{"type":"Feature","geometry":{"type":"Point","coordinates":[72.966317,19.182302]},"properties":{"id":"osm:node/9176355708","name":null,"category":"bench","source":"osm"}},{"type":"Feature","geometry":{"type":"Point","coordinates":[72.969935,19.178324]},"properties":{"id":"osm:node/9176400980","name":null,"category":"bench","source":"osm"}},{"type":"Feature","geometry":{"type":"Point","coordinates":[72.96969,19.231953]},"properties":{"id":"osm:node/9186795092","name":null,"category":"bench","source":"osm"}},{"type":"Feature","geometry":{"type":"Point","coordinates":[72.97029,19.231691]},"properties":{"id":"osm:node/9186795093","name":null,"category":"bench","source":"osm"}},{"type":"Feature","geometry":{"type":"Point","coordinates":[72.970289,19.231606]},"properties":{"id":"osm:node/9186795094","name":null,"category":"bench","source":"osm"}},{"type":"Feature","geometry":{"type":"Point","coordinates":[72.970561,19.232279]},"properties":{"id":"osm:node/9186795100","name":null,"category":"bench","source":"osm"}},{"type":"Feature","geometry":{"type":"Point","coordinates":[72.960901,19.223822]},"properties":{"id":"osm:node/9219684834","name":null,"category":"bench","source":"osm"}},{"type":"Feature","geometry":{"type":"Point","coordinates":[72.961193,19.223944]},"properties":{"id":"osm:node/9219684835","name":null,"category":"bench","source":"osm"}},{"type":"Feature","geometry":{"type":"Point","coordinates":[72.971877,19.241294]},"properties":{"id":"osm:node/9665368608","name":null,"category":"bench","source":"osm"}},{"type":"Feature","geometry":{"type":"Point","coordinates":[72.97022,19.241648]},"properties":{"id":"osm:node/9665368609","name":null,"category":"bench","source":"osm"}},{"type":"Feature","geometry":{"type":"Point","coordinates":[72.876835,19.095027]},"properties":{"id":"osm:node/10015165117","name":null,"category":"bench","source":"osm","level":"1"}},{"type":"Feature","geometry":{"type":"Point","coordinates":[72.970263,19.181234]},"properties":{"id":"osm:node/10076246479","name":null,"category":"bench","source":"osm"}},{"type":"Feature","geometry":{"type":"Point","coordinates":[72.838057,18.978683]},"properties":{"id":"osm:node/10102851943","name":null,"category":"bench","source":"osm"}},{"type":"Feature","geometry":{"type":"Point","coordinates":[72.838078,18.978762]},"properties":{"id":"osm:node/10102851944","name":null,"category":"bench","source":"osm"}},{"type":"Feature","geometry":{"type":"Point","coordinates":[72.94374,19.165794]},"properties":{"id":"osm:node/10245111420","name":null,"category":"bench","source":"osm"}},{"type":"Feature","geometry":{"type":"Point","coordinates":[72.94379,19.165932]},"properties":{"id":"osm:node/10245111432","name":null,"category":"bench","source":"osm"}},{"type":"Feature","geometry":{"type":"Point","coordinates":[72.88801,19.030088]},"properties":{"id":"osm:node/11057893647","name":null,"category":"bench","source":"osm"}},{"type":"Feature","geometry":{"type":"Point","coordinates":[72.887833,19.030073]},"properties":{"id":"osm:node/11061824025","name":null,"category":"bench","source":"osm"}},{"type":"Feature","geometry":{"type":"Point","coordinates":[72.887857,19.030092]},"properties":{"id":"osm:node/11061824026","name":null,"category":"bench","source":"osm"}},{"type":"Feature","geometry":{"type":"Point","coordinates":[72.845406,19.146803]},"properties":{"id":"osm:node/12289855264","name":null,"category":"bench","source":"osm"}},{"type":"Feature","geometry":{"type":"Point","coordinates":[72.845461,19.146796]},"properties":{"id":"osm:node/12289855312","name":null,"category":"bench","source":"osm"}},{"type":"Feature","geometry":{"type":"Point","coordinates":[72.823666,19.136666]},"properties":{"id":"osm:node/12296186709","name":null,"category":"bench","source":"osm"}},{"type":"Feature","geometry":{"type":"Point","coordinates":[72.823681,19.13665]},"properties":{"id":"osm:node/12296186899","name":null,"category":"bench","source":"osm"}},{"type":"Feature","geometry":{"type":"Point","coordinates":[72.832739,18.926067]},"properties":{"id":"osm:node/12299166849","name":null,"category":"bench","source":"osm"}},{"type":"Feature","geometry":{"type":"Point","coordinates":[72.832729,18.925942]},"properties":{"id":"osm:node/12299166857","name":null,"category":"bench","source":"osm"}},{"type":"Feature","geometry":{"type":"Point","coordinates":[72.855934,19.027377]},"properties":{"id":"osm:node/12770219143","name":null,"category":"bench","source":"osm"}},{"type":"Feature","geometry":{"type":"Point","coordinates":[72.856023,19.027357]},"properties":{"id":"osm:node/12770226193","name":null,"category":"bench","source":"osm"}},{"type":"Feature","geometry":{"type":"Point","coordinates":[72.847148,19.053519]},"properties":{"id":"osm:node/12805914591","name":null,"category":"bench","source":"osm"}},{"type":"Feature","geometry":{"type":"Point","coordinates":[72.847173,19.053483]},"properties":{"id":"osm:node/12805914597","name":null,"category":"bench","source":"osm"}},{"type":"Feature","geometry":{"type":"Point","coordinates":[72.847211,19.053418]},"properties":{"id":"osm:node/12805933301","name":null,"category":"bench","source":"osm"}},{"type":"Feature","geometry":{"type":"Point","coordinates":[72.931252,19.171337]},"properties":{"id":"osm:node/12857300311","name":null,"category":"bench","source":"osm"}},{"type":"Feature","geometry":{"type":"Point","coordinates":[72.849756,19.226017]},"properties":{"id":"osm:node/12865221008","name":null,"category":"bench","source":"osm"}},{"type":"Feature","geometry":{"type":"Point","coordinates":[72.849841,19.227617]},"properties":{"id":"osm:node/12865221013","name":null,"category":"bench","source":"osm"}},{"type":"Feature","geometry":{"type":"Point","coordinates":[72.898979,19.073367]},"properties":{"id":"osm:node/12866540583","name":null,"category":"bench","source":"osm"}},{"type":"Feature","geometry":{"type":"Point","coordinates":[72.900654,19.052767]},"properties":{"id":"osm:node/12934970649","name":null,"category":"bench","source":"osm"}},{"type":"Feature","geometry":{"type":"Point","coordinates":[72.900204,19.053221]},"properties":{"id":"osm:node/12934970708","name":null,"category":"bench","source":"osm"}},{"type":"Feature","geometry":{"type":"Point","coordinates":[72.900263,19.053186]},"properties":{"id":"osm:node/12944595162","name":null,"category":"bench","source":"osm"}},{"type":"Feature","geometry":{"type":"Point","coordinates":[72.900619,19.05327]},"properties":{"id":"osm:node/12944615483","name":null,"category":"bench","source":"osm"}},{"type":"Feature","geometry":{"type":"Point","coordinates":[72.900619,19.053223]},"properties":{"id":"osm:node/12944615485","name":null,"category":"bench","source":"osm"}},{"type":"Feature","geometry":{"type":"Point","coordinates":[72.90053,19.054986]},"properties":{"id":"osm:node/12944695604","name":null,"category":"bench","source":"osm"}},{"type":"Feature","geometry":{"type":"Point","coordinates":[72.900545,19.05574]},"properties":{"id":"osm:node/12944721948","name":null,"category":"bench","source":"osm"}},{"type":"Feature","geometry":{"type":"Point","coordinates":[72.852376,19.311706]},"properties":{"id":"osm:node/12953085599","name":null,"category":"bench","source":"osm"}},{"type":"Feature","geometry":{"type":"Point","coordinates":[72.819696,19.046943]},"properties":{"id":"osm:node/12974666372","name":null,"category":"bench","source":"osm"}},{"type":"Feature","geometry":{"type":"Point","coordinates":[72.819709,19.047026]},"properties":{"id":"osm:node/12974666373","name":null,"category":"bench","source":"osm"}},{"type":"Feature","geometry":{"type":"Point","coordinates":[72.819741,19.047164]},"properties":{"id":"osm:node/12974666374","name":null,"category":"bench","source":"osm"}},{"type":"Feature","geometry":{"type":"Point","coordinates":[72.81976,19.047213]},"properties":{"id":"osm:node/12974666375","name":null,"category":"bench","source":"osm"}},{"type":"Feature","geometry":{"type":"Point","coordinates":[72.819779,19.047266]},"properties":{"id":"osm:node/12974666376","name":null,"category":"bench","source":"osm"}},{"type":"Feature","geometry":{"type":"Point","coordinates":[72.819813,19.047365]},"properties":{"id":"osm:node/12974666378","name":null,"category":"bench","source":"osm"}},{"type":"Feature","geometry":{"type":"Point","coordinates":[72.81989,19.047571]},"properties":{"id":"osm:node/12974666379","name":null,"category":"bench","source":"osm"}},{"type":"Feature","geometry":{"type":"Point","coordinates":[72.819926,19.04768]},"properties":{"id":"osm:node/12974666382","name":null,"category":"bench","source":"osm"}},{"type":"Feature","geometry":{"type":"Point","coordinates":[72.819954,19.047742]},"properties":{"id":"osm:node/12974666384","name":null,"category":"bench","source":"osm"}},{"type":"Feature","geometry":{"type":"Point","coordinates":[72.819969,19.047775]},"properties":{"id":"osm:node/12974666385","name":null,"category":"bench","source":"osm"}},{"type":"Feature","geometry":{"type":"Point","coordinates":[72.820165,19.048201]},"properties":{"id":"osm:node/12974666387","name":null,"category":"bench","source":"osm"}},{"type":"Feature","geometry":{"type":"Point","coordinates":[72.820195,19.048266]},"properties":{"id":"osm:node/12974666389","name":null,"category":"bench","source":"osm"}},{"type":"Feature","geometry":{"type":"Point","coordinates":[72.82024,19.04837]},"properties":{"id":"osm:node/12974666393","name":null,"category":"bench","source":"osm"}},{"type":"Feature","geometry":{"type":"Point","coordinates":[72.82025,19.048389]},"properties":{"id":"osm:node/12974666394","name":null,"category":"bench","source":"osm"}},{"type":"Feature","geometry":{"type":"Point","coordinates":[72.820275,19.048451]},"properties":{"id":"osm:node/12974666398","name":null,"category":"bench","source":"osm"}},{"type":"Feature","geometry":{"type":"Point","coordinates":[72.820337,19.048585]},"properties":{"id":"osm:node/12974675203","name":null,"category":"bench","source":"osm"}},{"type":"Feature","geometry":{"type":"Point","coordinates":[72.820351,19.048615]},"properties":{"id":"osm:node/12974675204","name":null,"category":"bench","source":"osm"}},{"type":"Feature","geometry":{"type":"Point","coordinates":[72.820374,19.04867]},"properties":{"id":"osm:node/12974675205","name":null,"category":"bench","source":"osm"}},{"type":"Feature","geometry":{"type":"Point","coordinates":[72.820452,19.048818]},"properties":{"id":"osm:node/12974675209","name":null,"category":"bench","source":"osm"}},{"type":"Feature","geometry":{"type":"Point","coordinates":[72.820478,19.048864]},"properties":{"id":"osm:node/12974675211","name":null,"category":"bench","source":"osm"}},{"type":"Feature","geometry":{"type":"Point","coordinates":[72.820804,19.049411]},"properties":{"id":"osm:node/12974675213","name":null,"category":"bench","source":"osm"}},{"type":"Feature","geometry":{"type":"Point","coordinates":[72.820846,19.049557]},"properties":{"id":"osm:node/12974675216","name":null,"category":"bench","source":"osm"}},{"type":"Feature","geometry":{"type":"Point","coordinates":[72.820866,19.049583]},"properties":{"id":"osm:node/12974675217","name":null,"category":"bench","source":"osm"}},{"type":"Feature","geometry":{"type":"Point","coordinates":[72.820918,19.049666]},"properties":{"id":"osm:node/12974675221","name":null,"category":"bench","source":"osm"}},{"type":"Feature","geometry":{"type":"Point","coordinates":[72.820979,19.049763]},"properties":{"id":"osm:node/12974675224","name":null,"category":"bench","source":"osm"}},{"type":"Feature","geometry":{"type":"Point","coordinates":[72.821043,19.049862]},"properties":{"id":"osm:node/12974675228","name":null,"category":"bench","source":"osm"}},{"type":"Feature","geometry":{"type":"Point","coordinates":[72.821056,19.049885]},"properties":{"id":"osm:node/12974675229","name":null,"category":"bench","source":"osm"}},{"type":"Feature","geometry":{"type":"Point","coordinates":[72.821318,19.050298]},"properties":{"id":"osm:node/12974675232","name":null,"category":"bench","source":"osm"}},{"type":"Feature","geometry":{"type":"Point","coordinates":[72.821356,19.050347]},"properties":{"id":"osm:node/12974675234","name":null,"category":"bench","source":"osm"}},{"type":"Feature","geometry":{"type":"Point","coordinates":[72.821367,19.050372]},"properties":{"id":"osm:node/12974675235","name":null,"category":"bench","source":"osm"}},{"type":"Feature","geometry":{"type":"Point","coordinates":[72.821417,19.050458]},"properties":{"id":"osm:node/12974675236","name":null,"category":"bench","source":"osm"}},{"type":"Feature","geometry":{"type":"Point","coordinates":[72.821446,19.050551]},"properties":{"id":"osm:node/12974675240","name":null,"category":"bench","source":"osm"}},{"type":"Feature","geometry":{"type":"Point","coordinates":[72.821459,19.050598]},"properties":{"id":"osm:node/12974675242","name":null,"category":"bench","source":"osm"}},{"type":"Feature","geometry":{"type":"Point","coordinates":[72.821505,19.05078]},"properties":{"id":"osm:node/12974675244","name":null,"category":"bench","source":"osm"}},{"type":"Feature","geometry":{"type":"Point","coordinates":[72.821495,19.050737]},"properties":{"id":"osm:node/12974675246","name":null,"category":"bench","source":"osm"}},{"type":"Feature","geometry":{"type":"Point","coordinates":[72.821583,19.051387]},"properties":{"id":"osm:node/12974675257","name":null,"category":"bench","source":"osm"}},{"type":"Feature","geometry":{"type":"Point","coordinates":[72.821596,19.051471]},"properties":{"id":"osm:node/12974675258","name":null,"category":"bench","source":"osm"}},{"type":"Feature","geometry":{"type":"Point","coordinates":[72.821607,19.051553]},"properties":{"id":"osm:node/12974675261","name":null,"category":"bench","source":"osm"}},{"type":"Feature","geometry":{"type":"Point","coordinates":[72.82168,19.051985]},"properties":{"id":"osm:node/12974675265","name":null,"category":"bench","source":"osm"}},{"type":"Feature","geometry":{"type":"Point","coordinates":[72.821696,19.052057]},"properties":{"id":"osm:node/12974675268","name":null,"category":"bench","source":"osm"}},{"type":"Feature","geometry":{"type":"Point","coordinates":[72.821742,19.052193]},"properties":{"id":"osm:node/12974675270","name":null,"category":"bench","source":"osm"}},{"type":"Feature","geometry":{"type":"Point","coordinates":[72.821754,19.052275]},"properties":{"id":"osm:node/12974675276","name":null,"category":"bench","source":"osm"}},{"type":"Feature","geometry":{"type":"Point","coordinates":[72.821765,19.052367]},"properties":{"id":"osm:node/12974675280","name":null,"category":"bench","source":"osm"}},{"type":"Feature","geometry":{"type":"Point","coordinates":[72.821797,19.052523]},"properties":{"id":"osm:node/12974675286","name":null,"category":"bench","source":"osm"}},{"type":"Feature","geometry":{"type":"Point","coordinates":[72.821806,19.052555]},"properties":{"id":"osm:node/12974675287","name":null,"category":"bench","source":"osm"}},{"type":"Feature","geometry":{"type":"Point","coordinates":[72.822181,19.053404]},"properties":{"id":"osm:node/12974675292","name":null,"category":"bench","source":"osm"}},{"type":"Feature","geometry":{"type":"Point","coordinates":[72.822588,19.054084]},"properties":{"id":"osm:node/12974675299","name":null,"category":"bench","source":"osm"}},{"type":"Feature","geometry":{"type":"Point","coordinates":[72.822669,19.054134]},"properties":{"id":"osm:node/12974675305","name":null,"category":"bench","source":"osm"}},{"type":"Feature","geometry":{"type":"Point","coordinates":[72.822695,19.054151]},"properties":{"id":"osm:node/12974675306","name":null,"category":"bench","source":"osm"}},{"type":"Feature","geometry":{"type":"Point","coordinates":[72.822773,19.054204]},"properties":{"id":"osm:node/12974675309","name":null,"category":"bench","source":"osm"}},{"type":"Feature","geometry":{"type":"Point","coordinates":[72.822855,19.054255]},"properties":{"id":"osm:node/12974675312","name":null,"category":"bench","source":"osm"}},{"type":"Feature","geometry":{"type":"Point","coordinates":[72.864151,19.29669]},"properties":{"id":"osm:node/13006516798","name":null,"category":"bench","source":"osm"}},{"type":"Feature","geometry":{"type":"Point","coordinates":[72.864061,19.296716]},"properties":{"id":"osm:node/13006516799","name":null,"category":"bench","source":"osm"}},{"type":"Feature","geometry":{"type":"Point","coordinates":[72.864261,19.296792]},"properties":{"id":"osm:node/13006518603","name":null,"category":"bench","source":"osm"}},{"type":"Feature","geometry":{"type":"Point","coordinates":[72.864326,19.297021]},"properties":{"id":"osm:node/13006518604","name":null,"category":"bench","source":"osm"}},{"type":"Feature","geometry":{"type":"Point","coordinates":[72.864439,19.296973]},"properties":{"id":"osm:node/13006518606","name":null,"category":"bench","source":"osm"}},{"type":"Feature","geometry":{"type":"Point","coordinates":[72.864303,19.296889]},"properties":{"id":"osm:node/13006518616","name":null,"category":"bench","source":"osm"}},{"type":"Feature","geometry":{"type":"Point","coordinates":[72.864069,19.296914]},"properties":{"id":"osm:node/13006518628","name":null,"category":"bench","source":"osm"}},{"type":"Feature","geometry":{"type":"Point","coordinates":[72.864423,19.296842]},"properties":{"id":"osm:node/13006518637","name":null,"category":"bench","source":"osm"}},{"type":"Feature","geometry":{"type":"Point","coordinates":[72.864069,19.296982]},"properties":{"id":"osm:node/13006518649","name":null,"category":"bench","source":"osm"}},{"type":"Feature","geometry":{"type":"Point","coordinates":[72.864096,19.296845]},"properties":{"id":"osm:node/13006518665","name":null,"category":"bench","source":"osm"}},{"type":"Feature","geometry":{"type":"Point","coordinates":[72.864367,19.296939]},"properties":{"id":"osm:node/13006518666","name":null,"category":"bench","source":"osm"}},{"type":"Feature","geometry":{"type":"Point","coordinates":[72.824368,19.05189]},"properties":{"id":"osm:node/13009284683","name":null,"category":"bench","source":"osm"}},{"type":"Feature","geometry":{"type":"Point","coordinates":[72.824342,19.051943]},"properties":{"id":"osm:node/13009284684","name":null,"category":"bench","source":"osm"}},{"type":"Feature","geometry":{"type":"Point","coordinates":[72.824288,19.051962]},"properties":{"id":"osm:node/13009284686","name":null,"category":"bench","source":"osm"}},{"type":"Feature","geometry":{"type":"Point","coordinates":[72.824235,19.05193]},"properties":{"id":"osm:node/13009284687","name":null,"category":"bench","source":"osm"}},{"type":"Feature","geometry":{"type":"Point","coordinates":[72.822703,19.049794]},"properties":{"id":"osm:node/13009290117","name":null,"category":"bench","source":"osm"}},{"type":"Feature","geometry":{"type":"Point","coordinates":[72.822681,19.04987]},"properties":{"id":"osm:node/13009290125","name":null,"category":"bench","source":"osm"}},{"type":"Feature","geometry":{"type":"Point","coordinates":[72.822582,19.049876]},"properties":{"id":"osm:node/13009290126","name":null,"category":"bench","source":"osm"}},{"type":"Feature","geometry":{"type":"Point","coordinates":[72.822561,19.049837]},"properties":{"id":"osm:node/13009290128","name":null,"category":"bench","source":"osm"}},{"type":"Feature","geometry":{"type":"Point","coordinates":[72.819175,19.045359]},"properties":{"id":"osm:node/13078614677","name":null,"category":"bench","source":"osm"}},{"type":"Feature","geometry":{"type":"Point","coordinates":[72.825718,19.063605]},"properties":{"id":"osm:node/13087473547","name":null,"category":"bench","source":"osm"}},{"type":"Feature","geometry":{"type":"Point","coordinates":[72.825858,19.063817]},"properties":{"id":"osm:node/13087473561","name":null,"category":"bench","source":"osm"}},{"type":"Feature","geometry":{"type":"Point","coordinates":[72.82584,19.063774]},"properties":{"id":"osm:node/13087473563","name":null,"category":"bench","source":"osm"}},{"type":"Feature","geometry":{"type":"Point","coordinates":[72.86443,19.30049]},"properties":{"id":"osm:node/13227205516","name":null,"category":"bench","source":"osm"}},{"type":"Feature","geometry":{"type":"Point","coordinates":[72.864366,19.300817]},"properties":{"id":"osm:node/13227205518","name":null,"category":"bench","source":"osm"}},{"type":"Feature","geometry":{"type":"Point","coordinates":[72.864486,19.300269]},"properties":{"id":"osm:node/13227205527","name":null,"category":"bench","source":"osm"}},{"type":"Feature","geometry":{"type":"Point","coordinates":[72.863874,19.29998]},"properties":{"id":"osm:node/13227221515","name":null,"category":"bench","source":"osm"}},{"type":"Feature","geometry":{"type":"Point","coordinates":[72.818618,19.127485]},"properties":{"id":"osm:node/13240406180","name":null,"category":"bench","source":"osm"}},{"type":"Feature","geometry":{"type":"Point","coordinates":[72.820984,19.059152]},"properties":{"id":"osm:node/13344125041","name":null,"category":"bench","source":"osm"}},{"type":"Feature","geometry":{"type":"Point","coordinates":[72.821049,19.059344]},"properties":{"id":"osm:node/13344125043","name":null,"category":"bench","source":"osm"}},{"type":"Feature","geometry":{"type":"Point","coordinates":[72.821091,19.059444]},"properties":{"id":"osm:node/13344125044","name":null,"category":"bench","source":"osm"}},{"type":"Feature","geometry":{"type":"Point","coordinates":[72.82115,19.059589]},"properties":{"id":"osm:node/13344125045","name":null,"category":"bench","source":"osm"}},{"type":"Feature","geometry":{"type":"Point","coordinates":[72.821198,19.059681]},"properties":{"id":"osm:node/13344125046","name":null,"category":"bench","source":"osm"}},{"type":"Feature","geometry":{"type":"Point","coordinates":[72.821254,19.059791]},"properties":{"id":"osm:node/13344125047","name":null,"category":"bench","source":"osm"}},{"type":"Feature","geometry":{"type":"Point","coordinates":[72.821306,19.05991]},"properties":{"id":"osm:node/13344125048","name":null,"category":"bench","source":"osm"}},{"type":"Feature","geometry":{"type":"Point","coordinates":[72.821366,19.060035]},"properties":{"id":"osm:node/13344125049","name":null,"category":"bench","source":"osm"}},{"type":"Feature","geometry":{"type":"Point","coordinates":[72.821452,19.060093]},"properties":{"id":"osm:node/13344125050","name":null,"category":"bench","source":"osm"}},{"type":"Feature","geometry":{"type":"Point","coordinates":[72.821606,19.059984]},"properties":{"id":"osm:node/13344125051","name":null,"category":"bench","source":"osm"}},{"type":"Feature","geometry":{"type":"Point","coordinates":[72.999207,19.122285]},"properties":{"id":"osm:node/13375397269","name":null,"category":"bench","source":"osm"}},{"type":"Feature","geometry":{"type":"Point","coordinates":[72.849413,19.023111]},"properties":{"id":"osm:node/13388826442","name":null,"category":"bench","source":"osm"}},{"type":"Feature","geometry":{"type":"Point","coordinates":[72.857009,19.275154]},"properties":{"id":"osm:node/13563938790","name":null,"category":"bench","source":"osm"}},{"type":"Feature","geometry":{"type":"Point","coordinates":[72.805987,18.911868]},"properties":{"id":"osm:node/13644298632","name":null,"category":"bench","source":"osm"}},{"type":"Feature","geometry":{"type":"Point","coordinates":[72.967845,19.190016]},"properties":{"id":"osm:node/13818243111","name":null,"category":"bench","source":"osm"}},{"type":"Feature","geometry":{"type":"Point","coordinates":[72.967724,19.190391]},"properties":{"id":"osm:node/13818244752","name":null,"category":"bench","source":"osm"}},{"type":"Feature","geometry":{"type":"Point","coordinates":[72.968941,19.189938]},"properties":{"id":"osm:node/13818254569","name":null,"category":"bench","source":"osm"}},{"type":"Feature","geometry":{"type":"Point","coordinates":[72.970488,19.189835]},"properties":{"id":"osm:node/13818263370","name":null,"category":"bench","source":"osm"}},{"type":"Feature","geometry":{"type":"Point","coordinates":[72.83793,19.063556]},"properties":{"id":"osm:node/13910182343","name":null,"category":"bench","source":"osm"}},{"type":"Feature","geometry":{"type":"Point","coordinates":[72.856693,19.112744]},"properties":{"id":"osm:way/1331288867","name":null,"category":"bench","source":"osm"}},{"type":"Feature","geometry":{"type":"Point","coordinates":[72.855221,19.027032]},"properties":{"id":"osm:way/1378123566","name":null,"category":"bench","source":"osm"}},{"type":"Feature","geometry":{"type":"Point","coordinates":[72.84703,19.021733]},"properties":{"id":"osm:way/1378123570","name":null,"category":"bench","source":"osm"}},{"type":"Feature","geometry":{"type":"Point","coordinates":[72.847056,19.021712]},"properties":{"id":"osm:way/1378123584","name":null,"category":"bench","source":"osm"}},{"type":"Feature","geometry":{"type":"Point","coordinates":[72.847045,19.021783]},"properties":{"id":"osm:way/1378123591","name":null,"category":"bench","source":"osm"}},{"type":"Feature","geometry":{"type":"Point","coordinates":[72.900216,19.052773]},"properties":{"id":"osm:way/1402778157","name":null,"category":"bench","source":"osm"}},{"type":"Feature","geometry":{"type":"Point","coordinates":[72.819251,19.045533]},"properties":{"id":"osm:way/1423097483","name":null,"category":"bench","source":"osm"}},{"type":"Feature","geometry":{"type":"Point","coordinates":[72.819185,19.04556]},"properties":{"id":"osm:way/1423097484","name":null,"category":"bench","source":"osm"}},{"type":"Feature","geometry":{"type":"Point","coordinates":[72.818984,19.044838]},"properties":{"id":"osm:way/1423097488","name":null,"category":"bench","source":"osm"}},{"type":"Feature","geometry":{"type":"Point","coordinates":[72.863302,19.298322]},"properties":{"id":"osm:way/1436395642","name":null,"category":"bench","source":"osm"}},{"type":"Feature","geometry":{"type":"Point","coordinates":[72.847746,19.017926]},"properties":{"id":"osm:way/1459272137","name":null,"category":"bench","source":"osm","access":"yes"}},{"type":"Feature","geometry":{"type":"Point","coordinates":[72.847967,19.017821]},"properties":{"id":"osm:way/1459272138","name":null,"category":"bench","source":"osm","access":"yes"}},{"type":"Feature","geometry":{"type":"Point","coordinates":[72.860377,19.280426]},"properties":{"id":"osm:way/1482431555","name":null,"category":"bench","source":"osm"}}]}