{"type":"FeatureCollection","attribution":"© OpenStreetMap contributors (ODbL) · MCGM public toilet data via data.opencity.in (public domain)","generated":"2026-09-16T10:49:21.538Z","bbox":"18.87,72.77,19.32,73.02","features":[{"type":"Feature","geometry":{"type":"Point","coordinates":[72.818872,19.042567]},"properties":{"id":"osm:node/346611983","name":"Amphitheatre","category":"culture","subtype":"tourism=attraction","source":"osm"}},{"type":"Feature","geometry":{"type":"Point","coordinates":[72.828778,19.07022]},"properties":{"id":"osm:node/347194749","name":"Dr Babasaheb Ambedkar","category":"culture","subtype":"tourism=artwork","source":"osm"}},{"type":"Feature","geometry":{"type":"Point","coordinates":[72.8185,19.041979]},"properties":{"id":"osm:node/494772647","name":"Castella de Aguada","category":"culture","subtype":"tourism=attraction","source":"osm"}},{"type":"Feature","geometry":{"type":"Point","coordinates":[72.860165,19.05099]},"properties":{"id":"osm:node/537762970","name":"Kala Qila","category":"culture","subtype":"tourism=attraction","source":"osm"}},{"type":"Feature","geometry":{"type":"Point","coordinates":[72.838127,19.042011]},"properties":{"id":"osm:node/537766323","name":"माहीम किल्ला","category":"culture","subtype":"tourism=attraction","source":"osm"}},{"type":"Feature","geometry":{"type":"Point","coordinates":[72.818639,18.962098]},"properties":{"id":"osm:node/619344379","name":"Goodwill Theatre","category":"culture","subtype":"amenity=cinema","source":"osm"}},{"type":"Feature","geometry":{"type":"Point","coordinates":[72.823436,18.961225]},"properties":{"id":"osm:node/619377230","name":"New Roshan Talkies","category":"culture","subtype":"amenity=cinema","source":"osm"}},{"type":"Feature","geometry":{"type":"Point","coordinates":[72.823171,18.961515]},"properties":{"id":"osm:node/619377234","name":"Alfred Talkies","category":"culture","subtype":"amenity=cinema","source":"osm"}},{"type":"Feature","geometry":{"type":"Point","coordinates":[72.821185,18.96188]},"properties":{"id":"osm:node/619377620","name":"Super Plaza Cinema","category":"culture","subtype":"amenity=cinema","source":"osm"}},{"type":"Feature","geometry":{"type":"Point","coordinates":[72.794618,19.13247]},"properties":{"id":"osm:node/649025707","name":"Madh Fort","category":"culture","subtype":"tourism=attraction","source":"osm"}},{"type":"Feature","geometry":{"type":"Point","coordinates":[72.914367,19.131944]},"properties":{"id":"osm:node/668494241","name":"Convocation Hall","category":"culture","subtype":"amenity=theatre","source":"osm"}},{"type":"Feature","geometry":{"type":"Point","coordinates":[72.91583,19.132282]},"properties":{"id":"osm:node/668494246","name":"LT-PCSA","category":"culture","subtype":"amenity=theatre","source":"osm","wheelchair":"yes"}},{"type":"Feature","geometry":{"type":"Point","coordinates":[72.832519,18.924593]},"properties":{"id":"osm:node/669259757","name":"Regal Cinema","category":"culture","subtype":"amenity=cinema","source":"osm"}},{"type":"Feature","geometry":{"type":"Point","coordinates":[72.834801,18.979164]},"properties":{"id":"osm:node/674906629","name":"भाऊ दाजी लाड संग्रहालय","category":"culture","subtype":"tourism=museum","source":"osm"}},{"type":"Feature","geometry":{"type":"Point","coordinates":[72.856273,19.154923]},"properties":{"id":"osm:node/984287752","name":"Movietime Hub","category":"culture","subtype":"amenity=cinema","source":"osm"}},{"type":"Feature","geometry":{"type":"Point","coordinates":[72.851202,19.165512]},"properties":{"id":"osm:node/985121048","name":"Anupam","category":"culture","subtype":"amenity=theatre","source":"osm"}},{"type":"Feature","geometry":{"type":"Point","coordinates":[72.832212,18.927319]},"properties":{"id":"osm:node/1056702132","name":"Max Mueller Bahvan","category":"culture","subtype":"amenity=arts_centre","source":"osm"}},{"type":"Feature","geometry":{"type":"Point","coordinates":[72.874088,19.28451]},"properties":{"id":"osm:node/1070203946","name":"Landmark Heights Apartment Park","category":"culture","subtype":"tourism=theme_park","source":"osm"}},{"type":"Feature","geometry":{"type":"Point","coordinates":[72.977157,19.221192]},"properties":{"id":"osm:node/1235821132","name":"Cinemax -WonderMall","category":"culture","subtype":"amenity=cinema","source":"osm"}},{"type":"Feature","geometry":{"type":"Point","coordinates":[72.964959,19.203291]},"properties":{"id":"osm:node/1235843196","name":"Inox","category":"culture","subtype":"amenity=cinema","source":"osm"}},{"type":"Feature","geometry":{"type":"Point","coordinates":[72.962946,19.187225]},"properties":{"id":"osm:node/1235843197","name":"Cinemax","category":"culture","subtype":"amenity=cinema","source":"osm","operator":"Cinemax"}},{"type":"Feature","geometry":{"type":"Point","coordinates":[72.849167,19.01755]},"properties":{"id":"osm:node/1289231870","name":"Mancherji Edulji Joshi Statue","category":"culture","subtype":"tourism=artwork","source":"osm","access":"no"}},{"type":"Feature","geometry":{"type":"Point","coordinates":[72.827939,18.932239]},"properties":{"id":"osm:node/1332570741","name":"Eros Cinema","category":"culture","subtype":"amenity=cinema","source":"osm"}},{"type":"Feature","geometry":{"type":"Point","coordinates":[72.836582,19.027994]},"properties":{"id":"osm:node/1646526516","name":"Samyukta Maharashtra Daalan","category":"culture","subtype":"tourism=museum","source":"osm"}},{"type":"Feature","geometry":{"type":"Point","coordinates":[72.837267,19.027818]},"properties":{"id":"osm:node/1646526594","name":"Chhatrapati Shivaji Maharaj","category":"culture","subtype":"tourism=artwork","source":"osm"}},{"type":"Feature","geometry":{"type":"Point","coordinates":[72.842658,19.12359]},"properties":{"id":"osm:node/1646850368","name":"Navrang Talkies","category":"culture","subtype":"amenity=cinema","source":"osm"}},{"type":"Feature","geometry":{"type":"Point","coordinates":[72.827503,19.114823]},"properties":{"id":"osm:node/1697438559","name":"PVR Juhu","category":"culture","subtype":"amenity=cinema","source":"osm"}},{"type":"Feature","geometry":{"type":"Point","coordinates":[72.847508,19.10096]},"properties":{"id":"osm:node/1803979863","name":"Tilak Mandir, Lok Manya Seva Sangh","category":"culture","subtype":"amenity=library","source":"osm"}},{"type":"Feature","geometry":{"type":"Point","coordinates":[72.831385,18.925838]},"properties":{"id":"osm:node/1973436453","name":"नॅशनल गॅलरी ऑफ मॉडर्न आर्ट","category":"culture","subtype":"tourism=museum","source":"osm"}},{"type":"Feature","geometry":{"type":"Point","coordinates":[72.831005,19.141423]},"properties":{"id":"osm:node/2125320198","name":"Cinemax Versova","category":"culture","subtype":"amenity=cinema","source":"osm","wheelchair":"no"}},{"type":"Feature","geometry":{"type":"Point","coordinates":[72.831457,19.138595]},"properties":{"id":"osm:node/2125322944","name":"PVR ECX","category":"culture","subtype":"amenity=cinema","source":"osm"}},{"type":"Feature","geometry":{"type":"Point","coordinates":[72.931902,18.963048]},"properties":{"id":"osm:node/2127352565","name":"Elephanta Caves","category":"culture","subtype":"tourism=attraction","source":"osm"}},{"type":"Feature","geometry":{"type":"Point","coordinates":[72.931698,18.962723]},"properties":{"id":"osm:node/2127352566","name":"Cave 3","category":"culture","subtype":"tourism=attraction","source":"osm"}},{"type":"Feature","geometry":{"type":"Point","coordinates":[72.833219,18.937673]},"properties":{"id":"osm:node/2166796345","name":"New Excelsior Cinema","category":"culture","subtype":"amenity=cinema","source":"osm","phone":"022 2207 3830"}},{"type":"Feature","geometry":{"type":"Point","coordinates":[72.864723,19.112165]},"properties":{"id":"osm:node/2188851345","name":"Sangam Big Cinema","category":"culture","subtype":"amenity=cinema","source":"osm"}},{"type":"Feature","geometry":{"type":"Point","coordinates":[72.831568,18.933166]},"properties":{"id":"osm:node/2189176391","name":null,"category":"culture","subtype":"tourism=artwork","source":"osm","operator":"Sushil Banwarilal Singhania"}},{"type":"Feature","geometry":{"type":"Point","coordinates":[72.895182,19.039579]},"properties":{"id":"osm:node/2319214064","name":"Ashish Theater","category":"culture","subtype":"amenity=cinema","source":"osm"}},{"type":"Feature","geometry":{"type":"Point","coordinates":[72.981316,19.21711]},"properties":{"id":"osm:node/2430895505","name":"CinemaStar","category":"culture","subtype":"amenity=cinema","source":"osm"}},{"type":"Feature","geometry":{"type":"Point","coordinates":[72.927932,19.042045]},"properties":{"id":"osm:node/2567525006","name":"V. G. Kulkarni Auditorium","category":"culture","subtype":"amenity=theatre","source":"osm"}},{"type":"Feature","geometry":{"type":"Point","coordinates":[72.928049,19.042172]},"properties":{"id":"osm:node/2568671333","name":"Gender & Science Exhibit","category":"culture","subtype":"tourism=attraction","source":"osm"}},{"type":"Feature","geometry":{"type":"Point","coordinates":[72.928593,18.962089]},"properties":{"id":"osm:node/2841826659","name":"Cannon 1","category":"culture","subtype":"tourism=attraction","source":"osm"}},{"type":"Feature","geometry":{"type":"Point","coordinates":[72.92883,18.960216]},"properties":{"id":"osm:node/2841826660","name":"Cannon 2","category":"culture","subtype":"tourism=attraction","source":"osm"}},{"type":"Feature","geometry":{"type":"Point","coordinates":[72.825897,19.048195]},"properties":{"id":"osm:node/2851477517","name":"St John The Baptist Shrine/Oratory","category":"culture","subtype":"tourism=attraction","source":"osm"}},{"type":"Feature","geometry":{"type":"Point","coordinates":[73.010187,19.101073]},"properties":{"id":"osm:node/2913832800","name":"Balaji Theatre","category":"culture","subtype":"amenity=theatre","source":"osm"}},{"type":"Feature","geometry":{"type":"Point","coordinates":[72.899207,19.06248]},"properties":{"id":"osm:node/2932902979","name":"NATRAJ CINEMA","category":"culture","subtype":"amenity=cinema","source":"osm"}},{"type":"Feature","geometry":{"type":"Point","coordinates":[72.879286,19.075718]},"properties":{"id":"osm:node/3289551913","name":"King","category":"culture","subtype":"amenity=cinema","source":"osm"}},{"type":"Feature","geometry":{"type":"Point","coordinates":[72.88376,19.093561]},"properties":{"id":"osm:node/3518529216","name":"Maxus Multiplex","category":"culture","subtype":"amenity=theatre","source":"osm"}},{"type":"Feature","geometry":{"type":"Point","coordinates":[72.852806,19.23017]},"properties":{"id":"osm:node/3574713393","name":"books plaza","category":"culture","subtype":"amenity=library","source":"osm"}},{"type":"Feature","geometry":{"type":"Point","coordinates":[72.826145,18.914299]},"properties":{"id":"osm:node/4048579847","name":"Go Bonkers","category":"culture","subtype":"tourism=theme_park","source":"osm","opening_hours":"Tu-Su 10:00-20:00"}},{"type":"Feature","geometry":{"type":"Point","coordinates":[72.809149,18.957681]},"properties":{"id":"osm:node/4084945107","name":"origami centre","category":"culture","subtype":"tourism=artwork","source":"osm"}},{"type":"Feature","geometry":{"type":"Point","coordinates":[72.81503,19.13204]},"properties":{"id":"osm:node/4108450998","name":"Veda Talents LLP","category":"culture","subtype":"tourism=artwork","source":"osm"}},{"type":"Feature","geometry":{"type":"Point","coordinates":[72.97097,19.194938]},"properties":{"id":"osm:node/4181542989","name":"Vandana Talkies","category":"culture","subtype":"amenity=cinema","source":"osm"}},{"type":"Feature","geometry":{"type":"Point","coordinates":[72.827966,18.996028]},"properties":{"id":"osm:node/4210274293","name":"Shim Graphics","category":"culture","subtype":"tourism=artwork","source":"osm"}},{"type":"Feature","geometry":{"type":"Point","coordinates":[72.846772,18.96605]},"properties":{"id":"osm:node/4230836350","name":"Kwan Tai Shek Temple","category":"culture","subtype":"tourism=attraction","source":"osm","description":"Chinese Temple dedicated to General Kwan Tai Kwon"}},{"type":"Feature","geometry":{"type":"Point","coordinates":[72.831474,18.932712]},"properties":{"id":"osm:node/4265069598","name":null,"category":"culture","subtype":"tourism=artwork","source":"osm"}},{"type":"Feature","geometry":{"type":"Point","coordinates":[72.838612,19.055384]},"properties":{"id":"osm:node/4273389598","name":"Nandi Cinema","category":"culture","subtype":"amenity=cinema","source":"osm"}},{"type":"Feature","geometry":{"type":"Point","coordinates":[72.899722,19.068157]},"properties":{"id":"osm:node/4294829799","name":"Shahakar Plaza","category":"culture","subtype":"amenity=cinema","source":"osm"}},{"type":"Feature","geometry":{"type":"Point","coordinates":[72.828704,19.056745]},"properties":{"id":"osm:node/4309819457","name":"St. Andrew's Auditorium","category":"culture","subtype":"amenity=theatre","source":"osm"}},{"type":"Feature","geometry":{"type":"Point","coordinates":[72.820417,18.925328]},"properties":{"id":"osm:node/4362556096","name":"Little Theatre","category":"culture","subtype":"amenity=theatre","source":"osm"}},{"type":"Feature","geometry":{"type":"Point","coordinates":[72.819942,18.92551]},"properties":{"id":"osm:node/4362564704","name":"art gallery","category":"culture","subtype":"tourism=gallery","source":"osm"}},{"type":"Feature","geometry":{"type":"Point","coordinates":[72.977048,19.21042]},"properties":{"id":"osm:node/4403596896","name":"Indian Library","category":"culture","subtype":"amenity=library","source":"osm"}},{"type":"Feature","geometry":{"type":"Point","coordinates":[72.832585,19.136851]},"properties":{"id":"osm:node/4413539589","name":"Custard Apple Pictures","category":"culture","subtype":"amenity=cinema","source":"osm","opening_hours":"Mo-Fr 10:00-18:00"}},{"type":"Feature","geometry":{"type":"Point","coordinates":[72.81626,19.130031]},"properties":{"id":"osm:node/4418972990","name":"Stillstory Photography","category":"culture","subtype":"tourism=artwork","source":"osm"}},{"type":"Feature","geometry":{"type":"Point","coordinates":[72.805692,18.955683]},"properties":{"id":"osm:node/4513110190","name":"Old Woman’s Shoe","category":"culture","subtype":"tourism=attraction","source":"osm"}},{"type":"Feature","geometry":{"type":"Point","coordinates":[72.842498,19.037171]},"properties":{"id":"osm:node/4569874291","name":"Paradise E-Square","category":"culture","subtype":"amenity=cinema","source":"osm"}},{"type":"Feature","geometry":{"type":"Point","coordinates":[72.905058,19.066345]},"properties":{"id":"osm:node/4569910366","name":"Anukool Circulating Library","category":"culture","subtype":"amenity=library","source":"osm"}},{"type":"Feature","geometry":{"type":"Point","coordinates":[72.904492,19.205931]},"properties":{"id":"osm:node/4583545793","name":"Basic Climbing Nursery","category":"culture","subtype":"tourism=attraction","source":"osm"}},{"type":"Feature","geometry":{"type":"Point","coordinates":[72.818028,18.925343]},"properties":{"id":"osm:node/4583583497","name":"Nariman Point","category":"culture","subtype":"tourism=attraction","source":"osm","opening_hours":"24/7","phone":"07828953774"}},{"type":"Feature","geometry":{"type":"Point","coordinates":[72.820738,18.928365]},"properties":{"id":"osm:node/4583583498","name":"Marine Drive","category":"culture","subtype":"tourism=attraction","source":"osm"}},{"type":"Feature","geometry":{"type":"Point","coordinates":[72.966809,19.1877]},"properties":{"id":"osm:node/4663156696","name":"Malhar Cinema","category":"culture","subtype":"amenity=cinema","source":"osm"}},{"type":"Feature","geometry":{"type":"Point","coordinates":[72.832946,18.938423]},"properties":{"id":"osm:node/4695310999","name":"Sterling Theatre","category":"culture","subtype":"amenity=cinema","source":"osm"}},{"type":"Feature","geometry":{"type":"Point","coordinates":[72.914688,19.049679]},"properties":{"id":"osm:node/4709535489","name":"Sujona chembers","category":"culture","subtype":"tourism=attraction","source":"osm"}},{"type":"Feature","geometry":{"type":"Point","coordinates":[72.83181,18.927804]},"properties":{"id":"osm:node/4731890021","name":"The  spirit of Kala Ghoda","category":"culture","subtype":"tourism=artwork","source":"osm"}},{"type":"Feature","geometry":{"type":"Point","coordinates":[72.967685,19.181291]},"properties":{"id":"osm:node/4784893921","name":null,"category":"culture","subtype":"tourism=artwork","source":"osm"}},{"type":"Feature","geometry":{"type":"Point","coordinates":[72.820114,19.046835]},"properties":{"id":"osm:node/4815555824","name":"Mannat Lands End (Shah Rukh Khan's Bungalow)","category":"culture","subtype":"tourism=attraction","source":"osm","opening_hours":"Mo-Sa 09:00-18:00","phone":"+91 (0)22-26058704"}},{"type":"Feature","geometry":{"type":"Point","coordinates":[72.823484,19.054035]},"properties":{"id":"osm:node/4815556924","name":"Galaxy (Salman Khan House)","category":"culture","subtype":"tourism=attraction","source":"osm"}},{"type":"Feature","geometry":{"type":"Point","coordinates":[72.850964,19.076179]},"properties":{"id":"osm:node/4833923721","name":"K P T L Offish santa kurujh","category":"culture","subtype":"tourism=artwork","source":"osm"}},{"type":"Feature","geometry":{"type":"Point","coordinates":[72.821145,18.954229]},"properties":{"id":"osm:node/4844717537","name":"Card makers","category":"culture","subtype":"tourism=artwork","source":"osm"}},{"type":"Feature","geometry":{"type":"Point","coordinates":[72.825413,18.95802]},"properties":{"id":"osm:node/4844717822","name":"Alankar","category":"culture","subtype":"amenity=cinema","source":"osm"}},{"type":"Feature","geometry":{"type":"Point","coordinates":[72.828892,19.232095]},"properties":{"id":"osm:node/4874047941","name":"Maxus Cinema","category":"culture","subtype":"amenity=cinema","source":"osm"}},{"type":"Feature","geometry":{"type":"Point","coordinates":[72.832578,18.92824]},"properties":{"id":"osm:node/4978736822","name":"Artisans' Center for Art, Craft & Design","category":"culture","subtype":"tourism=gallery","source":"osm"}},{"type":"Feature","geometry":{"type":"Point","coordinates":[72.987301,19.070922]},"properties":{"id":"osm:node/4999044021","name":"Janta Makers Space","category":"culture","subtype":"tourism=artwork","source":"osm"}},{"type":"Feature","geometry":{"type":"Point","coordinates":[72.877711,19.046688]},"properties":{"id":"osm:node/5056120381","name":"BEST Museum","category":"culture","subtype":"tourism=museum","source":"osm","opening_hours":"Mo-Su 10:00-21:00","operator":"MCGC"}},{"type":"Feature","geometry":{"type":"Point","coordinates":[72.815571,18.956048]},"properties":{"id":"osm:node/5085177522","name":"Royal Opera House","category":"culture","subtype":"amenity=theatre","source":"osm","phone":"+912223690511"}},{"type":"Feature","geometry":{"type":"Point","coordinates":[72.960076,19.247618]},"properties":{"id":"osm:node/5109501524","name":"Pachwada waterfall","category":"culture","subtype":"tourism=attraction","source":"osm"}},{"type":"Feature","geometry":{"type":"Point","coordinates":[72.971217,19.209001]},"properties":{"id":"osm:node/5224511221","name":"Cinepolis","category":"culture","subtype":"amenity=cinema","source":"osm","level":"2"}},{"type":"Feature","geometry":{"type":"Point","coordinates":[72.871598,19.212019]},"properties":{"id":"osm:node/5268302341","name":"Inox Movie","category":"culture","subtype":"amenity=cinema","source":"osm","description":"inoxmovies.com"}},{"type":"Feature","geometry":{"type":"Point","coordinates":[72.872529,19.209064]},"properties":{"id":"osm:node/5268302357","name":"Thakur Miraj Cinemas","category":"culture","subtype":"amenity=cinema","source":"osm"}},{"type":"Feature","geometry":{"type":"Point","coordinates":[72.9759,19.192971]},"properties":{"id":"osm:node/5271026074","name":"Shivaji Maharaj Statue","category":"culture","subtype":"tourism=artwork","source":"osm"}},{"type":"Feature","geometry":{"type":"Point","coordinates":[73.01001,19.026018]},"properties":{"id":"osm:node/5360967180","name":"Jewel of Navi Mumbai","category":"culture","subtype":"tourism=attraction","source":"osm","wheelchair":"yes","operator":"NMMC"}},{"type":"Feature","geometry":{"type":"Point","coordinates":[73.007497,19.025367]},"properties":{"id":"osm:node/5400671168","name":"The Thinker","category":"culture","subtype":"tourism=artwork","source":"osm","description":"Statue"}},{"type":"Feature","geometry":{"type":"Point","coordinates":[72.830032,19.105938]},"properties":{"id":"osm:node/5472132424","name":null,"category":"culture","subtype":"tourism=artwork","source":"osm"}},{"type":"Feature","geometry":{"type":"Point","coordinates":[72.998427,19.075897]},"properties":{"id":"osm:node/5510822145","name":"Vishnudas Bhave Natyagruha","category":"culture","subtype":"amenity=theatre","source":"osm"}},{"type":"Feature","geometry":{"type":"Point","coordinates":[72.994601,19.075697]},"properties":{"id":"osm:node/5729535561","name":"Cht.Sahu Maharaj Vachnalaya","category":"culture","subtype":"amenity=library","source":"osm"}},{"type":"Feature","geometry":{"type":"Point","coordinates":[72.951872,19.184221]},"properties":{"id":"osm:node/5746301574","name":"PVR","category":"culture","subtype":"amenity=theatre","source":"osm"}},{"type":"Feature","geometry":{"type":"Point","coordinates":[73.00987,19.026]},"properties":{"id":"osm:node/5795863055","name":"Jewel of Navi Mumbai","category":"culture","subtype":"tourism=artwork","source":"osm"}},{"type":"Feature","geometry":{"type":"Point","coordinates":[72.827871,18.928333]},"properties":{"id":"osm:node/5846473792","name":"Indian National Kennel Club","category":"culture","subtype":"tourism=attraction","source":"osm"}},{"type":"Feature","geometry":{"type":"Point","coordinates":[72.809576,18.973441]},"properties":{"id":"osm:node/5846473793","name":"Jindal Mansion","category":"culture","subtype":"tourism=attraction","source":"osm"}},{"type":"Feature","geometry":{"type":"Point","coordinates":[72.815477,18.988623]},"properties":{"id":"osm:node/5846473794","name":"Nehru Centre Art Gallery","category":"culture","subtype":"tourism=attraction","source":"osm"}},{"type":"Feature","geometry":{"type":"Point","coordinates":[72.807875,18.970828]},"properties":{"id":"osm:node/5846484885","name":"National Museum of Indian Cinema","category":"culture","subtype":"tourism=museum","source":"osm","opening_hours":"Tu-Su 10:00-18:00"}},{"type":"Feature","geometry":{"type":"Point","coordinates":[72.831155,18.927691]},"properties":{"id":"osm:node/5874674526","name":"Sir David Sassoon Library","category":"culture","subtype":"amenity=library","source":"osm"}},{"type":"Feature","geometry":{"type":"Point","coordinates":[72.91581,19.133962]},"properties":{"id":"osm:node/5878275162","name":"ET Library","category":"culture","subtype":"amenity=library","source":"osm"}},{"type":"Feature","geometry":{"type":"Point","coordinates":[72.916616,19.130249]},"properties":{"id":"osm:node/5878275163","name":"Physics Library","category":"culture","subtype":"amenity=library","source":"osm"}},{"type":"Feature","geometry":{"type":"Point","coordinates":[72.918004,19.131053]},"properties":{"id":"osm:node/5878275164","name":"IEOR Library","category":"culture","subtype":"amenity=library","source":"osm"}},{"type":"Feature","geometry":{"type":"Point","coordinates":[72.917899,19.130775]},"properties":{"id":"osm:node/5878275165","name":"Biosciences Library","category":"culture","subtype":"amenity=library","source":"osm"}},{"type":"Feature","geometry":{"type":"Point","coordinates":[72.918539,19.130852]},"properties":{"id":"osm:node/5878275166","name":"Aerospace Library","category":"culture","subtype":"amenity=library","source":"osm"}},{"type":"Feature","geometry":{"type":"Point","coordinates":[72.917532,19.130346]},"properties":{"id":"osm:node/5878275167","name":"Chemical Library","category":"culture","subtype":"amenity=library","source":"osm"}},{"type":"Feature","geometry":{"type":"Point","coordinates":[72.917744,19.132047]},"properties":{"id":"osm:node/5878275168","name":"CSRE library","category":"culture","subtype":"amenity=library","source":"osm"}},{"type":"Feature","geometry":{"type":"Point","coordinates":[72.918002,19.131721]},"properties":{"id":"osm:node/5878275169","name":"Earth Science Dept Library","category":"culture","subtype":"amenity=library","source":"osm"}},{"type":"Feature","geometry":{"type":"Point","coordinates":[72.915792,19.130544]},"properties":{"id":"osm:node/5878275170","name":"CSE library","category":"culture","subtype":"amenity=library","source":"osm"}},{"type":"Feature","geometry":{"type":"Point","coordinates":[72.916427,19.131287]},"properties":{"id":"osm:node/5878275171","name":"Metallurgy Library","category":"culture","subtype":"amenity=library","source":"osm"}},{"type":"Feature","geometry":{"type":"Point","coordinates":[72.915758,19.131757]},"properties":{"id":"osm:node/5878275172","name":"SOM Library","category":"culture","subtype":"amenity=library","source":"osm"}},{"type":"Feature","geometry":{"type":"Point","coordinates":[72.917295,19.133286]},"properties":{"id":"osm:node/5878275173","name":"IDC Library","category":"culture","subtype":"amenity=library","source":"osm"}},{"type":"Feature","geometry":{"type":"Point","coordinates":[72.915268,19.133822]},"properties":{"id":"osm:node/5880343480","name":"बुद्ध (गांधार स्कूल)","category":"culture","subtype":"tourism=artwork","source":"osm"}},{"type":"Feature","geometry":{"type":"Point","coordinates":[72.905102,19.135044]},"properties":{"id":"osm:node/5880343481","name":"Hostel 14 - Conical sculpture","category":"culture","subtype":"tourism=artwork","source":"osm"}},{"type":"Feature","geometry":{"type":"Point","coordinates":[72.909667,19.128194]},"properties":{"id":"osm:node/5880343482","name":"Stationary Boat","category":"culture","subtype":"tourism=artwork","source":"osm"}},{"type":"Feature","geometry":{"type":"Point","coordinates":[72.915889,19.130389]},"properties":{"id":"osm:node/5880343483","name":"KreSIT - globes","category":"culture","subtype":"tourism=artwork","source":"osm"}},{"type":"Feature","geometry":{"type":"Point","coordinates":[72.913611,19.13125]},"properties":{"id":"osm:node/5880343484","name":"Pedalling Boat","category":"culture","subtype":"tourism=artwork","source":"osm"}},{"type":"Feature","geometry":{"type":"Point","coordinates":[72.917778,19.133083]},"properties":{"id":"osm:node/5880343488","name":"Nature Embedded - The Tree","category":"culture","subtype":"tourism=artwork","source":"osm"}},{"type":"Feature","geometry":{"type":"Point","coordinates":[72.91713,19.133019]},"properties":{"id":"osm:node/5880343489","name":"Pencil","category":"culture","subtype":"tourism=artwork","source":"osm"}},{"type":"Feature","geometry":{"type":"Point","coordinates":[72.917541,19.133071]},"properties":{"id":"osm:node/5880343490","name":"Zero","category":"culture","subtype":"tourism=artwork","source":"osm"}},{"type":"Feature","geometry":{"type":"Point","coordinates":[72.917419,19.133105]},"properties":{"id":"osm:node/5880343491","name":"Three Horses","category":"culture","subtype":"tourism=artwork","source":"osm"}},{"type":"Feature","geometry":{"type":"Point","coordinates":[72.915669,19.133067]},"properties":{"id":"osm:node/5882322904","name":"Knowledge Tree","category":"culture","subtype":"tourism=artwork","source":"osm"}},{"type":"Feature","geometry":{"type":"Point","coordinates":[72.824056,18.92894]},"properties":{"id":"osm:node/5907166062","name":null,"category":"culture","subtype":"tourism=artwork","source":"osm"}},{"type":"Feature","geometry":{"type":"Point","coordinates":[72.969503,19.254603]},"properties":{"id":"osm:node/5913743689","name":"Har Har Gange Waterfalls","category":"culture","subtype":"tourism=attraction","source":"osm"}},{"type":"Feature","geometry":{"type":"Point","coordinates":[72.976957,19.194741]},"properties":{"id":"osm:node/5923862825","name":"Rango Bapuji Gupte Statue","category":"culture","subtype":"tourism=artwork","source":"osm"}},{"type":"Feature","geometry":{"type":"Point","coordinates":[72.96573,19.209992]},"properties":{"id":"osm:node/5923940632","name":"Singhania DC3","category":"culture","subtype":"tourism=attraction","source":"osm"}},{"type":"Feature","geometry":{"type":"Point","coordinates":[72.833867,19.056203]},"properties":{"id":"osm:node/5926157724","name":"PVR La Reve","category":"culture","subtype":"amenity=cinema","source":"osm"}},{"type":"Feature","geometry":{"type":"Point","coordinates":[72.839156,19.08961]},"properties":{"id":"osm:node/5942782562","name":"Gold Cinemas","category":"culture","subtype":"amenity=cinema","source":"osm"}},{"type":"Feature","geometry":{"type":"Point","coordinates":[72.836183,18.934005]},"properties":{"id":"osm:node/6052636216","name":"RBI Monetary Museum","category":"culture","subtype":"tourism=museum","source":"osm","operator":"Reserve Bank of India"}},{"type":"Feature","geometry":{"type":"Point","coordinates":[72.846517,19.105359]},"properties":{"id":"osm:node/6110571686","name":"Suncity Theatre","category":"culture","subtype":"amenity=theatre","source":"osm","opening_hours":"Mo-Su 10:00-22:00"}},{"type":"Feature","geometry":{"type":"Point","coordinates":[72.844911,19.100731]},"properties":{"id":"osm:node/6110577585","name":"Dinanath Mangeshkar Natyagruha","category":"culture","subtype":"amenity=theatre","source":"osm","opening_hours":"Mo-Su 10:00-20:00"}},{"type":"Feature","geometry":{"type":"Point","coordinates":[72.826083,19.06992]},"properties":{"id":"osm:node/6223966086","name":"Amir Khan House","category":"culture","subtype":"tourism=attraction","source":"osm"}},{"type":"Feature","geometry":{"type":"Point","coordinates":[72.935825,19.16543]},"properties":{"id":"osm:node/6246572126","name":"Nirmal Sculpture","category":"culture","subtype":"tourism=artwork","source":"osm"}},{"type":"Feature","geometry":{"type":"Point","coordinates":[72.931316,18.963524]},"properties":{"id":"osm:node/6292979383","name":"Elephanta Caves","category":"culture","subtype":"tourism=attraction","source":"osm"}},{"type":"Feature","geometry":{"type":"Point","coordinates":[72.828593,18.943659]},"properties":{"id":"osm:node/6335029685","name":"The People's Free Reading Room & Library","category":"culture","subtype":"amenity=library","source":"osm","opening_hours":"Mo-Sa 09:00-19:00; Su 09:00-13:00"}},{"type":"Feature","geometry":{"type":"Point","coordinates":[72.977125,19.190963]},"properties":{"id":"osm:node/6383679532","name":"Marathi Grant Sangrahalay","category":"culture","subtype":"amenity=library","source":"osm"}},{"type":"Feature","geometry":{"type":"Point","coordinates":[72.976284,19.186948]},"properties":{"id":"osm:node/6389892438","name":"Dr Babasaheb Ambedkar","category":"culture","subtype":"tourism=artwork","source":"osm"}},{"type":"Feature","geometry":{"type":"Point","coordinates":[72.863354,19.021212]},"properties":{"id":"osm:node/6441956357","name":"MCGM Study Center and Toy Library","category":"culture","subtype":"amenity=library","source":"osm"}},{"type":"Feature","geometry":{"type":"Point","coordinates":[72.813357,18.954956]},"properties":{"id":"osm:node/6608967031","name":"Lokmanya Tilak  Statue","category":"culture","subtype":"tourism=artwork","source":"osm"}},{"type":"Feature","geometry":{"type":"Point","coordinates":[72.812023,18.955579]},"properties":{"id":"osm:node/6608967032","name":"Shri Vithalbhai J Patel","category":"culture","subtype":"tourism=artwork","source":"osm"}},{"type":"Feature","geometry":{"type":"Point","coordinates":[72.828373,18.92605]},"properties":{"id":"osm:node/6608982566","name":"Rajiv Gandhi Statue","category":"culture","subtype":"tourism=artwork","source":"osm"}},{"type":"Feature","geometry":{"type":"Point","coordinates":[72.907665,19.11507]},"properties":{"id":"osm:node/6805423587","name":"Powai Art Gallery","category":"culture","subtype":"tourism=artwork","source":"osm"}},{"type":"Feature","geometry":{"type":"Point","coordinates":[72.818597,19.042924]},"properties":{"id":"osm:node/6813467113","name":"Bandra Fort Gate","category":"culture","subtype":"tourism=attraction","source":"osm"}},{"type":"Feature","geometry":{"type":"Point","coordinates":[72.833859,18.922845]},"properties":{"id":"osm:node/6869946311","name":"Shivaji Maharaj Statue","category":"culture","subtype":"tourism=artwork","source":"osm"}},{"type":"Feature","geometry":{"type":"Point","coordinates":[72.847128,19.196054]},"properties":{"id":"osm:node/6953340791","name":"PVR Milap","category":"culture","subtype":"amenity=cinema","source":"osm","phone":"+91 88009 00009"}},{"type":"Feature","geometry":{"type":"Point","coordinates":[72.792914,18.945715]},"properties":{"id":"osm:node/6989263285","name":"Laundry Ghat","category":"culture","subtype":"tourism=attraction","source":"osm"}},{"type":"Feature","geometry":{"type":"Point","coordinates":[72.804887,18.954902]},"properties":{"id":"osm:node/7017923087","name":"कमला नेहरू पार्क","category":"culture","subtype":"tourism=attraction","source":"osm"}},{"type":"Feature","geometry":{"type":"Point","coordinates":[72.916327,19.209324]},"properties":{"id":"osm:node/7019038585","name":"संजय गांधी राष्ट्रीय उद्यान","category":"culture","subtype":"tourism=attraction","source":"osm"}},{"type":"Feature","geometry":{"type":"Point","coordinates":[72.837199,18.982384]},"properties":{"id":"osm:node/7139457385","name":"The Great Eastern Art District","category":"culture","subtype":"tourism=artwork","source":"osm"}},{"type":"Feature","geometry":{"type":"Point","coordinates":[72.837253,18.982453]},"properties":{"id":"osm:node/7139458085","name":"Nine Fish Gallery","category":"culture","subtype":"tourism=artwork","source":"osm"}},{"type":"Feature","geometry":{"type":"Point","coordinates":[72.814068,18.987658]},"properties":{"id":"osm:node/7139458285","name":"Tao Art Gallery","category":"culture","subtype":"tourism=artwork","source":"osm"}},{"type":"Feature","geometry":{"type":"Point","coordinates":[72.973802,19.198209]},"properties":{"id":"osm:node/7252610930","name":"KUCHBHI STUDIO","category":"culture","subtype":"amenity=arts_centre","source":"osm","opening_hours":"Mo-Su 10:00-18:00","description":"art , design , printmaking studio","phone":"+91 9321227630"}},{"type":"Feature","geometry":{"type":"Point","coordinates":[72.995897,19.148919]},"properties":{"id":"osm:node/7343144680","name":"Peace Statue - Chinchwali garden","category":"culture","subtype":"tourism=artwork","source":"osm","description":"Peace Statue - Chinchwali garden. this statue is very big , white in color. It looks beautiful"}},{"type":"Feature","geometry":{"type":"Point","coordinates":[72.819013,18.969546]},"properties":{"id":"osm:node/7577821991","name":null,"category":"culture","subtype":"tourism=artwork","source":"osm"}},{"type":"Feature","geometry":{"type":"Point","coordinates":[73.010576,19.021295]},"properties":{"id":"osm:node/7608362474","name":"Jewel Amphitheatre","category":"culture","subtype":"amenity=theatre","source":"osm"}},{"type":"Feature","geometry":{"type":"Point","coordinates":[73.016268,19.013283]},"properties":{"id":"osm:node/7643000685","name":"I Love Seawoods","category":"culture","subtype":"tourism=attraction","source":"osm"}},{"type":"Feature","geometry":{"type":"Point","coordinates":[72.979347,19.180682]},"properties":{"id":"osm:node/7902294385","name":null,"category":"culture","subtype":"amenity=library","source":"osm","opening_hours":"Mo-Sa 00:00-24:00","phone":"+91 8796045879"}},{"type":"Feature","geometry":{"type":"Point","coordinates":[72.856476,19.11649]},"properties":{"id":"osm:node/7944314140","name":"PVR Andheri","category":"culture","subtype":"amenity=cinema","source":"osm"}},{"type":"Feature","geometry":{"type":"Point","coordinates":[72.857691,19.11387]},"properties":{"id":"osm:node/7944328628","name":"Mohan Studio","category":"culture","subtype":"amenity=cinema","source":"osm"}},{"type":"Feature","geometry":{"type":"Point","coordinates":[72.832261,18.92825]},"properties":{"id":"osm:node/8084252882","name":"Delhi Art Gallery","category":"culture","subtype":"tourism=gallery","source":"osm"}},{"type":"Feature","geometry":{"type":"Point","coordinates":[72.827857,19.139588]},"properties":{"id":"osm:node/8456530689","name":"Just Books","category":"culture","subtype":"amenity=library","source":"osm"}},{"type":"Feature","geometry":{"type":"Point","coordinates":[72.970601,19.243409]},"properties":{"id":"osm:node/8465743749","name":null,"category":"culture","subtype":"tourism=artwork","source":"osm"}},{"type":"Feature","geometry":{"type":"Point","coordinates":[72.835043,19.017513]},"properties":{"id":"osm:node/9019727218","name":"Astro Park-Dadar Salvation Turf","category":"culture","subtype":"tourism=attraction","source":"osm"}},{"type":"Feature","geometry":{"type":"Point","coordinates":[72.903121,19.045374]},"properties":{"id":"osm:node/9019757017","name":"Movie Time","category":"culture","subtype":"amenity=cinema","source":"osm"}},{"type":"Feature","geometry":{"type":"Point","coordinates":[72.956766,19.218645]},"properties":{"id":"osm:node/9250337492","name":"Choankar Library","category":"culture","subtype":"amenity=library","source":"osm","opening_hours":"Mo-Sa 08:00-20:00"}},{"type":"Feature","geometry":{"type":"Point","coordinates":[72.834951,19.189218]},"properties":{"id":"osm:node/9333664724","name":"Movie Time","category":"culture","subtype":"amenity=cinema","source":"osm"}},{"type":"Feature","geometry":{"type":"Point","coordinates":[72.832187,18.935378]},"properties":{"id":"osm:node/9447540847","name":"Chemould Prescott Road","category":"culture","subtype":"tourism=gallery","source":"osm","opening_hours":"Mo-Sa 10:00-18:00","description":"Enduring gallery exhibiting contemporary works in various media by Indian & international artists.","phone":"022 2200 0211"}},{"type":"Feature","geometry":{"type":"Point","coordinates":[72.9018,19.052522]},"properties":{"id":"osm:node/9584759802","name":"Cinepolis","category":"culture","subtype":"amenity=cinema","source":"osm"}},{"type":"Feature","geometry":{"type":"Point","coordinates":[72.903054,19.045363]},"properties":{"id":"osm:node/9668219717","name":"Movietime Cinema","category":"culture","subtype":"amenity=cinema","source":"osm"}},{"type":"Feature","geometry":{"type":"Point","coordinates":[72.882595,19.272761]},"properties":{"id":"osm:node/9775192485","name":"Chattrapati Shivaji Maharaj Statue","category":"culture","subtype":"tourism=artwork","source":"osm"}},{"type":"Feature","geometry":{"type":"Point","coordinates":[72.98412,19.255502]},"properties":{"id":"osm:node/10196823117","name":"The Walk","category":"culture","subtype":"tourism=attraction","source":"osm"}},{"type":"Feature","geometry":{"type":"Point","coordinates":[72.94565,19.168945]},"properties":{"id":"osm:node/10243916930","name":null,"category":"culture","subtype":"tourism=artwork","source":"osm"}},{"type":"Feature","geometry":{"type":"Point","coordinates":[72.945524,19.168965]},"properties":{"id":"osm:node/10243941092","name":null,"category":"culture","subtype":"tourism=artwork","source":"osm"}},{"type":"Feature","geometry":{"type":"Point","coordinates":[72.94742,19.176098]},"properties":{"id":"osm:node/10248131349","name":"Lala Tulsiram Aggarwal","category":"culture","subtype":"tourism=artwork","source":"osm"}},{"type":"Feature","geometry":{"type":"Point","coordinates":[72.96049,19.176143]},"properties":{"id":"osm:node/10279838125","name":"I Love Mulund","category":"culture","subtype":"tourism=artwork","source":"osm"}},{"type":"Feature","geometry":{"type":"Point","coordinates":[72.857267,19.168133]},"properties":{"id":"osm:node/10552506472","name":"Archdiocesan Heritage Museum","category":"culture","subtype":"tourism=museum","source":"osm"}},{"type":"Feature","geometry":{"type":"Point","coordinates":[72.834314,19.059634]},"properties":{"id":"osm:node/10608367505","name":"Cache The Arts And Crafts Gallery","category":"culture","subtype":"tourism=gallery","source":"osm"}},{"type":"Feature","geometry":{"type":"Point","coordinates":[72.830658,19.015219]},"properties":{"id":"osm:node/10690869380","name":"P. L. Deshpande Maharashtra Kala Academy","category":"culture","subtype":"amenity=arts_centre","source":"osm"}},{"type":"Feature","geometry":{"type":"Point","coordinates":[72.829639,18.932889]},"properties":{"id":"osm:node/10695150958","name":"Sir Hormusjee Cowasjee Dinshaw of Aden","category":"culture","subtype":"tourism=artwork","source":"osm"}},{"type":"Feature","geometry":{"type":"Point","coordinates":[72.829313,18.93293]},"properties":{"id":"osm:node/10695150959","name":"Gopal Krishna Gokhale C.I.E.","category":"culture","subtype":"tourism=artwork","source":"osm"}},{"type":"Feature","geometry":{"type":"Point","coordinates":[72.827637,18.933143]},"properties":{"id":"osm:node/10695150960","name":"26/11 Peace Memorial","category":"culture","subtype":"tourism=artwork","source":"osm"}},{"type":"Feature","geometry":{"type":"Point","coordinates":[72.894271,19.126382]},"properties":{"id":"osm:node/10767923285","name":"Dr. Babasaheb Ambedkar","category":"culture","subtype":"tourism=artwork","source":"osm"}},{"type":"Feature","geometry":{"type":"Point","coordinates":[72.866886,19.065226]},"properties":{"id":"osm:node/10779234830","name":"The Art House","category":"culture","subtype":"tourism=gallery","source":"osm"}},{"type":"Feature","geometry":{"type":"Point","coordinates":[72.866754,19.065355]},"properties":{"id":"osm:node/10779234831","name":"The Cube","category":"culture","subtype":"amenity=theatre","source":"osm"}},{"type":"Feature","geometry":{"type":"Point","coordinates":[72.866776,19.065548]},"properties":{"id":"osm:node/10779234832","name":"The Studio Theatre","category":"culture","subtype":"amenity=theatre","source":"osm"}},{"type":"Feature","geometry":{"type":"Point","coordinates":[72.867277,19.065116]},"properties":{"id":"osm:node/10779234833","name":"The Grand Theatre","category":"culture","subtype":"amenity=theatre","source":"osm"}},{"type":"Feature","geometry":{"type":"Point","coordinates":[72.851109,19.05365]},"properties":{"id":"osm:node/10779234834","name":"Maison PVR","category":"culture","subtype":"amenity=cinema","source":"osm"}},{"type":"Feature","geometry":{"type":"Point","coordinates":[73.008984,19.17208]},"properties":{"id":"osm:node/10951466505","name":"रागेश इंजीनियरिंग","category":"culture","subtype":"tourism=artwork","source":"osm"}},{"type":"Feature","geometry":{"type":"Point","coordinates":[72.862651,19.052484]},"properties":{"id":"osm:node/11022219695","name":"Nature Education Centre","category":"culture","subtype":"tourism=museum","source":"osm"}},{"type":"Feature","geometry":{"type":"Point","coordinates":[72.847701,19.067516]},"properties":{"id":"osm:node/11069702443","name":"Gautam Buddha","category":"culture","subtype":"tourism=artwork","source":"osm"}},{"type":"Feature","geometry":{"type":"Point","coordinates":[72.823944,18.99512]},"properties":{"id":"osm:node/11375281416","name":"PVR Cinemas","category":"culture","subtype":"amenity=cinema","source":"osm"}},{"type":"Feature","geometry":{"type":"Point","coordinates":[72.8423,19.022504]},"properties":{"id":"osm:node/11384605361","name":"Shri Shivaji Mandir","category":"culture","subtype":"amenity=theatre","source":"osm"}},{"type":"Feature","geometry":{"type":"Point","coordinates":[72.841395,19.01987]},"properties":{"id":"osm:node/11451997547","name":"INOX","category":"culture","subtype":"amenity=cinema","source":"osm"}},{"type":"Feature","geometry":{"type":"Point","coordinates":[72.974943,19.184579]},"properties":{"id":"osm:node/11505841495","name":"Anand Talkies","category":"culture","subtype":"amenity=cinema","source":"osm"}},{"type":"Feature","geometry":{"type":"Point","coordinates":[72.83193,18.925687]},"properties":{"id":"osm:node/11587888469","name":null,"category":"culture","subtype":"tourism=artwork","source":"osm"}},{"type":"Feature","geometry":{"type":"Point","coordinates":[73.008798,19.171647]},"properties":{"id":"osm:node/11609753169","name":"सुरेश इंजीनियरिंग वर्क्स","category":"culture","subtype":"tourism=artwork","source":"osm"}},{"type":"Feature","geometry":{"type":"Point","coordinates":[73.00861,19.171574]},"properties":{"id":"osm:node/11609753874","name":"जेजीडी एंटरप्राइजेज","category":"culture","subtype":"tourism=artwork","source":"osm"}},{"type":"Feature","geometry":{"type":"Point","coordinates":[72.911523,19.118612]},"properties":{"id":"osm:node/11617834880","name":"heritage library","category":"culture","subtype":"amenity=library","source":"osm","opening_hours":"Mo-Su 09:00-21:00","operator":"heritage"}},{"type":"Feature","geometry":{"type":"Point","coordinates":[72.970718,19.187284]},"properties":{"id":"osm:node/11684728762","name":"Marathi Granth Sangrahalaya","category":"culture","subtype":"amenity=library","source":"osm"}},{"type":"Feature","geometry":{"type":"Point","coordinates":[72.906933,19.122915]},"properties":{"id":"osm:node/11697760314","name":"Powai Vatika","category":"culture","subtype":"tourism=attraction","source":"osm"}},{"type":"Feature","geometry":{"type":"Point","coordinates":[72.864886,19.112519]},"properties":{"id":"osm:node/11698425211","name":"Carnival Cinemas","category":"culture","subtype":"amenity=theatre","source":"osm"}},{"type":"Feature","geometry":{"type":"Point","coordinates":[72.834688,18.922749]},"properties":{"id":"osm:node/11950780368","name":"Swami Vivekananda Statue","category":"culture","subtype":"tourism=artwork","source":"osm"}},{"type":"Feature","geometry":{"type":"Point","coordinates":[72.836885,19.028359]},"properties":{"id":"osm:node/11954344543","name":"Swatantryaveer Vinayak Damodar Savarka Statue","category":"culture","subtype":"tourism=artwork","source":"osm"}},{"type":"Feature","geometry":{"type":"Point","coordinates":[72.833143,18.926054]},"properties":{"id":"osm:node/12299107686","name":"Childrens Museum Amphitheathre","category":"culture","subtype":"amenity=theatre","source":"osm"}},{"type":"Feature","geometry":{"type":"Point","coordinates":[72.832786,18.926115]},"properties":{"id":"osm:node/12299166859","name":"Coral Woman","category":"culture","subtype":"tourism=artwork","source":"osm"}},{"type":"Feature","geometry":{"type":"Point","coordinates":[72.832841,18.926203]},"properties":{"id":"osm:node/12299166869","name":"Data Mining","category":"culture","subtype":"tourism=artwork","source":"osm"}},{"type":"Feature","geometry":{"type":"Point","coordinates":[72.854907,19.060303]},"properties":{"id":"osm:node/12307248579","name":"Mumbai Metro Photo Gallery","category":"culture","subtype":"tourism=gallery","source":"osm","level":"-2"}},{"type":"Feature","geometry":{"type":"Point","coordinates":[72.953705,19.183821]},"properties":{"id":"osm:node/12310909852","name":"Maharana Pratap Statue","category":"culture","subtype":"tourism=artwork","source":"osm"}},{"type":"Feature","geometry":{"type":"Point","coordinates":[72.909133,19.085201]},"properties":{"id":"osm:node/12311779289","name":"INOX Neelyog","category":"culture","subtype":"amenity=cinema","source":"osm"}},{"type":"Feature","geometry":{"type":"Point","coordinates":[72.939634,19.180079]},"properties":{"id":"osm:node/12386067450","name":"GSLV Rocket Model","category":"culture","subtype":"tourism=attraction","source":"osm"}},{"type":"Feature","geometry":{"type":"Point","coordinates":[72.834295,18.931753]},"properties":{"id":"osm:node/12535532210","name":"Bull","category":"culture","subtype":"tourism=artwork","source":"osm"}},{"type":"Feature","geometry":{"type":"Point","coordinates":[72.81167,19.133889]},"properties":{"id":"osm:node/12607214617","name":"Ambrosia Theatre","category":"culture","subtype":"amenity=theatre","source":"osm"}},{"type":"Feature","geometry":{"type":"Point","coordinates":[72.812504,19.134185]},"properties":{"id":"osm:node/12620682456","name":"TPW Casting","category":"culture","subtype":"amenity=theatre","source":"osm"}},{"type":"Feature","geometry":{"type":"Point","coordinates":[72.851875,19.047085]},"properties":{"id":"osm:node/12728235138","name":null,"category":"culture","subtype":"tourism=artwork","source":"osm"}},{"type":"Feature","geometry":{"type":"Point","coordinates":[72.843845,19.027589]},"properties":{"id":"osm:node/12775789706","name":"Yashvantrao Chavan Natya Mandir","category":"culture","subtype":"amenity=theatre","source":"osm"}},{"type":"Feature","geometry":{"type":"Point","coordinates":[72.847411,19.053285]},"properties":{"id":"osm:node/12805933315","name":"BKC Sculpture","category":"culture","subtype":"tourism=artwork","source":"osm"}},{"type":"Feature","geometry":{"type":"Point","coordinates":[72.860266,19.29734]},"properties":{"id":"osm:node/12828346054","name":null,"category":"culture","subtype":"tourism=artwork","source":"osm"}},{"type":"Feature","geometry":{"type":"Point","coordinates":[72.860335,19.297436]},"properties":{"id":"osm:node/12828346055","name":null,"category":"culture","subtype":"tourism=artwork","source":"osm"}},{"type":"Feature","geometry":{"type":"Point","coordinates":[72.827534,19.104909]},"properties":{"id":"osm:node/12842089410","name":"Jalsa (Amitabh Bacchan House)","category":"culture","subtype":"tourism=attraction","source":"osm"}},{"type":"Feature","geometry":{"type":"Point","coordinates":[72.93893,19.175723]},"properties":{"id":"osm:node/12845376175","name":"Arya Samaj Mulund Pusthakalay","category":"culture","subtype":"amenity=library","source":"osm"}},{"type":"Feature","geometry":{"type":"Point","coordinates":[72.898888,19.073691]},"properties":{"id":"osm:node/12854851399","name":"Running Man Statue","category":"culture","subtype":"tourism=artwork","source":"osm"}},{"type":"Feature","geometry":{"type":"Point","coordinates":[72.899744,19.07402]},"properties":{"id":"osm:node/12854871325","name":"K J Somaiya Statue","category":"culture","subtype":"tourism=artwork","source":"osm"}},{"type":"Feature","geometry":{"type":"Point","coordinates":[72.966936,19.179138]},"properties":{"id":"osm:node/12855220563","name":null,"category":"culture","subtype":"tourism=artwork","source":"osm"}},{"type":"Feature","geometry":{"type":"Point","coordinates":[72.898366,19.072837]},"properties":{"id":"osm:node/12863952870","name":"Ganesh Statue","category":"culture","subtype":"tourism=artwork","source":"osm"}},{"type":"Feature","geometry":{"type":"Point","coordinates":[72.850088,19.227091]},"properties":{"id":"osm:node/12865217584","name":"Swatantrya Veer Savarkar Statue","category":"culture","subtype":"tourism=artwork","source":"osm"}},{"type":"Feature","geometry":{"type":"Point","coordinates":[72.850137,19.228108]},"properties":{"id":"osm:node/12865221006","name":null,"category":"culture","subtype":"amenity=theatre","source":"osm"}},{"type":"Feature","geometry":{"type":"Point","coordinates":[72.945321,19.178688]},"properties":{"id":"osm:node/12866379948","name":null,"category":"culture","subtype":"tourism=artwork","source":"osm"}},{"type":"Feature","geometry":{"type":"Point","coordinates":[72.898973,19.073353]},"properties":{"id":"osm:node/12866540582","name":"S K Somaiya Statue","category":"culture","subtype":"tourism=artwork","source":"osm"}},{"type":"Feature","geometry":{"type":"Point","coordinates":[72.900615,19.059939]},"properties":{"id":"osm:node/12934751696","name":null,"category":"culture","subtype":"tourism=artwork","source":"osm"}},{"type":"Feature","geometry":{"type":"Point","coordinates":[72.900485,19.053176]},"properties":{"id":"osm:node/12934970636","name":null,"category":"culture","subtype":"tourism=artwork","source":"osm"}},{"type":"Feature","geometry":{"type":"Point","coordinates":[72.821658,19.051788]},"properties":{"id":"osm:node/12974675264","name":"CPR Awareness Sculpture","category":"culture","subtype":"tourism=artwork","source":"osm"}},{"type":"Feature","geometry":{"type":"Point","coordinates":[72.821665,19.052391]},"properties":{"id":"osm:node/12974675283","name":"Vasudhaiva Kutumbakam","category":"culture","subtype":"tourism=artwork","source":"osm"}},{"type":"Feature","geometry":{"type":"Point","coordinates":[72.821654,19.052169]},"properties":{"id":"osm:node/12974675284","name":null,"category":"culture","subtype":"tourism=artwork","source":"osm"}},{"type":"Feature","geometry":{"type":"Point","coordinates":[72.824479,19.051898]},"properties":{"id":"osm:node/13009284672","name":"Suryakant Lokhande Statue","category":"culture","subtype":"tourism=artwork","source":"osm"}},{"type":"Feature","geometry":{"type":"Point","coordinates":[72.916845,19.099505]},"properties":{"id":"osm:node/13091770542","name":"KidZania","category":"culture","subtype":"tourism=theme_park","source":"osm"}},{"type":"Feature","geometry":{"type":"Point","coordinates":[72.813614,18.987317]},"properties":{"id":"osm:node/13092341002","name":null,"category":"culture","subtype":"tourism=artwork","source":"osm"}},{"type":"Feature","geometry":{"type":"Point","coordinates":[72.83898,19.160026]},"properties":{"id":"osm:node/13094303210","name":"Fortune Heights","category":"culture","subtype":"tourism=theme_park","source":"osm"}},{"type":"Feature","geometry":{"type":"Point","coordinates":[72.816446,18.955277]},"properties":{"id":"osm:node/13112030001","name":"Roxy Cinemas","category":"culture","subtype":"amenity=cinema","source":"osm","phone":"093241 28520","level":"0"}},{"type":"Feature","geometry":{"type":"Point","coordinates":[72.858223,19.180315]},"properties":{"id":"osm:node/13247373359","name":"Doctor Shyamaprasad Mukherjee Chowk","category":"culture","subtype":"tourism=artwork","source":"osm"}},{"type":"Feature","geometry":{"type":"Point","coordinates":[72.897841,19.081902]},"properties":{"id":"osm:node/13314156082","name":"our lady of Velenkani","category":"culture","subtype":"tourism=artwork","source":"osm"}},{"type":"Feature","geometry":{"type":"Point","coordinates":[72.896513,19.081937]},"properties":{"id":"osm:node/13314156083","name":null,"category":"culture","subtype":"tourism=artwork","source":"osm"}},{"type":"Feature","geometry":{"type":"Point","coordinates":[72.924225,19.168804]},"properties":{"id":"osm:node/13423505927","name":"Anthill","category":"culture","subtype":"tourism=artwork","source":"osm"}},{"type":"Feature","geometry":{"type":"Point","coordinates":[72.925072,19.168703]},"properties":{"id":"osm:node/13423505943","name":"Anthill","category":"culture","subtype":"tourism=artwork","source":"osm"}},{"type":"Feature","geometry":{"type":"Point","coordinates":[72.920686,19.171524]},"properties":{"id":"osm:node/13423505944","name":"Anthill","category":"culture","subtype":"tourism=artwork","source":"osm"}},{"type":"Feature","geometry":{"type":"Point","coordinates":[72.934072,19.176845]},"properties":{"id":"osm:node/13425554564","name":"Anthill","category":"culture","subtype":"tourism=artwork","source":"osm"}},{"type":"Feature","geometry":{"type":"Point","coordinates":[72.831787,18.936286]},"properties":{"id":"osm:node/13464039888","name":"Paradox Museum","category":"culture","subtype":"tourism=museum","source":"osm","opening_hours":"Mo-Fr 11:00-20:00; Sa-Su 11:00-20:30","fee":"yes","phone":"+91 22 2082 2829"}},{"type":"Feature","geometry":{"type":"Point","coordinates":[72.829143,18.933267]},"properties":{"id":"osm:node/13471619929","name":null,"category":"culture","subtype":"tourism=artwork","source":"osm"}},{"type":"Feature","geometry":{"type":"Point","coordinates":[72.824595,18.92832]},"properties":{"id":"osm:node/13471766131","name":"Jamsetji N Tata","category":"culture","subtype":"tourism=artwork","source":"osm"}},{"type":"Feature","geometry":{"type":"Point","coordinates":[72.874763,19.04721]},"properties":{"id":"osm:node/13479418105","name":null,"category":"culture","subtype":"amenity=library","source":"osm","opening_hours":"Mo-Sa 08:00-18:00"}},{"type":"Feature","geometry":{"type":"Point","coordinates":[72.918885,19.062538]},"properties":{"id":"osm:node/13483136301","name":"Niyaz Ahamed Library","category":"culture","subtype":"amenity=library","source":"osm","opening_hours":"Su-Fr 09:00-23:00; Sa 09:00-14:00"}},{"type":"Feature","geometry":{"type":"Point","coordinates":[72.866076,19.125719]},"properties":{"id":"osm:node/13501093201","name":null,"category":"culture","subtype":"tourism=artwork","source":"osm"}},{"type":"Feature","geometry":{"type":"Point","coordinates":[72.857851,19.274906]},"properties":{"id":"osm:node/13563844109","name":"Sardar Vallabhai Patel statue","category":"culture","subtype":"tourism=artwork","source":"osm"}},{"type":"Feature","geometry":{"type":"Point","coordinates":[72.824008,19.143921]},"properties":{"id":"osm:node/13589489135","name":"Larezna Art Gallery","category":"culture","subtype":"tourism=gallery","source":"osm","opening_hours":"Mo-Su 12:00-22:00","fee":"no"}},{"type":"Feature","geometry":{"type":"Point","coordinates":[72.921898,19.052336]},"properties":{"id":"osm:node/13722623701","name":"M-Power Library","category":"culture","subtype":"amenity=library","source":"osm","opening_hours":"Tu-Su 09:00-20:00"}},{"type":"Feature","geometry":{"type":"Point","coordinates":[72.839387,19.044703]},"properties":{"id":"osm:node/13851286821","name":null,"category":"culture","subtype":"tourism=artwork","source":"osm"}},{"type":"Feature","geometry":{"type":"Point","coordinates":[72.919355,19.129158]},"properties":{"id":"osm:node/13900288560","name":null,"category":"culture","subtype":"amenity=library","source":"osm"}},{"type":"Feature","geometry":{"type":"Point","coordinates":[72.826723,19.145552]},"properties":{"id":"osm:node/13950522196","name":null,"category":"culture","subtype":"tourism=artwork","source":"osm"}},{"type":"Feature","geometry":{"type":"Point","coordinates":[72.979753,19.187973]},"properties":{"id":"osm:node/13975033814","name":"Mi Chendnikar","category":"culture","subtype":"tourism=artwork","source":"osm"}},{"type":"Feature","geometry":{"type":"Point","coordinates":[72.905334,19.083483]},"properties":{"id":"osm:node/14017438487","name":"Pin Drop Library","category":"culture","subtype":"amenity=library","source":"osm","opening_hours":"Mo-Su 6:00-23:30"}},{"type":"Feature","geometry":{"type":"Point","coordinates":[72.834632,18.940228]},"properties":{"id":"osm:node/14045828711","name":null,"category":"culture","subtype":"tourism=artwork","source":"osm"}},{"type":"Feature","geometry":{"type":"Point","coordinates":[72.834091,18.947271]},"properties":{"id":"osm:node/14045828781","name":null,"category":"culture","subtype":"tourism=artwork","source":"osm"}},{"type":"Feature","geometry":{"type":"Point","coordinates":[72.98256,19.182171]},"properties":{"id":"osm:node/14078518478","name":"Cannon Museum","category":"culture","subtype":"tourism=museum","source":"osm"}},{"type":"Feature","geometry":{"type":"Point","coordinates":[72.832281,18.92864]},"properties":{"id":"osm:node/14100502703","name":"Moksh","category":"culture","subtype":"tourism=gallery","source":"osm"}},{"type":"Feature","geometry":{"type":"Point","coordinates":[72.831975,18.928166]},"properties":{"id":"osm:node/14100942435","name":null,"category":"culture","subtype":"tourism=artwork","source":"osm"}},{"type":"Feature","geometry":{"type":"Point","coordinates":[72.831848,18.92657]},"properties":{"id":"osm:node/14100955251","name":"The Buddhas within","category":"culture","subtype":"tourism=artwork","source":"osm"}},{"type":"Feature","geometry":{"type":"Point","coordinates":[72.821,18.955349]},"properties":{"id":"osm:node/14101276024","name":"47A","category":"culture","subtype":"tourism=gallery","source":"osm"}},{"type":"Feature","geometry":{"type":"Point","coordinates":[72.827392,19.005683]},"properties":{"id":"osm:node/14119124912","name":"Museum of Solutions","category":"culture","subtype":"tourism=museum","source":"osm","wheelchair":"yes","phone":"+91 8828481000"}},{"type":"Feature","geometry":{"type":"Point","coordinates":[72.935294,19.052847]},"properties":{"id":"osm:node/14172771966","name":"Dr. babasaheb ambedkar library","category":"culture","subtype":"amenity=library","source":"osm"}},{"type":"Feature","geometry":{"type":"Point","coordinates":[72.909022,19.083216]},"properties":{"id":"osm:node/14173965272","name":"Dreambaux Library","category":"culture","subtype":"amenity=library","source":"osm","opening_hours":"Mo-Su 07:00-22:00"}},{"type":"Feature","geometry":{"type":"Point","coordinates":[72.793688,18.945487]},"properties":{"id":"osm:way/38718204","name":"Banganga Tank","category":"culture","subtype":"tourism=attraction","source":"osm"}},{"type":"Feature","geometry":{"type":"Point","coordinates":[72.811424,18.954387]},"properties":{"id":"osm:way/38718382","name":"Girgaum Chowpatty Beach","category":"culture","subtype":"tourism=attraction","source":"osm"}},{"type":"Feature","geometry":{"type":"Point","coordinates":[72.819936,18.925048]},"properties":{"id":"osm:way/38748504","name":"Jamshed Bhabha Theatre","category":"culture","subtype":"amenity=theatre","source":"osm"}},{"type":"Feature","geometry":{"type":"Point","coordinates":[72.811498,18.95989]},"properties":{"id":"osm:way/39835569","name":"Mani Bhavan","category":"culture","subtype":"tourism=museum","source":"osm","description":"Mahatma Ghandi's home 1917-1932"}},{"type":"Feature","geometry":{"type":"Point","coordinates":[72.82716,18.94154]},"properties":{"id":"osm:way/46717569","name":"Liberty Cinema","category":"culture","subtype":"amenity=cinema","source":"osm"}},{"type":"Feature","geometry":{"type":"Point","coordinates":[72.82907,18.94288]},"properties":{"id":"osm:way/46717574","name":"Metro Adlabs","category":"culture","subtype":"amenity=cinema","source":"osm","phone":"7045986908"}},{"type":"Feature","geometry":{"type":"Point","coordinates":[72.818329,18.958842]},"properties":{"id":"osm:way/47978361","name":"Naaz Cinema","category":"culture","subtype":"amenity=cinema","source":"osm"}},{"type":"Feature","geometry":{"type":"Point","coordinates":[72.818287,18.959248]},"properties":{"id":"osm:way/47978362","name":"Swastik Cinema","category":"culture","subtype":"amenity=cinema","source":"osm"}},{"type":"Feature","geometry":{"type":"Point","coordinates":[72.81757,18.958604]},"properties":{"id":"osm:way/47978363","name":"Imperial Cinema","category":"culture","subtype":"amenity=cinema","source":"osm"}},{"type":"Feature","geometry":{"type":"Point","coordinates":[72.81915,18.959679]},"properties":{"id":"osm:way/47978479","name":"Dreamland","category":"culture","subtype":"amenity=cinema","source":"osm"}},{"type":"Feature","geometry":{"type":"Point","coordinates":[72.83455,18.947329]},"properties":{"id":"osm:way/49001325","name":"Crawford Market","category":"culture","subtype":"tourism=attraction","source":"osm"}},{"type":"Feature","geometry":{"type":"Point","coordinates":[72.805527,19.23275]},"properties":{"id":"osm:way/49422950","name":"Essel World and Water Kingdom","category":"culture","subtype":"tourism=theme_park","source":"osm","opening_hours":"Mo-Su 10:00-18:30","operator":"Pan India Paryatan Pvt. Ltd."}},{"type":"Feature","geometry":{"type":"Point","coordinates":[72.836142,18.931832]},"properties":{"id":"osm:way/50880513","name":"Asiatic Society Town Hall;Asiatic Society Municipal Library","category":"culture","subtype":"amenity=library","source":"osm","opening_hours":"Mo-Su 09:00-21:00"}},{"type":"Feature","geometry":{"type":"Point","coordinates":[72.816837,19.023739]},"properties":{"id":"osm:way/53361712","name":"Worli Fort","category":"culture","subtype":"tourism=attraction","source":"osm"}},{"type":"Feature","geometry":{"type":"Point","coordinates":[72.83481,18.97917]},"properties":{"id":"osm:way/53369531","name":"Dr. Bhau Daji Lad Museum","category":"culture","subtype":"tourism=museum","source":"osm"}},{"type":"Feature","geometry":{"type":"Point","coordinates":[72.861544,18.995624]},"properties":{"id":"osm:way/55794887","name":"Flamingo Point","category":"culture","subtype":"tourism=attraction","source":"osm"}},{"type":"Feature","geometry":{"type":"Point","coordinates":[72.836084,19.125291]},"properties":{"id":"osm:way/56076938","name":"Bhavan's library","category":"culture","subtype":"amenity=library","source":"osm"}},{"type":"Feature","geometry":{"type":"Point","coordinates":[72.8266,18.958385]},"properties":{"id":"osm:way/72455636","name":"Moti Talkies","category":"culture","subtype":"amenity=cinema","source":"osm"}},{"type":"Feature","geometry":{"type":"Point","coordinates":[72.839962,19.120535]},"properties":{"id":"osm:way/73045131","name":"Gilbert Hill","category":"culture","subtype":"tourism=attraction","source":"osm"}},{"type":"Feature","geometry":{"type":"Point","coordinates":[72.832405,18.948204]},"properties":{"id":"osm:way/79304233","name":"Mangaldas Market","category":"culture","subtype":"tourism=attraction","source":"osm"}},{"type":"Feature","geometry":{"type":"Point","coordinates":[72.835403,18.939863]},"properties":{"id":"osm:way/107441516","name":"Chhatrapati Shivaji Maharaj Terminus","category":"culture","subtype":"tourism=attraction","source":"osm","wheelchair":"yes","operator":"Central Railway","description":"WHC-protected part of the station complex."}},{"type":"Feature","geometry":{"type":"Point","coordinates":[72.836784,18.978148]},"properties":{"id":"osm:way/112796885","name":"Veermata Jijabai Bhosale Zoo & Botanical Garden","category":"culture","subtype":"tourism=zoo","source":"osm","opening_hours":"Th-Tu 09:30-18:00","fee":"yes"}},{"type":"Feature","geometry":{"type":"Point","coordinates":[72.842855,19.021922]},"properties":{"id":"osm:way/113696491","name":"Plaza Cinema","category":"culture","subtype":"amenity=cinema","source":"osm"}},{"type":"Feature","geometry":{"type":"Point","coordinates":[72.858165,19.028443]},"properties":{"id":"osm:way/113775902","name":"Aurora Cinema","category":"culture","subtype":"amenity=cinema","source":"osm"}},{"type":"Feature","geometry":{"type":"Point","coordinates":[72.839922,19.031453]},"properties":{"id":"osm:way/120169293","name":"Mahim Sarvajanik Vachnalaya","category":"culture","subtype":"amenity=library","source":"osm"}},{"type":"Feature","geometry":{"type":"Point","coordinates":[72.843648,19.028563]},"properties":{"id":"osm:way/120169295","name":"Star City Cinema","category":"culture","subtype":"amenity=cinema","source":"osm"}},{"type":"Feature","geometry":{"type":"Point","coordinates":[72.966591,19.238232]},"properties":{"id":"osm:way/128971258","name":"Tikujiniwadi Water Park","category":"culture","subtype":"tourism=theme_park","source":"osm"}},{"type":"Feature","geometry":{"type":"Point","coordinates":[72.834751,19.189341]},"properties":{"id":"osm:way/135137729","name":"MovieTime Cinema","category":"culture","subtype":"amenity=cinema","source":"osm","wheelchair":"yes"}},{"type":"Feature","geometry":{"type":"Point","coordinates":[72.841427,19.030518]},"properties":{"id":"osm:way/151806622","name":"Ashford City Light","category":"culture","subtype":"amenity=cinema","source":"osm"}},{"type":"Feature","geometry":{"type":"Point","coordinates":[72.83091,19.141285]},"properties":{"id":"osm:way/193632118","name":"Infiniti Mall","category":"culture","subtype":"amenity=cinema","source":"osm","opening_hours":"Mo-Su 11:00-22:00","operator":"Infiniti"}},{"type":"Feature","geometry":{"type":"Point","coordinates":[72.832883,19.134873]},"properties":{"id":"osm:way/193632132","name":"Fun Republic","category":"culture","subtype":"amenity=cinema","source":"osm"}},{"type":"Feature","geometry":{"type":"Point","coordinates":[72.827036,19.114766]},"properties":{"id":"osm:way/203143523","name":"Chandan Cinema","category":"culture","subtype":"amenity=cinema","source":"osm"}},{"type":"Feature","geometry":{"type":"Point","coordinates":[72.786713,19.151039]},"properties":{"id":"osm:way/204704714","name":"Madh Chowpatty","category":"culture","subtype":"tourism=attraction","source":"osm"}},{"type":"Feature","geometry":{"type":"Point","coordinates":[72.832659,18.926883]},"properties":{"id":"osm:way/206808196","name":"Chhatrapati Shivaji Maharaj Vastu Sangrahalaya","category":"culture","subtype":"tourism=museum","source":"osm","opening_hours":"Tu-Su 10:15-18:00","fee":"yes"}},{"type":"Feature","geometry":{"type":"Point","coordinates":[72.831718,18.927285]},"properties":{"id":"osm:way/206808197","name":"Jehangir Art Gallery","category":"culture","subtype":"tourism=gallery","source":"osm"}},{"type":"Feature","geometry":{"type":"Point","coordinates":[72.836198,18.932185]},"properties":{"id":"osm:way/207353030","name":"The Asiatic Society of Mumbai","category":"culture","subtype":"amenity=library","source":"osm","opening_hours":"Mo-Fr 08:00-17:00"}},{"type":"Feature","geometry":{"type":"Point","coordinates":[72.819164,18.925408]},"properties":{"id":"osm:way/207413334","name":"Tata Theatre","category":"culture","subtype":"amenity=theatre","source":"osm"}},{"type":"Feature","geometry":{"type":"Point","coordinates":[72.819831,18.925376]},"properties":{"id":"osm:way/207413391","name":"National Centre for the Performing Arts","category":"culture","subtype":"amenity=arts_centre","source":"osm"}},{"type":"Feature","geometry":{"type":"Point","coordinates":[72.830281,19.015265]},"properties":{"id":"osm:way/220425070","name":"Ravindra Natya Mandir","category":"culture","subtype":"amenity=theatre","source":"osm"}},{"type":"Feature","geometry":{"type":"Point","coordinates":[72.817271,19.015264]},"properties":{"id":"osm:way/220843437","name":null,"category":"culture","subtype":"tourism=artwork","source":"osm"}},{"type":"Feature","geometry":{"type":"Point","coordinates":[72.825636,19.106191]},"properties":{"id":"osm:way/230782676","name":"Prithvi Theatre","category":"culture","subtype":"amenity=theatre","source":"osm"}},{"type":"Feature","geometry":{"type":"Point","coordinates":[72.881225,19.031445]},"properties":{"id":"osm:way/246344383","name":"Miraj Wadala IMAX","category":"culture","subtype":"amenity=cinema","source":"osm"}},{"type":"Feature","geometry":{"type":"Point","coordinates":[72.854581,19.232939]},"properties":{"id":"osm:way/249661522","name":"Probodhankar Thakrey Auditorium","category":"culture","subtype":"amenity=theatre","source":"osm","wheelchair":"no"}},{"type":"Feature","geometry":{"type":"Point","coordinates":[72.912304,19.044167]},"properties":{"id":"osm:way/250266159","name":"Tiss Library","category":"culture","subtype":"amenity=library","source":"osm","access":"private"}},{"type":"Feature","geometry":{"type":"Point","coordinates":[72.897006,19.061036]},"properties":{"id":"osm:way/315451804","name":"Fine Arts Society and Cultural Center","category":"culture","subtype":"amenity=arts_centre","source":"osm","phone":"+91 22 25222988"}},{"type":"Feature","geometry":{"type":"Point","coordinates":[72.883758,19.09341]},"properties":{"id":"osm:way/345159487","name":"Maxus Cinema","category":"culture","subtype":"amenity=theatre","source":"osm"}},{"type":"Feature","geometry":{"type":"Point","coordinates":[72.871575,19.292783]},"properties":{"id":"osm:way/352804237","name":"CINEMAX","category":"culture","subtype":"amenity=cinema","source":"osm"}},{"type":"Feature","geometry":{"type":"Point","coordinates":[72.878911,19.077408]},"properties":{"id":"osm:way/353181441","name":"Kalpana Cinema Hall","category":"culture","subtype":"amenity=cinema","source":"osm"}},{"type":"Feature","geometry":{"type":"Point","coordinates":[72.829712,18.918157]},"properties":{"id":"osm:way/353407534","name":"Strand Cinema","category":"culture","subtype":"amenity=cinema","source":"osm"}},{"type":"Feature","geometry":{"type":"Point","coordinates":[72.960348,19.169389]},"properties":{"id":"osm:way/353758055","name":"Mulund Abhyasika","category":"culture","subtype":"amenity=library","source":"osm"}},{"type":"Feature","geometry":{"type":"Point","coordinates":[72.844975,19.157463]},"properties":{"id":"osm:way/354016269","name":"Cinemex","category":"culture","subtype":"amenity=cinema","source":"osm"}},{"type":"Feature","geometry":{"type":"Point","coordinates":[72.830629,19.005648]},"properties":{"id":"osm:way/354278881","name":"Deepak Talkies","category":"culture","subtype":"amenity=cinema","source":"osm"}},{"type":"Feature","geometry":{"type":"Point","coordinates":[72.976738,19.210988]},"properties":{"id":"osm:way/355416251","name":"The Indian Library","category":"culture","subtype":"amenity=library","source":"osm"}},{"type":"Feature","geometry":{"type":"Point","coordinates":[72.838719,19.061392]},"properties":{"id":"osm:way/356258977","name":"G7 Multiplex","category":"culture","subtype":"amenity=cinema","source":"osm"}},{"type":"Feature","geometry":{"type":"Point","coordinates":[72.832777,19.051665]},"properties":{"id":"osm:way/356425974","name":"The Bombay Art Society","category":"culture","subtype":"tourism=gallery","source":"osm","opening_hours":"Mo-Su 11:00-19:00","phone":"022 2651 3466"}},{"type":"Feature","geometry":{"type":"Point","coordinates":[72.837099,19.055557]},"properties":{"id":"osm:way/356450752","name":"National Library","category":"culture","subtype":"amenity=library","source":"osm"}},{"type":"Feature","geometry":{"type":"Point","coordinates":[72.833361,19.064127]},"properties":{"id":"osm:way/357306183","name":"Bal Gandharva Rang Mandir","category":"culture","subtype":"amenity=theatre","source":"osm"}},{"type":"Feature","geometry":{"type":"Point","coordinates":[72.996199,19.075096]},"properties":{"id":"osm:way/357470007","name":"Akhil Bharatiya Gandharva Mahavidyalaya Mandal","category":"culture","subtype":"amenity=arts_centre","source":"osm"}},{"type":"Feature","geometry":{"type":"Point","coordinates":[72.996033,19.075124]},"properties":{"id":"osm:way/357470057","name":"Akhil Bharatiya Gandharva Mahavidyalaya Mandal","category":"culture","subtype":"amenity=arts_centre","source":"osm"}},{"type":"Feature","geometry":{"type":"Point","coordinates":[72.845066,19.20202]},"properties":{"id":"osm:way/358298887","name":"Mayur Cinema","category":"culture","subtype":"amenity=cinema","source":"osm"}},{"type":"Feature","geometry":{"type":"Point","coordinates":[72.819593,18.952928]},"properties":{"id":"osm:way/358341212","name":"Sahitya Sangh Mandir","category":"culture","subtype":"amenity=theatre","source":"osm"}},{"type":"Feature","geometry":{"type":"Point","coordinates":[72.87871,19.066983]},"properties":{"id":"osm:way/359780138","name":"Akash Theater","category":"culture","subtype":"amenity=cinema","source":"osm"}},{"type":"Feature","geometry":{"type":"Point","coordinates":[72.806908,18.969311]},"properties":{"id":"osm:way/359780734","name":"Sophia Bhaba","category":"culture","subtype":"amenity=theatre","source":"osm"}},{"type":"Feature","geometry":{"type":"Point","coordinates":[72.906147,19.206473]},"properties":{"id":"osm:way/369460776","name":"Kanheri Cave Complex","category":"culture","subtype":"tourism=attraction","source":"osm"}},{"type":"Feature","geometry":{"type":"Point","coordinates":[72.867602,19.046611]},"properties":{"id":"osm:way/431512593","name":"सायन किल्ला","category":"culture","subtype":"tourism=attraction","source":"osm","opening_hours":"Mo-Su 04:00-20:00","phone":"1800229930"}},{"type":"Feature","geometry":{"type":"Point","coordinates":[72.820126,18.925467]},"properties":{"id":"osm:way/438517807","name":"Experimental Theatre","category":"culture","subtype":"amenity=theatre","source":"osm"}},{"type":"Feature","geometry":{"type":"Point","coordinates":[72.820234,18.925381]},"properties":{"id":"osm:way/438518249","name":"Godrej Dance Theatre","category":"culture","subtype":"amenity=theatre","source":"osm"}},{"type":"Feature","geometry":{"type":"Point","coordinates":[72.850645,19.074417]},"properties":{"id":"osm:way/626143306","name":"Central Library Kalina","category":"culture","subtype":"amenity=library","source":"osm"}},{"type":"Feature","geometry":{"type":"Point","coordinates":[72.860127,19.000508]},"properties":{"id":"osm:way/626249301","name":"Sewri Fort","category":"culture","subtype":"tourism=attraction","source":"osm"}},{"type":"Feature","geometry":{"type":"Point","coordinates":[72.974107,19.194091]},"properties":{"id":"osm:way/627539081","name":"Ram Ganesh Gadkari Rangayatan","category":"culture","subtype":"amenity=theatre","source":"osm"}},{"type":"Feature","geometry":{"type":"Point","coordinates":[72.974049,19.194101]},"properties":{"id":"osm:way/627539082","name":"Gadkari Rangayatan","category":"culture","subtype":"amenity=theatre","source":"osm"}},{"type":"Feature","geometry":{"type":"Point","coordinates":[72.89823,19.132894]},"properties":{"id":"osm:way/628861196","name":"Vedic Park","category":"culture","subtype":"tourism=attraction","source":"osm"}},{"type":"Feature","geometry":{"type":"Point","coordinates":[72.895178,19.154747]},"properties":{"id":"osm:way/629094962","name":"Film City Temple","category":"culture","subtype":"tourism=attraction","source":"osm"}},{"type":"Feature","geometry":{"type":"Point","coordinates":[72.888835,19.163991]},"properties":{"id":"osm:way/629094968","name":"Abu Village","category":"culture","subtype":"tourism=attraction","source":"osm","description":"Set of rural Indian village used for film shootings"}},{"type":"Feature","geometry":{"type":"Point","coordinates":[72.949337,19.165656]},"properties":{"id":"osm:way/632245751","name":"Mehul Cinema","category":"culture","subtype":"amenity=cinema","source":"osm"}},{"type":"Feature","geometry":{"type":"Point","coordinates":[72.950294,19.174316]},"properties":{"id":"osm:way/665946586","name":"District Library Mulund","category":"culture","subtype":"amenity=library","source":"osm"}},{"type":"Feature","geometry":{"type":"Point","coordinates":[72.978134,19.181996]},"properties":{"id":"osm:way/678334168","name":"Dr. Anandibai Gopalrao Joshi Abhyasika","category":"culture","subtype":"amenity=library","source":"osm"}},{"type":"Feature","geometry":{"type":"Point","coordinates":[72.977275,19.187653]},"properties":{"id":"osm:way/681516924","name":"Ashok Cinema","category":"culture","subtype":"amenity=cinema","source":"osm"}},{"type":"Feature","geometry":{"type":"Point","coordinates":[72.915108,19.13407]},"properties":{"id":"osm:way/723512524","name":"Central Library","category":"culture","subtype":"amenity=library","source":"osm","opening_hours":"Mo-Fr 09:15-23:00; Sa,Su,PH 09:15-17:45"}},{"type":"Feature","geometry":{"type":"Point","coordinates":[72.938743,19.18004]},"properties":{"id":"osm:way/723561445","name":"Open Air Theatre","category":"culture","subtype":"amenity=theatre","source":"osm"}},{"type":"Feature","geometry":{"type":"Point","coordinates":[72.992078,19.14884]},"properties":{"id":"osm:way/727746253","name":null,"category":"culture","subtype":"tourism=artwork","source":"osm"}},{"type":"Feature","geometry":{"type":"Point","coordinates":[73.018435,19.022465]},"properties":{"id":"osm:way/746288110","name":"Cinepolis - Seawoods","category":"culture","subtype":"amenity=cinema","source":"osm","wheelchair":"yes"}},{"type":"Feature","geometry":{"type":"Point","coordinates":[72.834621,19.125041]},"properties":{"id":"osm:way/800445149","name":null,"category":"culture","subtype":"amenity=theatre","source":"osm"}},{"type":"Feature","geometry":{"type":"Point","coordinates":[72.796078,19.147189]},"properties":{"id":"osm:way/923350131","name":null,"category":"culture","subtype":"amenity=theatre","source":"osm"}},{"type":"Feature","geometry":{"type":"Point","coordinates":[72.992583,19.148693]},"properties":{"id":"osm:way/950095640","name":"Dariyacha Raja Statue","category":"culture","subtype":"tourism=artwork","source":"osm"}},{"type":"Feature","geometry":{"type":"Point","coordinates":[72.995503,19.149044]},"properties":{"id":"osm:way/951289360","name":null,"category":"culture","subtype":"amenity=theatre","source":"osm"}},{"type":"Feature","geometry":{"type":"Point","coordinates":[73.014934,19.026626]},"properties":{"id":"osm:way/968857346","name":null,"category":"culture","subtype":"amenity=theatre","source":"osm"}},{"type":"Feature","geometry":{"type":"Point","coordinates":[72.818796,18.990649]},"properties":{"id":"osm:way/979386029","name":"Nehru Science Centre","category":"culture","subtype":"tourism=museum","source":"osm"}},{"type":"Feature","geometry":{"type":"Point","coordinates":[73.01586,18.92643]},"properties":{"id":"osm:way/988399692","name":"Shivaji Maharaj And Ramdas Statue","category":"culture","subtype":"tourism=attraction","source":"osm"}},{"type":"Feature","geometry":{"type":"Point","coordinates":[72.970461,19.228828]},"properties":{"id":"osm:way/997273295","name":"Dr Kashinath Ghanekar Drama theatre","category":"culture","subtype":"amenity=theatre","source":"osm","operator":"TMC"}},{"type":"Feature","geometry":{"type":"Point","coordinates":[72.994579,19.07571]},"properties":{"id":"osm:way/1069815763","name":null,"category":"culture","subtype":"amenity=library","source":"osm"}},{"type":"Feature","geometry":{"type":"Point","coordinates":[72.997824,19.074868]},"properties":{"id":"osm:way/1071052545","name":null,"category":"culture","subtype":"tourism=artwork","source":"osm"}},{"type":"Feature","geometry":{"type":"Point","coordinates":[72.987184,19.149249]},"properties":{"id":"osm:way/1072565554","name":null,"category":"culture","subtype":"tourism=artwork","source":"osm"}},{"type":"Feature","geometry":{"type":"Point","coordinates":[72.982117,19.181596]},"properties":{"id":"osm:way/1080348922","name":null,"category":"culture","subtype":"amenity=theatre","source":"osm"}},{"type":"Feature","geometry":{"type":"Point","coordinates":[72.982561,19.182171]},"properties":{"id":"osm:way/1081162236","name":null,"category":"culture","subtype":"tourism=museum","source":"osm"}},{"type":"Feature","geometry":{"type":"Point","coordinates":[72.859137,19.297579]},"properties":{"id":"osm:way/1122265491","name":null,"category":"culture","subtype":"tourism=gallery","source":"osm","operator":"MBMC"}},{"type":"Feature","geometry":{"type":"Point","coordinates":[72.949014,19.173754]},"properties":{"id":"osm:way/1126732423","name":"Mahakavi Kalidas Natya Mandir","category":"culture","subtype":"amenity=theatre","source":"osm"}},{"type":"Feature","geometry":{"type":"Point","coordinates":[72.875188,19.234896]},"properties":{"id":"osm:way/1158933420","name":"Tiger & Lion Safari","category":"culture","subtype":"tourism=zoo","source":"osm"}},{"type":"Feature","geometry":{"type":"Point","coordinates":[72.867076,19.0653]},"properties":{"id":"osm:way/1159113175","name":"Nita Mukesh Ambani Cultural Centre","category":"culture","subtype":"amenity=arts_centre","source":"osm"}},{"type":"Feature","geometry":{"type":"Point","coordinates":[72.836259,18.995637]},"properties":{"id":"osm:way/1187354637","name":"Bharat Mata Cinema","category":"culture","subtype":"amenity=cinema","source":"osm"}},{"type":"Feature","geometry":{"type":"Point","coordinates":[72.944817,19.153705]},"properties":{"id":"osm:way/1215014605","name":"Read And Share Library","category":"culture","subtype":"amenity=library","source":"osm","opening_hours":"Mo-Sa 08:00-20:00","access":"yes"}},{"type":"Feature","geometry":{"type":"Point","coordinates":[72.889247,19.04522]},"properties":{"id":"osm:way/1242795258","name":"Swami Vivekananda Statute","category":"culture","subtype":"tourism=artwork","source":"osm"}},{"type":"Feature","geometry":{"type":"Point","coordinates":[72.889258,19.045349]},"properties":{"id":"osm:way/1242795260","name":"VES Garden area","category":"culture","subtype":"tourism=artwork","source":"osm"}},{"type":"Feature","geometry":{"type":"Point","coordinates":[72.990784,19.228935]},"properties":{"id":"osm:way/1249183934","name":"Amphitheatre","category":"culture","subtype":"amenity=theatre","source":"osm"}},{"type":"Feature","geometry":{"type":"Point","coordinates":[72.890761,19.038396]},"properties":{"id":"osm:way/1270777924","name":"Chhatrapati Shivaji Maharaj Statue","category":"culture","subtype":"tourism=artwork","source":"osm"}},{"type":"Feature","geometry":{"type":"Point","coordinates":[73.016084,19.131068]},"properties":{"id":"osm:way/1284784492","name":null,"category":"culture","subtype":"tourism=artwork","source":"osm"}},{"type":"Feature","geometry":{"type":"Point","coordinates":[72.970553,18.883384]},"properties":{"id":"osm:way/1286524761","name":null,"category":"culture","subtype":"tourism=artwork","source":"osm"}},{"type":"Feature","geometry":{"type":"Point","coordinates":[72.822122,18.971191]},"properties":{"id":"osm:way/1289063014","name":"Maratha Mandir Theatre","category":"culture","subtype":"amenity=cinema","source":"osm"}},{"type":"Feature","geometry":{"type":"Point","coordinates":[72.833205,18.975896]},"properties":{"id":"osm:way/1289063020","name":"Palace Talkies","category":"culture","subtype":"amenity=cinema","source":"osm","phone":"022 2372 7188"}},{"type":"Feature","geometry":{"type":"Point","coordinates":[72.836641,19.02844]},"properties":{"id":"osm:way/1289189671","name":"वीर सावरकर स्मारक","category":"culture","subtype":"tourism=museum","source":"osm"}},{"type":"Feature","geometry":{"type":"Point","coordinates":[72.995954,19.151739]},"properties":{"id":"osm:way/1320068010","name":"Airoli Drama Theater","category":"culture","subtype":"amenity=theatre","source":"osm","operator":"Navi Mumbai Municipal Corporation"}},{"type":"Feature","geometry":{"type":"Point","coordinates":[72.855968,19.072179]},"properties":{"id":"osm:way/1327051193","name":"New Library Building","category":"culture","subtype":"amenity=library","source":"osm","operator":"University of Mumbai"}},{"type":"Feature","geometry":{"type":"Point","coordinates":[72.833064,18.926072]},"properties":{"id":"osm:way/1329343138","name":"CSMVS Children’s Museum","category":"culture","subtype":"tourism=museum","source":"osm"}},{"type":"Feature","geometry":{"type":"Point","coordinates":[72.815095,19.131697]},"properties":{"id":"osm:way/1378883785","name":"Rangshila Theatre and Acting School","category":"culture","subtype":"amenity=theatre","source":"osm","wheelchair":"no"}},{"type":"Feature","geometry":{"type":"Point","coordinates":[72.897475,19.072509]},"properties":{"id":"osm:way/1388705771","name":"Tagore Amphitheater","category":"culture","subtype":"amenity=theatre","source":"osm","operator":"Somaiya Vidyavihar"}},{"type":"Feature","geometry":{"type":"Point","coordinates":[72.850099,19.226257]},"properties":{"id":"osm:way/1389891177","name":null,"category":"culture","subtype":"amenity=theatre","source":"osm"}},{"type":"Feature","geometry":{"type":"Point","coordinates":[72.853394,19.250096]},"properties":{"id":"osm:way/1389902912","name":"Samaj Kalyan Mandir Reading Room","category":"culture","subtype":"amenity=library","source":"osm","access":"customers"}},{"type":"Feature","geometry":{"type":"Point","coordinates":[72.840101,19.084165]},"properties":{"id":"osm:way/1392543387","name":"Santa Cruz Library","category":"culture","subtype":"amenity=library","source":"osm"}},{"type":"Feature","geometry":{"type":"Point","coordinates":[72.840371,18.948864]},"properties":{"id":"osm:way/1393944622","name":"Lion","category":"culture","subtype":"tourism=artwork","source":"osm"}},{"type":"Feature","geometry":{"type":"Point","coordinates":[72.855231,19.228174]},"properties":{"id":"osm:way/1408545608","name":"Jaya Talkies","category":"culture","subtype":"amenity=cinema","source":"osm"}},{"type":"Feature","geometry":{"type":"Point","coordinates":[72.900474,19.052749]},"properties":{"id":"osm:way/1408553350","name":null,"category":"culture","subtype":"tourism=artwork","source":"osm"}},{"type":"Feature","geometry":{"type":"Point","coordinates":[72.843916,19.013323]},"properties":{"id":"osm:way/1416743594","name":"Chitra Cinema","category":"culture","subtype":"amenity=cinema","source":"osm"}},{"type":"Feature","geometry":{"type":"Point","coordinates":[72.849888,19.237431]},"properties":{"id":"osm:way/1539067089","name":"Municipal Amphitheatre","category":"culture","subtype":"amenity=theatre","source":"osm","wheelchair":"yes","phone":"0998832732"}},{"type":"Feature","geometry":{"type":"Point","coordinates":[72.856574,19.071406]},"properties":{"id":"osm:relation/5269567","name":"Jawaharlal Nehru Library","category":"culture","subtype":"amenity=library","source":"osm"}},{"type":"Feature","geometry":{"type":"Point","coordinates":[72.890124,19.158291]},"properties":{"id":"osm:relation/8757021","name":"Dadasaheb Phalke Chitranagari","category":"culture","subtype":"tourism=attraction","source":"osm"}},{"type":"Feature","geometry":{"type":"Point","coordinates":[72.915108,19.13407]},"properties":{"id":"osm:relation/10023919","name":"IIT Bombay Central Library","category":"culture","subtype":"amenity=library","source":"osm","opening_hours":"07:30-23:00","wheelchair":"yes","access":"permissive","operator":"IIT Bombay"}}]}