{"type":"FeatureCollection","attribution":"© OpenStreetMap contributors (ODbL) · MCGM public toilet data via data.opencity.in (public domain)","generated":"2026-08-13T11:47:50.947Z","bbox":"18.87,72.77,19.32,73.02","features":[{"type":"Feature","geometry":{"type":"Point","coordinates":[72.824292,19.071966]},"properties":{"id":"osm:node/1641813917","name":null,"category":"drinking_water","source":"osm"}},{"type":"Feature","geometry":{"type":"Point","coordinates":[72.831568,18.933166]},"properties":{"id":"osm:node/2189176391","name":null,"category":"drinking_water","source":"osm"}},{"type":"Feature","geometry":{"type":"Point","coordinates":[72.927289,19.042476]},"properties":{"id":"osm:node/2568650320","name":null,"category":"drinking_water","source":"osm"}},{"type":"Feature","geometry":{"type":"Point","coordinates":[72.928317,19.04202]},"properties":{"id":"osm:node/2568659863","name":null,"category":"drinking_water","source":"osm"}},{"type":"Feature","geometry":{"type":"Point","coordinates":[72.931347,18.963945]},"properties":{"id":"osm:node/2841826818","name":null,"category":"drinking_water","source":"osm"}},{"type":"Feature","geometry":{"type":"Point","coordinates":[72.805646,18.956746]},"properties":{"id":"osm:node/3306535091","name":null,"category":"drinking_water","source":"osm"}},{"type":"Feature","geometry":{"type":"Point","coordinates":[72.82636,18.920647]},"properties":{"id":"osm:node/4265455290","name":"Nikhil Transport and Water supply","category":"drinking_water","source":"osm"}},{"type":"Feature","geometry":{"type":"Point","coordinates":[72.873479,19.099154]},"properties":{"id":"osm:node/4538286390","name":null,"category":"drinking_water","source":"osm"}},{"type":"Feature","geometry":{"type":"Point","coordinates":[72.915136,19.133095]},"properties":{"id":"osm:node/4707055001","name":"main bldg","category":"drinking_water","source":"osm"}},{"type":"Feature","geometry":{"type":"Point","coordinates":[72.834109,18.923469]},"properties":{"id":"osm:node/4841716422","name":null,"category":"drinking_water","source":"osm"}},{"type":"Feature","geometry":{"type":"Point","coordinates":[72.915159,19.134169]},"properties":{"id":"osm:node/5071072236","name":"W1","category":"drinking_water","source":"osm","description":"Drinking water at library"}},{"type":"Feature","geometry":{"type":"Point","coordinates":[72.914934,19.134194]},"properties":{"id":"osm:node/5071072237","name":"W2","category":"drinking_water","source":"osm","description":"Drinking water at reading room above library"}},{"type":"Feature","geometry":{"type":"Point","coordinates":[72.915803,19.133881]},"properties":{"id":"osm:node/5072774122","name":"W3","category":"drinking_water","source":"osm","description":"Drinking water at Mathematics department"}},{"type":"Feature","geometry":{"type":"Point","coordinates":[72.915766,19.133879]},"properties":{"id":"osm:node/5072774123","name":"W4","category":"drinking_water","source":"osm","description":"Drinking water at  Mathematics department"}},{"type":"Feature","geometry":{"type":"Point","coordinates":[72.916272,19.134205]},"properties":{"id":"osm:node/5072774124","name":"W5","category":"drinking_water","source":"osm","description":"Drinking water at old CSE building"}},{"type":"Feature","geometry":{"type":"Point","coordinates":[72.916612,19.134167]},"properties":{"id":"osm:node/5072774125","name":"W6","category":"drinking_water","source":"osm","description":"Drinking water at fluid mechanics lab"}},{"type":"Feature","geometry":{"type":"Point","coordinates":[72.91696,19.133938]},"properties":{"id":"osm:node/5072774126","name":"W7","category":"drinking_water","source":"osm"}},{"type":"Feature","geometry":{"type":"Point","coordinates":[72.917688,19.134061]},"properties":{"id":"osm:node/5072774127","name":"W8","category":"drinking_water","source":"osm"}},{"type":"Feature","geometry":{"type":"Point","coordinates":[72.917724,19.133574]},"properties":{"id":"osm:node/5072774128","name":null,"category":"drinking_water","source":"osm"}},{"type":"Feature","geometry":{"type":"Point","coordinates":[72.917239,19.133316]},"properties":{"id":"osm:node/5072774129","name":"W10","category":"drinking_water","source":"osm"}},{"type":"Feature","geometry":{"type":"Point","coordinates":[72.916465,19.133458]},"properties":{"id":"osm:node/5072774130","name":"W11","category":"drinking_water","source":"osm","fee":"no"}},{"type":"Feature","geometry":{"type":"Point","coordinates":[72.915324,19.133192]},"properties":{"id":"osm:node/5072774131","name":"W12","category":"drinking_water","source":"osm"}},{"type":"Feature","geometry":{"type":"Point","coordinates":[72.916483,19.132745]},"properties":{"id":"osm:node/5072774132","name":"W13","category":"drinking_water","source":"osm"}},{"type":"Feature","geometry":{"type":"Point","coordinates":[72.917508,19.1324]},"properties":{"id":"osm:node/5072774133","name":"W14","category":"drinking_water","source":"osm"}},{"type":"Feature","geometry":{"type":"Point","coordinates":[72.916489,19.131978]},"properties":{"id":"osm:node/5072774134","name":"W15","category":"drinking_water","source":"osm"}},{"type":"Feature","geometry":{"type":"Point","coordinates":[72.917301,19.131974]},"properties":{"id":"osm:node/5072774135","name":"W16","category":"drinking_water","source":"osm","description":"Drinking water at Electrical annex"}},{"type":"Feature","geometry":{"type":"Point","coordinates":[72.917605,19.132114]},"properties":{"id":"osm:node/5072774136","name":"W17","category":"drinking_water","source":"osm","description":"Drinking water at  at CSRE"}},{"type":"Feature","geometry":{"type":"Point","coordinates":[72.91765,19.13211]},"properties":{"id":"osm:node/5072774137","name":"W18","category":"drinking_water","source":"osm","description":"Drinking water at SINE"}},{"type":"Feature","geometry":{"type":"Point","coordinates":[72.916571,19.131243]},"properties":{"id":"osm:node/5072774138","name":"W19","category":"drinking_water","source":"osm"}},{"type":"Feature","geometry":{"type":"Point","coordinates":[72.91764,19.13164]},"properties":{"id":"osm:node/5072774139","name":"W20","category":"drinking_water","source":"osm","description":"Drinking water at  earth sciences"}},{"type":"Feature","geometry":{"type":"Point","coordinates":[72.917694,19.131294]},"properties":{"id":"osm:node/5072774140","name":"W21","category":"drinking_water","source":"osm"}},{"type":"Feature","geometry":{"type":"Point","coordinates":[72.917351,19.130949]},"properties":{"id":"osm:node/5072774141","name":"W22","category":"drinking_water","source":"osm"}},{"type":"Feature","geometry":{"type":"Point","coordinates":[72.916543,19.130842]},"properties":{"id":"osm:node/5072774142","name":"W23","category":"drinking_water","source":"osm"}},{"type":"Feature","geometry":{"type":"Point","coordinates":[72.915876,19.130596]},"properties":{"id":"osm:node/5072774143","name":"W27","category":"drinking_water","source":"osm"}},{"type":"Feature","geometry":{"type":"Point","coordinates":[72.916506,19.130349]},"properties":{"id":"osm:node/5072774144","name":"W24","category":"drinking_water","source":"osm"}},{"type":"Feature","geometry":{"type":"Point","coordinates":[72.917677,19.130403]},"properties":{"id":"osm:node/5072774145","name":"W25","category":"drinking_water","source":"osm"}},{"type":"Feature","geometry":{"type":"Point","coordinates":[72.918264,19.130488]},"properties":{"id":"osm:node/5072774146","name":"W26","category":"drinking_water","source":"osm"}},{"type":"Feature","geometry":{"type":"Point","coordinates":[72.956605,19.172336]},"properties":{"id":"osm:node/5646143125","name":"5 RS water","category":"drinking_water","source":"osm"}},{"type":"Feature","geometry":{"type":"Point","coordinates":[72.935699,19.165804]},"properties":{"id":"osm:node/6052581656","name":null,"category":"drinking_water","source":"osm"}},{"type":"Feature","geometry":{"type":"Point","coordinates":[72.915853,19.134906]},"properties":{"id":"osm:node/6212726035","name":"W15","category":"drinking_water","source":"osm"}},{"type":"Feature","geometry":{"type":"Point","coordinates":[72.835638,18.93889]},"properties":{"id":"osm:node/6764468443","name":null,"category":"drinking_water","source":"osm"}},{"type":"Feature","geometry":{"type":"Point","coordinates":[72.919726,19.127635]},"properties":{"id":"osm:node/6924350488","name":"Drinking water","category":"drinking_water","source":"osm"}},{"type":"Feature","geometry":{"type":"Point","coordinates":[72.88251,19.164544]},"properties":{"id":"osm:node/7271727311","name":null,"category":"drinking_water","source":"osm"}},{"type":"Feature","geometry":{"type":"Point","coordinates":[72.834787,19.132491]},"properties":{"id":"osm:node/9134837961","name":null,"category":"drinking_water","source":"osm"}},{"type":"Feature","geometry":{"type":"Point","coordinates":[72.835933,18.978637]},"properties":{"id":"osm:node/10108062037","name":null,"category":"drinking_water","source":"osm"}},{"type":"Feature","geometry":{"type":"Point","coordinates":[72.975067,19.202262]},"properties":{"id":"osm:node/10179870708","name":null,"category":"drinking_water","source":"osm"}},{"type":"Feature","geometry":{"type":"Point","coordinates":[72.946163,19.17961]},"properties":{"id":"osm:node/10275807386","name":null,"category":"drinking_water","source":"osm"}},{"type":"Feature","geometry":{"type":"Point","coordinates":[72.814359,19.134333]},"properties":{"id":"osm:node/10939766807","name":null,"category":"drinking_water","source":"osm","access":"private","level":"0"}},{"type":"Feature","geometry":{"type":"Point","coordinates":[72.872205,19.094774]},"properties":{"id":"osm:node/12075203453","name":null,"category":"drinking_water","source":"osm","access":"passengers"}},{"type":"Feature","geometry":{"type":"Point","coordinates":[72.844661,19.146401]},"properties":{"id":"osm:node/12289855183","name":null,"category":"drinking_water","source":"osm","drinking_water":"yes"}},{"type":"Feature","geometry":{"type":"Point","coordinates":[72.900849,19.062764]},"properties":{"id":"osm:node/12293013067","name":"Durgadevi Saraf Pyau","category":"drinking_water","source":"osm","drinking_water":"yes"}},{"type":"Feature","geometry":{"type":"Point","coordinates":[72.846957,19.040352]},"properties":{"id":"osm:node/12298863511","name":"Ghanshyamdas Saraf Pyau","category":"drinking_water","source":"osm","drinking_water":"yes"}},{"type":"Feature","geometry":{"type":"Point","coordinates":[72.832883,18.926602]},"properties":{"id":"osm:node/12299166854","name":null,"category":"drinking_water","source":"osm"}},{"type":"Feature","geometry":{"type":"Point","coordinates":[72.956412,19.1722]},"properties":{"id":"osm:node/12307002164","name":"Water Station","category":"drinking_water","source":"osm","fee":"no"}},{"type":"Feature","geometry":{"type":"Point","coordinates":[72.858951,19.110386]},"properties":{"id":"osm:node/12325306925","name":null,"category":"drinking_water","source":"osm"}},{"type":"Feature","geometry":{"type":"Point","coordinates":[72.857026,19.229444]},"properties":{"id":"osm:node/12396041750","name":null,"category":"drinking_water","source":"osm","fee":"no","access":"yes","level":"0"}},{"type":"Feature","geometry":{"type":"Point","coordinates":[72.843073,19.019591]},"properties":{"id":"osm:node/12760272393","name":null,"category":"drinking_water","source":"osm","level":"0"}},{"type":"Feature","geometry":{"type":"Point","coordinates":[72.846677,19.120255]},"properties":{"id":"osm:node/12761251786","name":null,"category":"drinking_water","source":"osm","fee":"yes","operator":"Maa Tara Enterprises","level":"0"}},{"type":"Feature","geometry":{"type":"Point","coordinates":[72.846759,19.119364]},"properties":{"id":"osm:node/12761251787","name":null,"category":"drinking_water","source":"osm","level":"0"}},{"type":"Feature","geometry":{"type":"Point","coordinates":[72.850169,19.228239]},"properties":{"id":"osm:node/12865221026","name":null,"category":"drinking_water","source":"osm"}},{"type":"Feature","geometry":{"type":"Point","coordinates":[72.857009,19.228355]},"properties":{"id":"osm:node/12959069282","name":null,"category":"drinking_water","source":"osm","level":"0"}},{"type":"Feature","geometry":{"type":"Point","coordinates":[72.846458,19.120328]},"properties":{"id":"osm:node/12959153792","name":null,"category":"drinking_water","source":"osm","level":"0"}},{"type":"Feature","geometry":{"type":"Point","coordinates":[72.817061,19.129571]},"properties":{"id":"osm:node/13240420128","name":null,"category":"drinking_water","source":"osm"}},{"type":"Feature","geometry":{"type":"Point","coordinates":[72.821853,19.060132]},"properties":{"id":"osm:node/13344125040","name":null,"category":"drinking_water","source":"osm"}},{"type":"Feature","geometry":{"type":"Point","coordinates":[72.816766,19.128656]},"properties":{"id":"osm:node/13377499804","name":null,"category":"drinking_water","source":"osm"}},{"type":"Feature","geometry":{"type":"Point","coordinates":[72.839862,19.06933]},"properties":{"id":"osm:node/13458734815","name":null,"category":"drinking_water","source":"osm","level":"0"}},{"type":"Feature","geometry":{"type":"Point","coordinates":[72.837236,18.943342]},"properties":{"id":"osm:node/13469711969","name":null,"category":"drinking_water","source":"osm"}},{"type":"Feature","geometry":{"type":"Point","coordinates":[72.843118,19.016985]},"properties":{"id":"osm:node/13483737164","name":"Water Vending Machine","category":"drinking_water","source":"osm","opening_hours":"24/7","fee":"yes","operator":"Maa Tara Enterprises","level":"0"}},{"type":"Feature","geometry":{"type":"Point","coordinates":[72.865217,19.125353]},"properties":{"id":"osm:node/13501093227","name":null,"category":"drinking_water","source":"osm"}},{"type":"Feature","geometry":{"type":"Point","coordinates":[72.840236,19.069889]},"properties":{"id":"osm:node/13760340684","name":null,"category":"drinking_water","source":"osm"}},{"type":"Feature","geometry":{"type":"Point","coordinates":[72.840258,19.070002]},"properties":{"id":"osm:node/13760344113","name":null,"category":"drinking_water","source":"osm"}},{"type":"Feature","geometry":{"type":"Point","coordinates":[72.967434,19.180504]},"properties":{"id":"osm:way/845673256","name":null,"category":"drinking_water","source":"osm"}}]}