{"type":"FeatureCollection","attribution":"© OpenStreetMap contributors (ODbL) · MCGM public toilet data via data.opencity.in (public domain)","generated":"2026-09-16T10:52:42.568Z","bbox":"18.87,72.77,19.32,73.02","features":[{"type":"Feature","geometry":{"type":"Point","coordinates":[72.841,19.006]},"properties":{"id":"flood:0","name":"Hindmata Junction","category":"flood_spot","source":"manual_seed","ward":"F/N","severity":"severe","note":"Long-standing low-lying bowl; holding ponds added but still floods"}},{"type":"Feature","geometry":{"type":"Point","coordinates":[72.857,19.027]},"properties":{"id":"flood:1","name":"Gandhi Market (King's Circle)","category":"flood_spot","source":"manual_seed","ward":"F/N","severity":"severe","note":"Classic first-downpour flooding point"}},{"type":"Feature","geometry":{"type":"Point","coordinates":[72.862,19.04]},"properties":{"id":"flood:2","name":"Sion Circle","category":"flood_spot","source":"manual_seed","ward":"F/N","severity":"severe","note":"Water collects around the junction and station approach"}},{"type":"Feature","geometry":{"type":"Point","coordinates":[72.863,19.041]},"properties":{"id":"flood:3","name":"Sion Hospital Junction","category":"flood_spot","source":"manual_seed","ward":"F/N","severity":"moderate","note":"Approach roads waterlog during high tide plus rain"}},{"type":"Feature","geometry":{"type":"Point","coordinates":[72.843,19.019]},"properties":{"id":"flood:4","name":"Dadar TT Circle","category":"flood_spot","source":"manual_seed","ward":"G/N","severity":"moderate","note":"Junction waterlogs in sustained heavy rain"}},{"type":"Feature","geometry":{"type":"Point","coordinates":[72.856,19.027]},"properties":{"id":"flood:5","name":"Matunga Station Road","category":"flood_spot","source":"manual_seed","ward":"F/N","severity":"moderate","note":"Side roads flood before the main road does"}},{"type":"Feature","geometry":{"type":"Point","coordinates":[72.857,19.018]},"properties":{"id":"flood:6","name":"Wadala Depot","category":"flood_spot","source":"manual_seed","ward":"F/S","severity":"moderate","note":"Low-lying stretch near the depot"}},{"type":"Feature","geometry":{"type":"Point","coordinates":[72.888,19.043]},"properties":{"id":"flood:7","name":"Chunabhatti","category":"flood_spot","source":"manual_seed","ward":"F/N","severity":"severe","note":"Recurrent deep waterlogging near the station"}},{"type":"Feature","geometry":{"type":"Point","coordinates":[72.879,19.07]},"properties":{"id":"flood:8","name":"Kurla East (Depot)","category":"flood_spot","source":"manual_seed","ward":"L","severity":"severe","note":"Mithi river backflow area; floods fast"}},{"type":"Feature","geometry":{"type":"Point","coordinates":[72.879,19.065]},"properties":{"id":"flood:9","name":"Kurla Station Road","category":"flood_spot","source":"manual_seed","ward":"L","severity":"severe","note":"Frequent knee-deep reports"}},{"type":"Feature","geometry":{"type":"Point","coordinates":[72.93,19.048]},"properties":{"id":"flood:10","name":"Mankhurd","category":"flood_spot","source":"manual_seed","ward":"M/E","severity":"moderate","note":"Low-lying; tidal influence"}},{"type":"Feature","geometry":{"type":"Point","coordinates":[72.899,19.062]},"properties":{"id":"flood:11","name":"Chembur Station","category":"flood_spot","source":"manual_seed","ward":"M/W","severity":"moderate","note":"Underpass and approach roads"}},{"type":"Feature","geometry":{"type":"Point","coordinates":[72.908,19.086]},"properties":{"id":"flood:12","name":"Ghatkopar (Amar Mahal)","category":"flood_spot","source":"manual_seed","ward":"N","severity":"moderate","note":"Junction waterlogs in heavy spells"}},{"type":"Feature","geometry":{"type":"Point","coordinates":[72.926,19.108]},"properties":{"id":"flood:13","name":"Vikhroli Station Road","category":"flood_spot","source":"manual_seed","ward":"S","severity":"moderate","note":"East-side approach floods"}},{"type":"Feature","geometry":{"type":"Point","coordinates":[72.937,19.142]},"properties":{"id":"flood:14","name":"Bhandup Station","category":"flood_spot","source":"manual_seed","ward":"S","severity":"moderate","note":"Station road and market area"}},{"type":"Feature","geometry":{"type":"Point","coordinates":[72.905,19.118]},"properties":{"id":"flood:15","name":"Powai (IIT gate stretch)","category":"flood_spot","source":"manual_seed","ward":"S","severity":"moderate","note":"Localised pooling on the lake-side road"}},{"type":"Feature","geometry":{"type":"Point","coordinates":[72.888,19.1]},"properties":{"id":"flood:16","name":"Saki Naka Junction","category":"flood_spot","source":"manual_seed","ward":"L","severity":"severe","note":"Notorious junction; drainage repeatedly flagged"}},{"type":"Feature","geometry":{"type":"Point","coordinates":[72.879,19.11]},"properties":{"id":"flood:17","name":"Marol Naka","category":"flood_spot","source":"manual_seed","ward":"K/E","severity":"moderate","note":"Waterlogs near the metro corridor works"}},{"type":"Feature","geometry":{"type":"Point","coordinates":[72.846,19.119]},"properties":{"id":"flood:18","name":"Andheri Subway","category":"flood_spot","source":"manual_seed","ward":"K/W","severity":"severe","note":"Closes to traffic almost every monsoon"}},{"type":"Feature","geometry":{"type":"Point","coordinates":[72.86,19.111]},"properties":{"id":"flood:19","name":"Andheri East (Chakala)","category":"flood_spot","source":"manual_seed","ward":"K/E","severity":"moderate","note":"Service roads pool water"}},{"type":"Feature","geometry":{"type":"Point","coordinates":[72.842,19.085]},"properties":{"id":"flood:20","name":"Milan Subway (Santacruz)","category":"flood_spot","source":"manual_seed","ward":"H/W","severity":"severe","note":"Iconic flooding point; often impassable"}},{"type":"Feature","geometry":{"type":"Point","coordinates":[72.839,19.07]},"properties":{"id":"flood:21","name":"Khar Subway","category":"flood_spot","source":"manual_seed","ward":"H/W","severity":"severe","note":"Frequently shut during heavy rain"}},{"type":"Feature","geometry":{"type":"Point","coordinates":[72.844,19.099]},"properties":{"id":"flood:22","name":"Vile Parle Subway","category":"flood_spot","source":"manual_seed","ward":"K/W","severity":"moderate","note":"Underpass floods quickly"}},{"type":"Feature","geometry":{"type":"Point","coordinates":[72.848,19.135]},"properties":{"id":"flood:23","name":"Jogeshwari Subway","category":"flood_spot","source":"manual_seed","ward":"K/W","severity":"severe","note":"Regularly impassable"}},{"type":"Feature","geometry":{"type":"Point","coordinates":[72.85,19.165]},"properties":{"id":"flood:24","name":"Goregaon Subway","category":"flood_spot","source":"manual_seed","ward":"P/S","severity":"moderate","note":"Underpass waterlogging"}},{"type":"Feature","geometry":{"type":"Point","coordinates":[72.848,19.186]},"properties":{"id":"flood:25","name":"Malad Subway","category":"flood_spot","source":"manual_seed","ward":"P/N","severity":"severe","note":"Long-standing severe flooding point"}},{"type":"Feature","geometry":{"type":"Point","coordinates":[72.852,19.205]},"properties":{"id":"flood:26","name":"Kandivali (Poisar)","category":"flood_spot","source":"manual_seed","ward":"R/S","severity":"moderate","note":"Nullah overflow area"}},{"type":"Feature","geometry":{"type":"Point","coordinates":[72.857,19.23]},"properties":{"id":"flood:27","name":"Borivali Station East","category":"flood_spot","source":"manual_seed","ward":"R/C","severity":"moderate","note":"Station approach roads"}},{"type":"Feature","geometry":{"type":"Point","coordinates":[72.859,19.25]},"properties":{"id":"flood:28","name":"Dahisar Subway","category":"flood_spot","source":"manual_seed","ward":"R/N","severity":"moderate","note":"Underpass and river-adjacent stretch"}},{"type":"Feature","geometry":{"type":"Point","coordinates":[72.84,19.033]},"properties":{"id":"flood:29","name":"Mahim Causeway","category":"flood_spot","source":"manual_seed","ward":"G/N","severity":"severe","note":"Tidal plus rain; sea water ingress"}},{"type":"Feature","geometry":{"type":"Point","coordinates":[72.85,19.04]},"properties":{"id":"flood:30","name":"Dharavi (90 Feet Road)","category":"flood_spot","source":"manual_seed","ward":"G/N","severity":"severe","note":"Dense low-lying area; drains back up"}},{"type":"Feature","geometry":{"type":"Point","coordinates":[72.841,19.054]},"properties":{"id":"flood:31","name":"Bandra East (Kalanagar)","category":"flood_spot","source":"manual_seed","ward":"H/E","severity":"severe","note":"Junction near the Mithi; floods rapidly"}},{"type":"Feature","geometry":{"type":"Point","coordinates":[72.833,19]},"properties":{"id":"flood:32","name":"Elphinstone / Prabhadevi","category":"flood_spot","source":"manual_seed","ward":"G/S","severity":"moderate","note":"Low-lying pockets near the station"}},{"type":"Feature","geometry":{"type":"Point","coordinates":[72.832,18.993]},"properties":{"id":"flood:33","name":"Currey Road Bridge","category":"flood_spot","source":"manual_seed","ward":"F/S","severity":"moderate","note":"Approach road waterlogging"}},{"type":"Feature","geometry":{"type":"Point","coordinates":[72.834,18.993]},"properties":{"id":"flood:34","name":"Lalbaug Flyover base","category":"flood_spot","source":"manual_seed","ward":"F/S","severity":"severe","note":"Bowl at the flyover descent"}},{"type":"Feature","geometry":{"type":"Point","coordinates":[72.838,19]},"properties":{"id":"flood:35","name":"Parel TT","category":"flood_spot","source":"manual_seed","ward":"F/S","severity":"moderate","note":"Junction pooling in heavy rain"}},{"type":"Feature","geometry":{"type":"Point","coordinates":[72.833,18.976]},"properties":{"id":"flood:36","name":"Byculla Station Road","category":"flood_spot","source":"manual_seed","ward":"E","severity":"moderate","note":"Old drainage; backs up in downpours"}},{"type":"Feature","geometry":{"type":"Point","coordinates":[72.821,18.97]},"properties":{"id":"flood:37","name":"Mumbai Central (Nair Hospital)","category":"flood_spot","source":"manual_seed","ward":"E","severity":"moderate","note":"Hospital approach floods"}},{"type":"Feature","geometry":{"type":"Point","coordinates":[72.809,18.978]},"properties":{"id":"flood:38","name":"Haji Ali Junction","category":"flood_spot","source":"manual_seed","ward":"D","severity":"severe","note":"Sea-facing; high tide plus rain closes lanes"}},{"type":"Feature","geometry":{"type":"Point","coordinates":[72.818,19]},"properties":{"id":"flood:39","name":"Worli Naka","category":"flood_spot","source":"manual_seed","ward":"G/S","severity":"moderate","note":"Junction waterlogging"}},{"type":"Feature","geometry":{"type":"Point","coordinates":[72.825,18.932]},"properties":{"id":"flood:40","name":"Marine Drive (Churchgate end)","category":"flood_spot","source":"manual_seed","ward":"A","severity":"moderate","note":"Overtopping at high tide during storms"}},{"type":"Feature","geometry":{"type":"Point","coordinates":[72.835,18.94]},"properties":{"id":"flood:41","name":"Fort / CST area","category":"flood_spot","source":"manual_seed","ward":"A","severity":"moderate","note":"Heritage drainage; localised pooling"}},{"type":"Feature","geometry":{"type":"Point","coordinates":[72.836,18.95]},"properties":{"id":"flood:42","name":"Masjid Bunder","category":"flood_spot","source":"manual_seed","ward":"B","severity":"severe","note":"Very low-lying market area"}},{"type":"Feature","geometry":{"type":"Point","coordinates":[72.825,18.915]},"properties":{"id":"flood:43","name":"Colaba Causeway","category":"flood_spot","source":"manual_seed","ward":"A","severity":"moderate","note":"Tidal pooling in heavy rain"}}]}