{"type":"FeatureCollection","attribution":"© OpenStreetMap contributors (ODbL) · MCGM public toilet data via data.opencity.in (public domain)","generated":"2026-09-16T10:52:39.555Z","bbox":"18.87,72.77,19.32,73.02","features":[{"type":"Feature","geometry":{"type":"Point","coordinates":[72.83246,19.140853]},"properties":{"id":"osm:node/342120028","name":"Crystal Plaza","category":"market","subtype":"shop=mall","source":"osm"}},{"type":"Feature","geometry":{"type":"Point","coordinates":[72.829718,18.955851]},"properties":{"id":"osm:node/714829538","name":null,"category":"market","subtype":"amenity=marketplace","source":"osm"}},{"type":"Feature","geometry":{"type":"Point","coordinates":[72.83026,18.952807]},"properties":{"id":"osm:node/714858844","name":null,"category":"market","subtype":"amenity=marketplace","source":"osm"}},{"type":"Feature","geometry":{"type":"Point","coordinates":[72.874381,19.263248]},"properties":{"id":"osm:node/1070841437","name":"Thakur Shopping Mall & Multiplex","category":"market","subtype":"shop=mall","source":"osm"}},{"type":"Feature","geometry":{"type":"Point","coordinates":[72.977817,19.247654]},"properties":{"id":"osm:node/1235863194","name":"Dhanlaxmi Shopping","category":"market","subtype":"amenity=marketplace","source":"osm"}},{"type":"Feature","geometry":{"type":"Point","coordinates":[72.846789,19.187572]},"properties":{"id":"osm:node/1347496088","name":"Nataraj Market","category":"market","subtype":"shop=department_store","source":"osm"}},{"type":"Feature","geometry":{"type":"Point","coordinates":[72.855537,19.231027]},"properties":{"id":"osm:node/1352264164","name":"Dattani Trade Centre","category":"market","subtype":"shop=department_store","source":"osm"}},{"type":"Feature","geometry":{"type":"Point","coordinates":[72.859105,19.19004]},"properties":{"id":"osm:node/1356239107","name":"Big Bazzar, Kandivali","category":"market","subtype":"shop=mall","source":"osm"}},{"type":"Feature","geometry":{"type":"Point","coordinates":[72.828621,19.215569]},"properties":{"id":"osm:node/1416488725","name":"Charkop Market","category":"market","subtype":"amenity=marketplace","source":"osm"}},{"type":"Feature","geometry":{"type":"Point","coordinates":[72.8275,19.114597]},"properties":{"id":"osm:node/1697439343","name":"Shoppers Stop","category":"market","subtype":"shop=department_store","source":"osm"}},{"type":"Feature","geometry":{"type":"Point","coordinates":[72.953525,19.210119]},"properties":{"id":"osm:node/1822487247","name":"Lakadi Pool Market","category":"market","subtype":"amenity=marketplace","source":"osm"}},{"type":"Feature","geometry":{"type":"Point","coordinates":[72.981162,19.217319]},"properties":{"id":"osm:node/1864486760","name":"Easyday Market","category":"market","subtype":"shop=department_store","source":"osm"}},{"type":"Feature","geometry":{"type":"Point","coordinates":[72.900382,19.069321]},"properties":{"id":"osm:node/2319433635","name":"Shopper's Stop","category":"market","subtype":"shop=department_store","source":"osm","opening_hours":"10:00-23:00"}},{"type":"Feature","geometry":{"type":"Point","coordinates":[72.867388,19.211819]},"properties":{"id":"osm:node/2403386465","name":"VMall","category":"market","subtype":"shop=mall","source":"osm"}},{"type":"Feature","geometry":{"type":"Point","coordinates":[72.845757,19.162342]},"properties":{"id":"osm:node/2622695385","name":"City Centre Mall","category":"market","subtype":"shop=mall","source":"osm"}},{"type":"Feature","geometry":{"type":"Point","coordinates":[72.911338,19.048019]},"properties":{"id":"osm:node/3529569766","name":"bhaji & machhi market","category":"market","subtype":"amenity=marketplace","source":"osm"}},{"type":"Feature","geometry":{"type":"Point","coordinates":[72.8363,18.947964]},"properties":{"id":"osm:node/4133879811","name":"Night Market","category":"market","subtype":"amenity=marketplace","source":"osm"}},{"type":"Feature","geometry":{"type":"Point","coordinates":[72.838586,19.195217]},"properties":{"id":"osm:node/4137663143","name":"Orlem Market","category":"market","subtype":"amenity=marketplace","source":"osm"}},{"type":"Feature","geometry":{"type":"Point","coordinates":[72.89135,19.29268]},"properties":{"id":"osm:node/4659330132","name":"Ghodbunder Market","category":"market","subtype":"amenity=marketplace","source":"osm"}},{"type":"Feature","geometry":{"type":"Point","coordinates":[72.829706,18.961403]},"properties":{"id":"osm:node/4844675132","name":"Antiques","category":"market","subtype":"shop=department_store","source":"osm"}},{"type":"Feature","geometry":{"type":"Point","coordinates":[72.832722,18.954671]},"properties":{"id":"osm:node/4844717523","name":"Choice","category":"market","subtype":"shop=department_store","source":"osm"}},{"type":"Feature","geometry":{"type":"Point","coordinates":[72.831642,18.958289]},"properties":{"id":"osm:node/4844717525","name":"Shama","category":"market","subtype":"shop=department_store","source":"osm"}},{"type":"Feature","geometry":{"type":"Point","coordinates":[72.843983,19.040402]},"properties":{"id":"osm:node/4846878580","name":"Mahila Fish Market, Mahim","category":"market","subtype":"amenity=marketplace","source":"osm"}},{"type":"Feature","geometry":{"type":"Point","coordinates":[72.860364,19.031751]},"properties":{"id":"osm:node/4848773730","name":"Sabji Market","category":"market","subtype":"amenity=marketplace","source":"osm"}},{"type":"Feature","geometry":{"type":"Point","coordinates":[72.873672,19.265771]},"properties":{"id":"osm:node/4910114922","name":"Bookers Store","category":"market","subtype":"shop=department_store","source":"osm"}},{"type":"Feature","geometry":{"type":"Point","coordinates":[73.014853,19.006867]},"properties":{"id":"osm:node/4957118339","name":"Water Well","category":"market","subtype":"shop=mall","source":"osm"}},{"type":"Feature","geometry":{"type":"Point","coordinates":[72.915308,19.133301]},"properties":{"id":"osm:node/5077428235","name":"Main Building Print Shop","category":"market","subtype":"shop=department_store","source":"osm"}},{"type":"Feature","geometry":{"type":"Point","coordinates":[72.914071,19.106677]},"properties":{"id":"osm:node/5456500630","name":"Fish Market","category":"market","subtype":"amenity=marketplace","source":"osm"}},{"type":"Feature","geometry":{"type":"Point","coordinates":[72.926665,19.121001]},"properties":{"id":"osm:node/5580528930","name":"Brand Factory Vikhroli","category":"market","subtype":"shop=mall","source":"osm"}},{"type":"Feature","geometry":{"type":"Point","coordinates":[72.865145,19.03665]},"properties":{"id":"osm:node/5792430067","name":"Hemant Manjrekar Market","category":"market","subtype":"amenity=marketplace","source":"osm"}},{"type":"Feature","geometry":{"type":"Point","coordinates":[72.971971,19.174857]},"properties":{"id":"osm:node/6381032024","name":"Sahakari Bhandar","category":"market","subtype":"shop=department_store","source":"osm"}},{"type":"Feature","geometry":{"type":"Point","coordinates":[72.935875,19.163778]},"properties":{"id":"osm:node/6786448331","name":"Sonapur Market","category":"market","subtype":"amenity=marketplace","source":"osm"}},{"type":"Feature","geometry":{"type":"Point","coordinates":[72.906944,19.11534]},"properties":{"id":"osm:node/6795540697","name":"Cheap & Best","category":"market","subtype":"shop=department_store","source":"osm"}},{"type":"Feature","geometry":{"type":"Point","coordinates":[72.96477,19.223287]},"properties":{"id":"osm:node/6805069986","name":"Royal supermarket","category":"market","subtype":"shop=department_store","source":"osm","opening_hours":"Mo-Su 09:00-21:00"}},{"type":"Feature","geometry":{"type":"Point","coordinates":[72.97123,19.20918]},"properties":{"id":"osm:node/6805070185","name":"Reliance Mart","category":"market","subtype":"shop=department_store","source":"osm","level":"0"}},{"type":"Feature","geometry":{"type":"Point","coordinates":[72.90811,19.115458]},"properties":{"id":"osm:node/6805450186","name":"Touch to touch","category":"market","subtype":"shop=department_store","source":"osm"}},{"type":"Feature","geometry":{"type":"Point","coordinates":[72.921266,19.124571]},"properties":{"id":"osm:node/6807538287","name":"New Durga Supermarket","category":"market","subtype":"shop=department_store","source":"osm"}},{"type":"Feature","geometry":{"type":"Point","coordinates":[72.82959,18.947747]},"properties":{"id":"osm:node/6813483776","name":"Umbrella traders market area","category":"market","subtype":"amenity=marketplace","source":"osm"}},{"type":"Feature","geometry":{"type":"Point","coordinates":[72.831612,18.922635]},"properties":{"id":"osm:node/6994530085","name":"Miniso","category":"market","subtype":"shop=department_store","source":"osm"}},{"type":"Feature","geometry":{"type":"Point","coordinates":[72.832916,19.053719]},"properties":{"id":"osm:node/8438952889","name":"Bandra Market","category":"market","subtype":"amenity=marketplace","source":"osm","operator":"BMC"}},{"type":"Feature","geometry":{"type":"Point","coordinates":[72.995448,19.15034]},"properties":{"id":"osm:node/8795603910","name":"Jai Bhawani Dainandin Bazaar","category":"market","subtype":"amenity=marketplace","source":"osm"}},{"type":"Feature","geometry":{"type":"Point","coordinates":[72.908221,19.079094]},"properties":{"id":"osm:node/9134213522","name":"Ratna Departmental Store","category":"market","subtype":"shop=department_store","source":"osm"}},{"type":"Feature","geometry":{"type":"Point","coordinates":[72.992983,19.148174]},"properties":{"id":"osm:node/9811689656","name":"Divagaon Fish Market","category":"market","subtype":"amenity=marketplace","source":"osm"}},{"type":"Feature","geometry":{"type":"Point","coordinates":[72.95174,19.18388]},"properties":{"id":"osm:node/9887637253","name":"Rmall","category":"market","subtype":"shop=mall","source":"osm"}},{"type":"Feature","geometry":{"type":"Point","coordinates":[72.832855,19.018815]},"properties":{"id":"osm:node/10688895850","name":"Sahkari Bhandar Mall","category":"market","subtype":"shop=mall","source":"osm","opening_hours":"Mo-Su 09:00-21:00","operator":"Reliance"}},{"type":"Feature","geometry":{"type":"Point","coordinates":[72.834679,19.157595]},"properties":{"id":"osm:node/10928530153","name":"Harmony Mall","category":"market","subtype":"shop=mall","source":"osm"}},{"type":"Feature","geometry":{"type":"Point","coordinates":[72.834823,19.084782]},"properties":{"id":"osm:node/11483837680","name":"Marks & Spencer","category":"market","subtype":"shop=department_store","source":"osm","level":"0,1,2"}},{"type":"Feature","geometry":{"type":"Point","coordinates":[72.91335,19.123097]},"properties":{"id":"osm:node/11617861153","name":"bhakti","category":"market","subtype":"shop=department_store","source":"osm","opening_hours":"Mo-Su 09:00-21:00","phone":"996357365"}},{"type":"Feature","geometry":{"type":"Point","coordinates":[73.001261,19.066038]},"properties":{"id":"osm:node/11691751973","name":"Inorbit Mall Vashi","category":"market","subtype":"shop=mall","source":"osm"}},{"type":"Feature","geometry":{"type":"Point","coordinates":[72.913129,19.122939]},"properties":{"id":"osm:node/11697795359","name":"Powai Plaza","category":"market","subtype":"shop=mall","source":"osm"}},{"type":"Feature","geometry":{"type":"Point","coordinates":[72.913637,19.122497]},"properties":{"id":"osm:node/11697823599","name":"Hakone","category":"market","subtype":"shop=mall","source":"osm"}},{"type":"Feature","geometry":{"type":"Point","coordinates":[72.93228,19.037279]},"properties":{"id":"osm:node/11716428186","name":"WMART","category":"market","subtype":"shop=mall","source":"osm"}},{"type":"Feature","geometry":{"type":"Point","coordinates":[72.955968,19.172945]},"properties":{"id":"osm:node/11807678169","name":null,"category":"market","subtype":"shop=department_store","source":"osm"}},{"type":"Feature","geometry":{"type":"Point","coordinates":[72.85594,19.226947]},"properties":{"id":"osm:node/12254525062","name":"Indraprasth Shopping Center","category":"market","subtype":"shop=mall","source":"osm","opening_hours":"Mo-Su 09:00-21:00"}},{"type":"Feature","geometry":{"type":"Point","coordinates":[72.827977,19.129089]},"properties":{"id":"osm:node/12328181742","name":"Tirumala Shopping Center","category":"market","subtype":"shop=mall","source":"osm","level":"0"}},{"type":"Feature","geometry":{"type":"Point","coordinates":[72.807389,18.968709]},"properties":{"id":"osm:node/12509250152","name":"orbits mall","category":"market","subtype":"shop=mall","source":"osm","opening_hours":"Mo-Su 10:00-22:00","operator":"benny","phone":"00978654321"}},{"type":"Feature","geometry":{"type":"Point","coordinates":[72.853732,19.027288]},"properties":{"id":"osm:node/12770274373","name":"Milap","category":"market","subtype":"shop=department_store","source":"osm","wheelchair":"no"}},{"type":"Feature","geometry":{"type":"Point","coordinates":[72.854552,19.026982]},"properties":{"id":"osm:node/12770274383","name":"Soham Collections","category":"market","subtype":"shop=department_store","source":"osm","wheelchair":"no"}},{"type":"Feature","geometry":{"type":"Point","coordinates":[72.853508,19.027407]},"properties":{"id":"osm:node/12770274384","name":"Paisely","category":"market","subtype":"shop=department_store","source":"osm","wheelchair":"no"}},{"type":"Feature","geometry":{"type":"Point","coordinates":[72.830638,18.959709]},"properties":{"id":"osm:node/12998926092","name":"al saadha","category":"market","subtype":"amenity=marketplace","source":"osm"}},{"type":"Feature","geometry":{"type":"Point","coordinates":[72.835372,19.185135]},"properties":{"id":"osm:node/13380799815","name":"Infiniti Mall","category":"market","subtype":"shop=mall","source":"osm","opening_hours":"Mo-Su 10:00-22:00","phone":"02242440000"}},{"type":"Feature","geometry":{"type":"Point","coordinates":[72.971824,19.208383]},"properties":{"id":"osm:node/13514028003","name":"Lake Shore Mall","category":"market","subtype":"shop=mall","source":"osm"}},{"type":"Feature","geometry":{"type":"Point","coordinates":[72.832936,18.932119]},"properties":{"id":"osm:node/13514250413","name":"Elite Shopping Centre","category":"market","subtype":"shop=mall","source":"osm"}},{"type":"Feature","geometry":{"type":"Point","coordinates":[72.810507,18.958768]},"properties":{"id":"osm:way/39838500","name":"Westside","category":"market","subtype":"shop=department_store","source":"osm"}},{"type":"Feature","geometry":{"type":"Point","coordinates":[72.814544,18.991139]},"properties":{"id":"osm:way/42441130","name":null,"category":"market","subtype":"shop=mall","source":"osm","wheelchair":"limited"}},{"type":"Feature","geometry":{"type":"Point","coordinates":[72.818493,18.961171]},"properties":{"id":"osm:way/47977744","name":"Lokmanya Tilak Market","category":"market","subtype":"amenity=marketplace","source":"osm"}},{"type":"Feature","geometry":{"type":"Point","coordinates":[73.010342,19.083043]},"properties":{"id":"osm:way/48790490","name":"APMC Grain Market","category":"market","subtype":"amenity=marketplace","source":"osm"}},{"type":"Feature","geometry":{"type":"Point","coordinates":[73.007348,19.075831]},"properties":{"id":"osm:way/48790492","name":"APMC Spice Market","category":"market","subtype":"amenity=marketplace","source":"osm"}},{"type":"Feature","geometry":{"type":"Point","coordinates":[73.011813,19.075457]},"properties":{"id":"osm:way/48790495","name":"APMC Fruit & Vegetable Market","category":"market","subtype":"amenity=marketplace","source":"osm"}},{"type":"Feature","geometry":{"type":"Point","coordinates":[72.83455,18.947329]},"properties":{"id":"osm:way/49001325","name":"Mahatma Jyotiba Phule Mandai","category":"market","subtype":"amenity=marketplace","source":"osm"}},{"type":"Feature","geometry":{"type":"Point","coordinates":[72.825426,18.90828]},"properties":{"id":"osm:way/49176295","name":null,"category":"market","subtype":"amenity=marketplace","source":"osm"}},{"type":"Feature","geometry":{"type":"Point","coordinates":[72.825946,18.909349]},"properties":{"id":"osm:way/49176296","name":null,"category":"market","subtype":"amenity=marketplace","source":"osm"}},{"type":"Feature","geometry":{"type":"Point","coordinates":[72.823786,18.913833]},"properties":{"id":"osm:way/49176878","name":"MBPT Colaba Fish Market","category":"market","subtype":"amenity=marketplace","source":"osm"}},{"type":"Feature","geometry":{"type":"Point","coordinates":[72.832371,18.948129]},"properties":{"id":"osm:way/79304233","name":"Mangaldas Market","category":"market","subtype":"amenity=marketplace","source":"osm"}},{"type":"Feature","geometry":{"type":"Point","coordinates":[72.847364,19.163166]},"properties":{"id":"osm:way/101310848","name":"Topiwala Vegetable Market","category":"market","subtype":"amenity=marketplace","source":"osm"}},{"type":"Feature","geometry":{"type":"Point","coordinates":[72.860598,19.173787]},"properties":{"id":"osm:way/102537787","name":"Oberoi Mall","category":"market","subtype":"shop=mall","source":"osm"}},{"type":"Feature","geometry":{"type":"Point","coordinates":[72.843307,19.022391]},"properties":{"id":"osm:way/113696502","name":null,"category":"market","subtype":"amenity=marketplace","source":"osm"}},{"type":"Feature","geometry":{"type":"Point","coordinates":[72.854799,19.017578]},"properties":{"id":"osm:way/113777721","name":"Wadala Market","category":"market","subtype":"amenity=marketplace","source":"osm"}},{"type":"Feature","geometry":{"type":"Point","coordinates":[72.842236,19.030737]},"properties":{"id":"osm:way/113792252","name":"Gopi Tank Market","category":"market","subtype":"amenity=marketplace","source":"osm"}},{"type":"Feature","geometry":{"type":"Point","coordinates":[72.834052,19.184801]},"properties":{"id":"osm:way/120134011","name":null,"category":"market","subtype":"shop=mall","source":"osm"}},{"type":"Feature","geometry":{"type":"Point","coordinates":[72.842001,19.02286]},"properties":{"id":"osm:way/120175206","name":"Star Mall","category":"market","subtype":"shop=mall","source":"osm"}},{"type":"Feature","geometry":{"type":"Point","coordinates":[72.841594,19.019641]},"properties":{"id":"osm:way/120177533","name":"Chhatrapati Shivaji Municipal Market","category":"market","subtype":"amenity=marketplace","source":"osm"}},{"type":"Feature","geometry":{"type":"Point","coordinates":[72.849154,19.21331]},"properties":{"id":"osm:way/125059117","name":"Raghuleela Mega Mall","category":"market","subtype":"shop=mall","source":"osm","wheelchair":"yes"}},{"type":"Feature","geometry":{"type":"Point","coordinates":[72.830848,18.949376]},"properties":{"id":"osm:way/150363474","name":"Moolji Jaitha Market","category":"market","subtype":"amenity=marketplace","source":"osm"}},{"type":"Feature","geometry":{"type":"Point","coordinates":[72.931461,19.14172]},"properties":{"id":"osm:way/151205176","name":"Magnet Mall","category":"market","subtype":"shop=mall","source":"osm"}},{"type":"Feature","geometry":{"type":"Point","coordinates":[73.006299,19.072624]},"properties":{"id":"osm:way/151768178","name":"APMC Onion & Potato Market","category":"market","subtype":"amenity=marketplace","source":"osm"}},{"type":"Feature","geometry":{"type":"Point","coordinates":[72.8413,19.018864]},"properties":{"id":"osm:way/151807307","name":"MUNCIPAL MARKED","category":"market","subtype":"amenity=marketplace","source":"osm"}},{"type":"Feature","geometry":{"type":"Point","coordinates":[72.845914,19.123265]},"properties":{"id":"osm:way/151842114","name":"Andheri Market","category":"market","subtype":"amenity=marketplace","source":"osm"}},{"type":"Feature","geometry":{"type":"Point","coordinates":[72.835451,19.17294]},"properties":{"id":"osm:way/151848226","name":"InOrbit Mall","category":"market","subtype":"shop=mall","source":"osm","opening_hours":"Mo-Su 11:00-21:30","operator":"inox","phone":"912233445566"}},{"type":"Feature","geometry":{"type":"Point","coordinates":[72.888856,19.086276]},"properties":{"id":"osm:way/151889253","name":"Phoenix Market City Kurla","category":"market","subtype":"shop=mall","source":"osm","wheelchair":"yes","phone":"+91 22 6180 1022"}},{"type":"Feature","geometry":{"type":"Point","coordinates":[72.966793,19.222898]},"properties":{"id":"osm:way/185467218","name":"Amrapali Arcade","category":"market","subtype":"amenity=marketplace","source":"osm"}},{"type":"Feature","geometry":{"type":"Point","coordinates":[72.976966,19.193648]},"properties":{"id":"osm:way/185467427","name":"Thane Vegetable Market","category":"market","subtype":"amenity=marketplace","source":"osm"}},{"type":"Feature","geometry":{"type":"Point","coordinates":[72.83091,19.141285]},"properties":{"id":"osm:way/193632118","name":"Infiniti Mall","category":"market","subtype":"shop=mall","source":"osm","opening_hours":"Mo-Su 11:00-22:00","operator":"Infiniti"}},{"type":"Feature","geometry":{"type":"Point","coordinates":[72.831312,19.138773]},"properties":{"id":"osm:way/193632123","name":"Citi Mall","category":"market","subtype":"shop=mall","source":"osm","opening_hours":"Mo-Su 11:00-22:00","operator":"Citi Mall"}},{"type":"Feature","geometry":{"type":"Point","coordinates":[72.965066,19.203095]},"properties":{"id":"osm:way/194579567","name":"Korum Mall","category":"market","subtype":"shop=mall","source":"osm","opening_hours":"Mo-Su 07:00-22:00"}},{"type":"Feature","geometry":{"type":"Point","coordinates":[72.911595,19.119367]},"properties":{"id":"osm:way/195694235","name":"Galleria","category":"market","subtype":"shop=mall","source":"osm"}},{"type":"Feature","geometry":{"type":"Point","coordinates":[72.83433,19.15183]},"properties":{"id":"osm:way/202516359","name":"Mega Mall","category":"market","subtype":"shop=mall","source":"osm"}},{"type":"Feature","geometry":{"type":"Point","coordinates":[72.830836,19.130858]},"properties":{"id":"osm:way/202563247","name":"Tata Star Bazaar","category":"market","subtype":"shop=mall","source":"osm"}},{"type":"Feature","geometry":{"type":"Point","coordinates":[72.836643,18.934797]},"properties":{"id":"osm:way/206348532","name":"Fort Market","category":"market","subtype":"amenity=marketplace","source":"osm"}},{"type":"Feature","geometry":{"type":"Point","coordinates":[72.985048,19.211879]},"properties":{"id":"osm:way/234976487","name":"Boulevard","category":"market","subtype":"shop=mall","source":"osm","opening_hours":"Mo-Su 10:00-22:00"}},{"type":"Feature","geometry":{"type":"Point","coordinates":[72.980833,19.217179]},"properties":{"id":"osm:way/234977123","name":"High Street Mall","category":"market","subtype":"shop=mall","source":"osm"}},{"type":"Feature","geometry":{"type":"Point","coordinates":[72.979329,19.217139]},"properties":{"id":"osm:way/234977124","name":"Lake City Mall","category":"market","subtype":"shop=mall","source":"osm"}},{"type":"Feature","geometry":{"type":"Point","coordinates":[72.971575,19.209015]},"properties":{"id":"osm:way/234977280","name":"Lake Shore Mall","category":"market","subtype":"shop=mall","source":"osm"}},{"type":"Feature","geometry":{"type":"Point","coordinates":[72.837225,19.011753]},"properties":{"id":"osm:way/236629909","name":"Dadar Flower Market","category":"market","subtype":"amenity=marketplace","source":"osm"}},{"type":"Feature","geometry":{"type":"Point","coordinates":[72.82854,19.062733]},"properties":{"id":"osm:way/237025757","name":"Pali Bazaar","category":"market","subtype":"amenity=marketplace","source":"osm"}},{"type":"Feature","geometry":{"type":"Point","coordinates":[72.909296,19.079744]},"properties":{"id":"osm:way/255629913","name":"R Odean","category":"market","subtype":"shop=mall","source":"osm"}},{"type":"Feature","geometry":{"type":"Point","coordinates":[72.948267,19.033724]},"properties":{"id":"osm:way/260754870","name":"Trombay Market","category":"market","subtype":"amenity=marketplace","source":"osm"}},{"type":"Feature","geometry":{"type":"Point","coordinates":[72.825209,18.994787]},"properties":{"id":"osm:way/275865020","name":"East Zone","category":"market","subtype":"shop=mall","source":"osm"}},{"type":"Feature","geometry":{"type":"Point","coordinates":[72.930601,18.965401]},"properties":{"id":"osm:way/280006092","name":null,"category":"market","subtype":"amenity=marketplace","source":"osm"}},{"type":"Feature","geometry":{"type":"Point","coordinates":[72.913182,19.05758]},"properties":{"id":"osm:way/314366757","name":"Kena Market","category":"market","subtype":"amenity=marketplace","source":"osm"}},{"type":"Feature","geometry":{"type":"Point","coordinates":[72.88793,19.059361]},"properties":{"id":"osm:way/346686045","name":"Footware market","category":"market","subtype":"amenity=marketplace","source":"osm"}},{"type":"Feature","geometry":{"type":"Point","coordinates":[72.887065,19.058843]},"properties":{"id":"osm:way/346687370","name":"footware Market","category":"market","subtype":"amenity=marketplace","source":"osm"}},{"type":"Feature","geometry":{"type":"Point","coordinates":[72.977102,19.221121]},"properties":{"id":"osm:way/352922006","name":"WonderMall","category":"market","subtype":"shop=mall","source":"osm"}},{"type":"Feature","geometry":{"type":"Point","coordinates":[72.848516,19.296252]},"properties":{"id":"osm:way/352922998","name":"Maxus Mall","category":"market","subtype":"shop=mall","source":"osm"}},{"type":"Feature","geometry":{"type":"Point","coordinates":[72.867723,19.212996]},"properties":{"id":"osm:way/352928802","name":"V MALL","category":"market","subtype":"shop=mall","source":"osm"}},{"type":"Feature","geometry":{"type":"Point","coordinates":[72.851636,19.170967]},"properties":{"id":"osm:way/352963934","name":"shopping malls","category":"market","subtype":"shop=mall","source":"osm","opening_hours":"Mo-Sa 08:00-20:00","operator":"hitika"}},{"type":"Feature","geometry":{"type":"Point","coordinates":[72.837546,19.221]},"properties":{"id":"osm:way/352974802","name":"Utopia Garden Grove Mall","category":"market","subtype":"shop=mall","source":"osm"}},{"type":"Feature","geometry":{"type":"Point","coordinates":[72.954634,19.172909]},"properties":{"id":"osm:way/352988902","name":"Sant Jalaram Bappa Market","category":"market","subtype":"amenity=marketplace","source":"osm","operator":"BMC"}},{"type":"Feature","geometry":{"type":"Point","coordinates":[72.96688,19.271402]},"properties":{"id":"osm:way/352993059","name":"Panchvati Sweets","category":"market","subtype":"shop=department_store","source":"osm"}},{"type":"Feature","geometry":{"type":"Point","coordinates":[72.959876,19.213229]},"properties":{"id":"osm:way/353151224","name":null,"category":"market","subtype":"shop=mall","source":"osm"}},{"type":"Feature","geometry":{"type":"Point","coordinates":[72.977319,19.230066]},"properties":{"id":"osm:way/353157826","name":"R-Mall (Ghodbunder)","category":"market","subtype":"shop=mall","source":"osm"}},{"type":"Feature","geometry":{"type":"Point","coordinates":[72.965017,19.268135]},"properties":{"id":"osm:way/353175535","name":"Big Centre","category":"market","subtype":"shop=mall","source":"osm"}},{"type":"Feature","geometry":{"type":"Point","coordinates":[72.905185,19.118296]},"properties":{"id":"osm:way/353206876","name":"Heera Panna Shopping Complex","category":"market","subtype":"shop=mall","source":"osm","description":"Shopping complex"}},{"type":"Feature","geometry":{"type":"Point","coordinates":[72.850034,19.223965]},"properties":{"id":"osm:way/353394599","name":"Reliance Mall","category":"market","subtype":"shop=mall","source":"osm"}},{"type":"Feature","geometry":{"type":"Point","coordinates":[72.869546,19.274505]},"properties":{"id":"osm:way/353396353","name":"Surya Shopping Centre","category":"market","subtype":"shop=mall","source":"osm"}},{"type":"Feature","geometry":{"type":"Point","coordinates":[72.879097,19.070328]},"properties":{"id":"osm:way/353424934","name":"Lakshmi Market","category":"market","subtype":"amenity=marketplace","source":"osm"}},{"type":"Feature","geometry":{"type":"Point","coordinates":[72.84711,19.196116]},"properties":{"id":"osm:way/353818730","name":"Milap","category":"market","subtype":"shop=mall","source":"osm"}},{"type":"Feature","geometry":{"type":"Point","coordinates":[73.017719,19.013876]},"properties":{"id":"osm:way/353986113","name":"Adarsh Market","category":"market","subtype":"amenity=marketplace","source":"osm","level":"3"}},{"type":"Feature","geometry":{"type":"Point","coordinates":[72.85895,19.031317]},"properties":{"id":"osm:way/357082983","name":"Mahatma Gandhi Market","category":"market","subtype":"amenity=marketplace","source":"osm"}},{"type":"Feature","geometry":{"type":"Point","coordinates":[72.859822,19.202884]},"properties":{"id":"osm:way/358298845","name":"Growels 101","category":"market","subtype":"shop=mall","source":"osm"}},{"type":"Feature","geometry":{"type":"Point","coordinates":[72.835324,18.946198]},"properties":{"id":"osm:way/358489270","name":"Mahatma Jyotiba Phule Wholesale Fish Market","category":"market","subtype":"amenity=marketplace","source":"osm"}},{"type":"Feature","geometry":{"type":"Point","coordinates":[72.971602,19.208731]},"properties":{"id":"osm:way/384551648","name":"Viviana Mall","category":"market","subtype":"shop=mall","source":"osm"}},{"type":"Feature","geometry":{"type":"Point","coordinates":[72.817276,18.916843]},"properties":{"id":"osm:way/402322279","name":"Maker Arcade","category":"market","subtype":"shop=mall","source":"osm"}},{"type":"Feature","geometry":{"type":"Point","coordinates":[73.02001,19.034803]},"properties":{"id":"osm:way/415984454","name":"Fish Market","category":"market","subtype":"amenity=marketplace","source":"osm"}},{"type":"Feature","geometry":{"type":"Point","coordinates":[72.898007,19.062765]},"properties":{"id":"osm:way/416559780","name":"Jai Kisan Mandai","category":"market","subtype":"amenity=marketplace","source":"osm","opening_hours":"08:00-21:00","operator":"Jai Kisan Mandai Sanghatan"}},{"type":"Feature","geometry":{"type":"Point","coordinates":[72.83608,18.946655]},"properties":{"id":"osm:way/426750555","name":"Manish Market","category":"market","subtype":"amenity=marketplace","source":"osm"}},{"type":"Feature","geometry":{"type":"Point","coordinates":[72.886443,19.081676]},"properties":{"id":"osm:way/427242796","name":"Kohinoor City Mall","category":"market","subtype":"shop=mall","source":"osm"}},{"type":"Feature","geometry":{"type":"Point","coordinates":[72.962254,19.173066]},"properties":{"id":"osm:way/433255062","name":"Fish Market","category":"market","subtype":"amenity=marketplace","source":"osm"}},{"type":"Feature","geometry":{"type":"Point","coordinates":[72.888811,19.085598]},"properties":{"id":"osm:way/436337946","name":"Phoenix Paragon Plaza","category":"market","subtype":"shop=mall","source":"osm","opening_hours":"Mo-Su 10:00-00:00"}},{"type":"Feature","geometry":{"type":"Point","coordinates":[72.854652,19.22598]},"properties":{"id":"osm:way/495716612","name":"Moksha Plaza","category":"market","subtype":"shop=mall","source":"osm"}},{"type":"Feature","geometry":{"type":"Point","coordinates":[73.018545,19.021694]},"properties":{"id":"osm:way/510511580","name":"Seawoods Grand Central Mall","category":"market","subtype":"shop=mall","source":"osm","opening_hours":"11:00-22:30","operator":"Nexus Mall"}},{"type":"Feature","geometry":{"type":"Point","coordinates":[73.016643,19.014304]},"properties":{"id":"osm:way/558708646","name":"Sector-48 Market","category":"market","subtype":"amenity=marketplace","source":"osm"}},{"type":"Feature","geometry":{"type":"Point","coordinates":[73.00638,19.08298]},"properties":{"id":"osm:way/573947460","name":"Satra Plaza","category":"market","subtype":"shop=mall","source":"osm"}},{"type":"Feature","geometry":{"type":"Point","coordinates":[73.007171,19.084113]},"properties":{"id":"osm:way/573947466","name":"City Centre Mall","category":"market","subtype":"shop=mall","source":"osm"}},{"type":"Feature","geometry":{"type":"Point","coordinates":[73.0077,19.085024]},"properties":{"id":"osm:way/573947470","name":"Palm Beach Galleria Mall","category":"market","subtype":"shop=mall","source":"osm"}},{"type":"Feature","geometry":{"type":"Point","coordinates":[72.824138,18.994192]},"properties":{"id":"osm:way/594407882","name":"Palladium","category":"market","subtype":"shop=mall","source":"osm"}},{"type":"Feature","geometry":{"type":"Point","coordinates":[72.936921,19.159768]},"properties":{"id":"osm:way/617989959","name":"Filix Mall","category":"market","subtype":"shop=mall","source":"osm"}},{"type":"Feature","geometry":{"type":"Point","coordinates":[72.849493,18.999159]},"properties":{"id":"osm:way/625809278","name":"Sewri Fish Market","category":"market","subtype":"amenity=marketplace","source":"osm"}},{"type":"Feature","geometry":{"type":"Point","coordinates":[72.916623,19.061681]},"properties":{"id":"osm:way/626348893","name":"Janata Timber Market","category":"market","subtype":"amenity=marketplace","source":"osm"}},{"type":"Feature","geometry":{"type":"Point","coordinates":[72.951593,19.183982]},"properties":{"id":"osm:way/627612997","name":"R Mall","category":"market","subtype":"shop=mall","source":"osm"}},{"type":"Feature","geometry":{"type":"Point","coordinates":[72.858104,19.176284]},"properties":{"id":"osm:way/629015648","name":"Express Zone Mall","category":"market","subtype":"shop=mall","source":"osm"}},{"type":"Feature","geometry":{"type":"Point","coordinates":[72.954252,19.182618]},"properties":{"id":"osm:way/632275578","name":"Color Scape Mall","category":"market","subtype":"shop=mall","source":"osm"}},{"type":"Feature","geometry":{"type":"Point","coordinates":[73.015024,19.01207]},"properties":{"id":"osm:way/652167195","name":null,"category":"market","subtype":"amenity=marketplace","source":"osm"}},{"type":"Feature","geometry":{"type":"Point","coordinates":[72.836082,19.178982]},"properties":{"id":"osm:way/662725588","name":"Evershine Mall","category":"market","subtype":"shop=mall","source":"osm"}},{"type":"Feature","geometry":{"type":"Point","coordinates":[72.954163,19.172984]},"properties":{"id":"osm:way/665546546","name":"Mulund Market","category":"market","subtype":"amenity=marketplace","source":"osm"}},{"type":"Feature","geometry":{"type":"Point","coordinates":[72.937329,19.16684]},"properties":{"id":"osm:way/667169215","name":null,"category":"market","subtype":"shop=mall","source":"osm"}},{"type":"Feature","geometry":{"type":"Point","coordinates":[72.841326,19.019892]},"properties":{"id":"osm:way/675133650","name":"Nakshatra Mall","category":"market","subtype":"shop=mall","source":"osm","opening_hours":"Mo-Su 08:00-22:00"}},{"type":"Feature","geometry":{"type":"Point","coordinates":[72.837499,18.95937]},"properties":{"id":"osm:way/680077236","name":"Dongri Bazaar","category":"market","subtype":"amenity=marketplace","source":"osm"}},{"type":"Feature","geometry":{"type":"Point","coordinates":[72.978423,19.193001]},"properties":{"id":"osm:way/680538979","name":"Fish Market","category":"market","subtype":"amenity=marketplace","source":"osm"}},{"type":"Feature","geometry":{"type":"Point","coordinates":[72.962867,19.187137]},"properties":{"id":"osm:way/725461236","name":"Eternity Mall","category":"market","subtype":"shop=mall","source":"osm"}},{"type":"Feature","geometry":{"type":"Point","coordinates":[72.992935,19.143545]},"properties":{"id":"osm:way/727741043","name":"Local Market","category":"market","subtype":"amenity=marketplace","source":"osm"}},{"type":"Feature","geometry":{"type":"Point","coordinates":[73.019073,19.03974]},"properties":{"id":"osm:way/827899850","name":null,"category":"market","subtype":"amenity=marketplace","source":"osm"}},{"type":"Feature","geometry":{"type":"Point","coordinates":[73.011576,19.020925]},"properties":{"id":"osm:way/828076213","name":"Karave Market","category":"market","subtype":"amenity=marketplace","source":"osm"}},{"type":"Feature","geometry":{"type":"Point","coordinates":[72.83205,18.943659]},"properties":{"id":"osm:way/852044662","name":"admin dept","category":"market","subtype":"shop=department_store","source":"osm"}},{"type":"Feature","geometry":{"type":"Point","coordinates":[72.971401,19.207905]},"properties":{"id":"osm:way/921429371","name":"Shoppers Stop","category":"market","subtype":"shop=department_store","source":"osm","level":"0"}},{"type":"Feature","geometry":{"type":"Point","coordinates":[72.970717,19.208264]},"properties":{"id":"osm:way/921568849","name":"Marks & Spencer","category":"market","subtype":"shop=department_store","source":"osm","level":"1"}},{"type":"Feature","geometry":{"type":"Point","coordinates":[72.970725,19.208245]},"properties":{"id":"osm:way/922022738","name":"Marks & Spencer","category":"market","subtype":"shop=department_store","source":"osm","level":"0"}},{"type":"Feature","geometry":{"type":"Point","coordinates":[72.850545,19.05361]},"properties":{"id":"osm:way/923192619","name":"Jio World Drive","category":"market","subtype":"shop=mall","source":"osm","opening_hours":"Mo-Su 11:00-22:00","wheelchair":"yes","phone":"02235051111"}},{"type":"Feature","geometry":{"type":"Point","coordinates":[72.995459,19.150361]},"properties":{"id":"osm:way/950095639","name":"Jai Bhawani Dainandin Bazaar","category":"market","subtype":"amenity=marketplace","source":"osm"}},{"type":"Feature","geometry":{"type":"Point","coordinates":[72.829624,19.009908]},"properties":{"id":"osm:way/981951747","name":null,"category":"market","subtype":"amenity=marketplace","source":"osm"}},{"type":"Feature","geometry":{"type":"Point","coordinates":[72.99687,19.063871]},"properties":{"id":"osm:way/1013444752","name":"Raghuleela Mall","category":"market","subtype":"shop=mall","source":"osm"}},{"type":"Feature","geometry":{"type":"Point","coordinates":[72.998385,19.067224]},"properties":{"id":"osm:way/1013444761","name":"Vashi Central","category":"market","subtype":"shop=mall","source":"osm"}},{"type":"Feature","geometry":{"type":"Point","coordinates":[72.91631,19.099772]},"properties":{"id":"osm:way/1039904192","name":"R City Mall","category":"market","subtype":"shop=mall","source":"osm","wheelchair":"yes"}},{"type":"Feature","geometry":{"type":"Point","coordinates":[72.857795,19.279185]},"properties":{"id":"osm:way/1063809518","name":"Mira Road Fish Market","category":"market","subtype":"amenity=marketplace","source":"osm"}},{"type":"Feature","geometry":{"type":"Point","coordinates":[72.869396,19.296493]},"properties":{"id":"osm:way/1063930018","name":null,"category":"market","subtype":"amenity=marketplace","source":"osm"}},{"type":"Feature","geometry":{"type":"Point","coordinates":[72.845311,19.099788]},"properties":{"id":"osm:way/1123427082","name":"Parle Market","category":"market","subtype":"amenity=marketplace","source":"osm"}},{"type":"Feature","geometry":{"type":"Point","coordinates":[72.936597,19.150165]},"properties":{"id":"osm:way/1127451347","name":"Bhattipada Market","category":"market","subtype":"amenity=marketplace","source":"osm"}},{"type":"Feature","geometry":{"type":"Point","coordinates":[72.855758,19.230109]},"properties":{"id":"osm:way/1150616850","name":"Borivali Municpal Market","category":"market","subtype":"amenity=marketplace","source":"osm","operator":"MCGM"}},{"type":"Feature","geometry":{"type":"Point","coordinates":[72.863501,19.223537]},"properties":{"id":"osm:way/1158933429","name":"Oberoi - Sky City Mall","category":"market","subtype":"shop=mall","source":"osm","operator":"Oberoi Realty"}},{"type":"Feature","geometry":{"type":"Point","coordinates":[72.936761,19.174847]},"properties":{"id":"osm:way/1167296724","name":"Main Bazaar","category":"market","subtype":"amenity=marketplace","source":"osm"}},{"type":"Feature","geometry":{"type":"Point","coordinates":[72.955452,19.172382]},"properties":{"id":"osm:way/1216472563","name":"Mulund West Market","category":"market","subtype":"amenity=marketplace","source":"osm"}},{"type":"Feature","geometry":{"type":"Point","coordinates":[72.946582,19.185678]},"properties":{"id":"osm:way/1216472564","name":"Fish Market","category":"market","subtype":"amenity=marketplace","source":"osm"}},{"type":"Feature","geometry":{"type":"Point","coordinates":[72.842635,19.115189]},"properties":{"id":"osm:way/1227534715","name":"Shoppers Stop","category":"market","subtype":"shop=department_store","source":"osm"}},{"type":"Feature","geometry":{"type":"Point","coordinates":[72.957338,19.171745]},"properties":{"id":"osm:way/1243972963","name":"Vegetable Market","category":"market","subtype":"amenity=marketplace","source":"osm"}},{"type":"Feature","geometry":{"type":"Point","coordinates":[72.829055,18.973834]},"properties":{"id":"osm:way/1289063011","name":null,"category":"market","subtype":"amenity=marketplace","source":"osm"}},{"type":"Feature","geometry":{"type":"Point","coordinates":[72.931971,19.167373]},"properties":{"id":"osm:way/1289361538","name":"Tuesday Evening Bazaar","category":"market","subtype":"amenity=marketplace","source":"osm"}},{"type":"Feature","geometry":{"type":"Point","coordinates":[72.906945,19.087361]},"properties":{"id":"osm:way/1330679653","name":"Ghatkopar West Vegetable Market","category":"market","subtype":"amenity=marketplace","source":"osm"}},{"type":"Feature","geometry":{"type":"Point","coordinates":[72.90555,19.086308]},"properties":{"id":"osm:way/1330679654","name":"Ghatkopar West Market","category":"market","subtype":"amenity=marketplace","source":"osm"}},{"type":"Feature","geometry":{"type":"Point","coordinates":[72.853992,19.046238]},"properties":{"id":"osm:way/1374671929","name":"Fish Market","category":"market","subtype":"amenity=marketplace","source":"osm"}},{"type":"Feature","geometry":{"type":"Point","coordinates":[72.844445,19.007461]},"properties":{"id":"osm:way/1379011412","name":null,"category":"market","subtype":"amenity=marketplace","source":"osm"}},{"type":"Feature","geometry":{"type":"Point","coordinates":[72.828122,18.949355]},"properties":{"id":"osm:way/1387934953","name":"Swadeshi Market","category":"market","subtype":"amenity=marketplace","source":"osm"}},{"type":"Feature","geometry":{"type":"Point","coordinates":[72.861638,19.30452]},"properties":{"id":"osm:way/1389296487","name":null,"category":"market","subtype":"amenity=marketplace","source":"osm"}},{"type":"Feature","geometry":{"type":"Point","coordinates":[72.855547,19.228856]},"properties":{"id":"osm:way/1389997690","name":"Goyal Shopping Centre","category":"market","subtype":"shop=mall","source":"osm"}},{"type":"Feature","geometry":{"type":"Point","coordinates":[72.961584,19.174943]},"properties":{"id":"osm:way/1390926975","name":"Fish Market","category":"market","subtype":"amenity=marketplace","source":"osm"}},{"type":"Feature","geometry":{"type":"Point","coordinates":[72.957873,19.17166]},"properties":{"id":"osm:way/1391346720","name":"Mulund East Market","category":"market","subtype":"amenity=marketplace","source":"osm"}},{"type":"Feature","geometry":{"type":"Point","coordinates":[72.949146,19.178522]},"properties":{"id":"osm:way/1391574380","name":null,"category":"market","subtype":"amenity=marketplace","source":"osm"}},{"type":"Feature","geometry":{"type":"Point","coordinates":[72.943095,19.196326]},"properties":{"id":"osm:way/1392347227","name":null,"category":"market","subtype":"amenity=marketplace","source":"osm"}},{"type":"Feature","geometry":{"type":"Point","coordinates":[72.853783,19.046355]},"properties":{"id":"osm:way/1394136081","name":null,"category":"market","subtype":"amenity=marketplace","source":"osm"}},{"type":"Feature","geometry":{"type":"Point","coordinates":[72.835891,19.066345]},"properties":{"id":"osm:way/1424659348","name":null,"category":"market","subtype":"amenity=marketplace","source":"osm"}},{"type":"Feature","geometry":{"type":"Point","coordinates":[72.824204,18.995121]},"properties":{"id":"osm:way/1429482057","name":"Grand Zone","category":"market","subtype":"shop=mall","source":"osm"}},{"type":"Feature","geometry":{"type":"Point","coordinates":[72.823691,18.995325]},"properties":{"id":"osm:way/1429482058","name":"Palladium West Zone","category":"market","subtype":"shop=mall","source":"osm"}},{"type":"Feature","geometry":{"type":"Point","coordinates":[72.884147,19.155581]},"properties":{"id":"osm:way/1459178471","name":null,"category":"market","subtype":"amenity=marketplace","source":"osm"}},{"type":"Feature","geometry":{"type":"Point","coordinates":[72.945649,19.182193]},"properties":{"id":"osm:way/1471657364","name":"Veena Nagar Market","category":"market","subtype":"amenity=marketplace","source":"osm"}},{"type":"Feature","geometry":{"type":"Point","coordinates":[72.850872,19.027555]},"properties":{"id":"osm:relation/5327411","name":"Matunga Market","category":"market","subtype":"amenity=marketplace","source":"osm"}},{"type":"Feature","geometry":{"type":"Point","coordinates":[72.809825,18.907706]},"properties":{"id":"osm:relation/12837114","name":null,"category":"market","subtype":"shop=mall","source":"osm"}},{"type":"Feature","geometry":{"type":"Point","coordinates":[72.829675,18.957807]},"properties":{"id":"osm:relation/20393994","name":"Mirza Ghalib Municipal Market","category":"market","subtype":"amenity=marketplace","source":"osm"}}]}