{"type":"FeatureCollection","attribution":"© OpenStreetMap contributors (ODbL) · MCGM public toilet data via data.opencity.in (public domain)","generated":"2026-08-13T11:57:02.130Z","bbox":"18.87,72.77,19.32,73.02","features":[{"type":"Feature","geometry":{"type":"Point","coordinates":[72.827532,19.050864]},"properties":{"id":"osm:node/347145086","name":"Al Medica","category":"pharmacy","source":"osm","healthcare":"pharmacy"}},{"type":"Feature","geometry":{"type":"Point","coordinates":[72.823884,19.052058]},"properties":{"id":"osm:node/348136779","name":"Noble Plus","category":"pharmacy","source":"osm","opening_hours":"24/7","healthcare":"pharmacy"}},{"type":"Feature","geometry":{"type":"Point","coordinates":[72.827016,18.944686]},"properties":{"id":"osm:node/605221678","name":"Bobby's","category":"pharmacy","source":"osm","healthcare":"pharmacy"}},{"type":"Feature","geometry":{"type":"Point","coordinates":[72.827907,18.941357]},"properties":{"id":"osm:node/605222666","name":null,"category":"pharmacy","source":"osm","healthcare":"pharmacy"}},{"type":"Feature","geometry":{"type":"Point","coordinates":[72.82766,18.941312]},"properties":{"id":"osm:node/605222671","name":null,"category":"pharmacy","source":"osm","healthcare":"pharmacy"}},{"type":"Feature","geometry":{"type":"Point","coordinates":[72.827595,18.941363]},"properties":{"id":"osm:node/605222672","name":"Real Chemist","category":"pharmacy","source":"osm","healthcare":"pharmacy"}},{"type":"Feature","geometry":{"type":"Point","coordinates":[72.844415,19.235181]},"properties":{"id":"osm:node/814449102","name":null,"category":"pharmacy","source":"osm"}},{"type":"Feature","geometry":{"type":"Point","coordinates":[72.842505,19.235181]},"properties":{"id":"osm:node/814449103","name":null,"category":"pharmacy","source":"osm"}},{"type":"Feature","geometry":{"type":"Point","coordinates":[72.832167,18.922831]},"properties":{"id":"osm:node/870448041","name":"Sheetal Medical & General Stores","category":"pharmacy","source":"osm","healthcare":"pharmacy"}},{"type":"Feature","geometry":{"type":"Point","coordinates":[72.982076,19.253663]},"properties":{"id":"osm:node/1235863200","name":"Arcadia Chemist","category":"pharmacy","source":"osm"}},{"type":"Feature","geometry":{"type":"Point","coordinates":[72.849945,19.111575]},"properties":{"id":"osm:node/1345329196","name":"Shastri Medical","category":"pharmacy","source":"osm","healthcare":"pharmacy"}},{"type":"Feature","geometry":{"type":"Point","coordinates":[72.845845,19.187725]},"properties":{"id":"osm:node/1347495359","name":"Lifescan Imaging Centre","category":"pharmacy","source":"osm"}},{"type":"Feature","geometry":{"type":"Point","coordinates":[72.929471,19.044174]},"properties":{"id":"osm:node/1396840968","name":"Sai Medical Stores","category":"pharmacy","source":"osm","opening_hours":"Mo-Sa 08:00-21:00","healthcare":"pharmacy"}},{"type":"Feature","geometry":{"type":"Point","coordinates":[72.828696,19.215184]},"properties":{"id":"osm:node/1416495854","name":"Nobel Chemist","category":"pharmacy","source":"osm","opening_hours":"24/7"}},{"type":"Feature","geometry":{"type":"Point","coordinates":[72.845331,19.103015]},"properties":{"id":"osm:node/1575092121","name":"Superdoc Medical","category":"pharmacy","source":"osm","healthcare":"pharmacy"}},{"type":"Feature","geometry":{"type":"Point","coordinates":[72.850874,19.103562]},"properties":{"id":"osm:node/1579171646","name":"Atul Aurvedic","category":"pharmacy","source":"osm","healthcare":"pharmacy"}},{"type":"Feature","geometry":{"type":"Point","coordinates":[72.851023,19.103532]},"properties":{"id":"osm:node/1579205132","name":"Parle Provision","category":"pharmacy","source":"osm","healthcare":"pharmacy"}},{"type":"Feature","geometry":{"type":"Point","coordinates":[72.85186,19.103636]},"properties":{"id":"osm:node/1579238378","name":"Suman","category":"pharmacy","source":"osm","healthcare":"pharmacy"}},{"type":"Feature","geometry":{"type":"Point","coordinates":[72.85946,19.035021]},"properties":{"id":"osm:node/1766489006","name":"Utility Chemists","category":"pharmacy","source":"osm"}},{"type":"Feature","geometry":{"type":"Point","coordinates":[72.970312,19.225571]},"properties":{"id":"osm:node/1856751385","name":"Wellness Forever 24Hrs open","category":"pharmacy","source":"osm","healthcare":"pharmacy"}},{"type":"Feature","geometry":{"type":"Point","coordinates":[72.896444,19.070413]},"properties":{"id":"osm:node/2018031052","name":"Noble Medicals","category":"pharmacy","source":"osm"}},{"type":"Feature","geometry":{"type":"Point","coordinates":[72.82908,19.14287]},"properties":{"id":"osm:node/2125146888","name":"Sanu Medical","category":"pharmacy","source":"osm","healthcare":"pharmacy"}},{"type":"Feature","geometry":{"type":"Point","coordinates":[72.822527,19.124984]},"properties":{"id":"osm:node/2125326733","name":"Real Chemist","category":"pharmacy","source":"osm"}},{"type":"Feature","geometry":{"type":"Point","coordinates":[72.829238,19.117587]},"properties":{"id":"osm:node/2131117090","name":"Mohan Medicine","category":"pharmacy","source":"osm","opening_hours":"24/7","healthcare":"pharmacy"}},{"type":"Feature","geometry":{"type":"Point","coordinates":[72.829225,19.06271]},"properties":{"id":"osm:node/2171447195","name":"Solanki Medical Shop","category":"pharmacy","source":"osm","healthcare":"pharmacy"}},{"type":"Feature","geometry":{"type":"Point","coordinates":[72.822404,19.135198]},"properties":{"id":"osm:node/2181493233","name":"Ambika Medicals","category":"pharmacy","source":"osm"}},{"type":"Feature","geometry":{"type":"Point","coordinates":[72.824135,19.015229]},"properties":{"id":"osm:node/2187427888","name":"Chemist","category":"pharmacy","source":"osm","healthcare":"pharmacy"}},{"type":"Feature","geometry":{"type":"Point","coordinates":[72.90037,19.06129]},"properties":{"id":"osm:node/2238620217","name":"Balaji Medicals","category":"pharmacy","source":"osm","healthcare":"pharmacy"}},{"type":"Feature","geometry":{"type":"Point","coordinates":[72.826344,19.049729]},"properties":{"id":"osm:node/2851477528","name":"Mount Medical Store","category":"pharmacy","source":"osm","healthcare":"pharmacy"}},{"type":"Feature","geometry":{"type":"Point","coordinates":[72.900119,19.062531]},"properties":{"id":"osm:node/2932969879","name":"Anu Medicals","category":"pharmacy","source":"osm"}},{"type":"Feature","geometry":{"type":"Point","coordinates":[72.818179,19.130244]},"properties":{"id":"osm:node/3184787971","name":"Rohan Chemist","category":"pharmacy","source":"osm"}},{"type":"Feature","geometry":{"type":"Point","coordinates":[72.843408,19.06025]},"properties":{"id":"osm:node/3207595705","name":null,"category":"pharmacy","source":"osm","healthcare":"pharmacy"}},{"type":"Feature","geometry":{"type":"Point","coordinates":[72.843193,19.060376]},"properties":{"id":"osm:node/3207595735","name":null,"category":"pharmacy","source":"osm","healthcare":"pharmacy"}},{"type":"Feature","geometry":{"type":"Point","coordinates":[72.843413,19.060129]},"properties":{"id":"osm:node/3207595917","name":"SuperDoc Medical Store","category":"pharmacy","source":"osm","healthcare":"pharmacy"}},{"type":"Feature","geometry":{"type":"Point","coordinates":[72.843837,19.061408]},"properties":{"id":"osm:node/3207680688","name":"Gajanand Pharmacy","category":"pharmacy","source":"osm","healthcare":"pharmacy"}},{"type":"Feature","geometry":{"type":"Point","coordinates":[72.959017,19.170158]},"properties":{"id":"osm:node/3224692246","name":"Ambaji Medical Store","category":"pharmacy","source":"osm"}},{"type":"Feature","geometry":{"type":"Point","coordinates":[72.882946,19.081306]},"properties":{"id":"osm:node/3289519861","name":"Ritesh Medical","category":"pharmacy","source":"osm","opening_hours":"09:00-22:00","healthcare":"pharmacy"}},{"type":"Feature","geometry":{"type":"Point","coordinates":[72.881926,19.08115]},"properties":{"id":"osm:node/3289526261","name":"City Medical Centre","category":"pharmacy","source":"osm","opening_hours":"24/7","operator":"City hospital","healthcare":"pharmacy"}},{"type":"Feature","geometry":{"type":"Point","coordinates":[72.883383,19.07729]},"properties":{"id":"osm:node/3289562513","name":null,"category":"pharmacy","source":"osm","opening_hours":"09:00-22:00"}},{"type":"Feature","geometry":{"type":"Point","coordinates":[72.821158,19.128456]},"properties":{"id":"osm:node/3523190675","name":"Sriram Pharmacy","category":"pharmacy","source":"osm"}},{"type":"Feature","geometry":{"type":"Point","coordinates":[72.831355,19.150249]},"properties":{"id":"osm:node/3981603676","name":"Mohan Medicare","category":"pharmacy","source":"osm","healthcare":"pharmacy"}},{"type":"Feature","geometry":{"type":"Point","coordinates":[72.821443,19.128784]},"properties":{"id":"osm:node/4051423096","name":"Mohan Mediico","category":"pharmacy","source":"osm"}},{"type":"Feature","geometry":{"type":"Point","coordinates":[72.97189,19.187161]},"properties":{"id":"osm:node/4119328302","name":"Vijay Medical & General Stores","category":"pharmacy","source":"osm","opening_hours":"Mo-Su 08:30-23:00","healthcare":"pharmacy","phone":"9757432665"}},{"type":"Feature","geometry":{"type":"Point","coordinates":[72.873974,19.210143]},"properties":{"id":"osm:node/4127946599","name":"Apollo","category":"pharmacy","source":"osm"}},{"type":"Feature","geometry":{"type":"Point","coordinates":[72.814799,19.1386]},"properties":{"id":"osm:node/4152604762","name":"Lifeline","category":"pharmacy","source":"osm","phone":"+912226378686"}},{"type":"Feature","geometry":{"type":"Point","coordinates":[72.83466,19.087498]},"properties":{"id":"osm:node/4159114359","name":"Deepak Medicals","category":"pharmacy","source":"osm"}},{"type":"Feature","geometry":{"type":"Point","coordinates":[72.964402,19.199081]},"properties":{"id":"osm:node/4197338992","name":"Wellness Forever","category":"pharmacy","source":"osm","healthcare":"pharmacy"}},{"type":"Feature","geometry":{"type":"Point","coordinates":[72.8338,19.057859]},"properties":{"id":"osm:node/4312874896","name":"Metro Medicals","category":"pharmacy","source":"osm","healthcare":"pharmacy"}},{"type":"Feature","geometry":{"type":"Point","coordinates":[72.831525,19.055486]},"properties":{"id":"osm:node/4312909188","name":"Bandra Medical Stores","category":"pharmacy","source":"osm","healthcare":"pharmacy"}},{"type":"Feature","geometry":{"type":"Point","coordinates":[72.835598,19.055491]},"properties":{"id":"osm:node/4345578517","name":"Shifa Plus Medical and General Store","category":"pharmacy","source":"osm","healthcare":"pharmacy"}},{"type":"Feature","geometry":{"type":"Point","coordinates":[72.911559,19.075886]},"properties":{"id":"osm:node/4373086604","name":"bhavin medical stores","category":"pharmacy","source":"osm","opening_hours":"Mo-Su 10:30-23:00"}},{"type":"Feature","geometry":{"type":"Point","coordinates":[72.917285,19.121155]},"properties":{"id":"osm:node/4406061290","name":"Jhonson Medical","category":"pharmacy","source":"osm","opening_hours":"Mo-Su 10:00-22:30"}},{"type":"Feature","geometry":{"type":"Point","coordinates":[72.909722,19.116672]},"properties":{"id":"osm:node/4577067890","name":"Wellness Forever","category":"pharmacy","source":"osm","opening_hours":"24/7","healthcare":"pharmacy","phone":"022 6162 0659"}},{"type":"Feature","geometry":{"type":"Point","coordinates":[72.829293,18.918775]},"properties":{"id":"osm:node/4605376504","name":null,"category":"pharmacy","source":"osm","healthcare":"pharmacy"}},{"type":"Feature","geometry":{"type":"Point","coordinates":[72.952441,19.206909]},"properties":{"id":"osm:node/4605864004","name":"Jay Shree Medical Store","category":"pharmacy","source":"osm"}},{"type":"Feature","geometry":{"type":"Point","coordinates":[72.959716,19.169807]},"properties":{"id":"osm:node/4658681089","name":null,"category":"pharmacy","source":"osm","healthcare":"pharmacy"}},{"type":"Feature","geometry":{"type":"Point","coordinates":[72.976039,19.197407]},"properties":{"id":"osm:node/4809622924","name":"BRIGHT HOMOEOPATHIC PHARMAC","category":"pharmacy","source":"osm","healthcare":"pharmacy"}},{"type":"Feature","geometry":{"type":"Point","coordinates":[72.831275,18.918454]},"properties":{"id":"osm:node/4839324928","name":"Darbar","category":"pharmacy","source":"osm","healthcare":"pharmacy"}},{"type":"Feature","geometry":{"type":"Point","coordinates":[72.829508,18.918845]},"properties":{"id":"osm:node/4841690925","name":"Gen medical 24hrs","category":"pharmacy","source":"osm"}},{"type":"Feature","geometry":{"type":"Point","coordinates":[72.820983,18.954395]},"properties":{"id":"osm:node/4844717535","name":null,"category":"pharmacy","source":"osm","healthcare":"pharmacy"}},{"type":"Feature","geometry":{"type":"Point","coordinates":[72.961441,19.168043]},"properties":{"id":"osm:node/5047722121","name":"Ambaji Medical 24*7","category":"pharmacy","source":"osm"}},{"type":"Feature","geometry":{"type":"Point","coordinates":[72.815393,18.956914]},"properties":{"id":"osm:node/5091220114","name":"Rainbow Chemist","category":"pharmacy","source":"osm","healthcare":"pharmacy"}},{"type":"Feature","geometry":{"type":"Point","coordinates":[72.82835,19.051551]},"properties":{"id":"osm:node/5245907849","name":"Mamta Medical and General Store","category":"pharmacy","source":"osm","healthcare":"pharmacy","phone":"02269940010"}},{"type":"Feature","geometry":{"type":"Point","coordinates":[72.829812,19.057866]},"properties":{"id":"osm:node/5273193977","name":"Noble Plus Pharmacy","category":"pharmacy","source":"osm","opening_hours":"24/7","healthcare":"pharmacy","phone":"022 2643 1129"}},{"type":"Feature","geometry":{"type":"Point","coordinates":[72.824756,19.063107]},"properties":{"id":"osm:node/5277432568","name":"Gems Medical and General Store","category":"pharmacy","source":"osm","healthcare":"pharmacy","phone":"+91 98190 85930"}},{"type":"Feature","geometry":{"type":"Point","coordinates":[72.853706,19.023637]},"properties":{"id":"osm:node/6367147486","name":"Shoppers Drug Mart","category":"pharmacy","source":"osm","operator":"Noble Chemist","healthcare":"pharmacy"}},{"type":"Feature","geometry":{"type":"Point","coordinates":[72.908029,19.115384]},"properties":{"id":"osm:node/6795453789","name":"Life Panacea","category":"pharmacy","source":"osm","opening_hours":"Mo-Su 09:00-23:00"}},{"type":"Feature","geometry":{"type":"Point","coordinates":[72.907089,19.115114]},"properties":{"id":"osm:node/6795551887","name":"Ashwin MEDICAL and General stores","category":"pharmacy","source":"osm","opening_hours":"Mo-Su 09:00-23:00"}},{"type":"Feature","geometry":{"type":"Point","coordinates":[72.911549,19.119213]},"properties":{"id":"osm:node/6796939976","name":"Mamaji's Medical Store","category":"pharmacy","source":"osm","healthcare":"pharmacy"}},{"type":"Feature","geometry":{"type":"Point","coordinates":[72.917799,19.125764]},"properties":{"id":"osm:node/6799615085","name":"Vaibhav Pharmacy","category":"pharmacy","source":"osm"}},{"type":"Feature","geometry":{"type":"Point","coordinates":[72.919458,19.125724]},"properties":{"id":"osm:node/6801919196","name":"Sagar Medical store","category":"pharmacy","source":"osm"}},{"type":"Feature","geometry":{"type":"Point","coordinates":[72.905042,19.117746]},"properties":{"id":"osm:node/6802082694","name":"Noble Plus","category":"pharmacy","source":"osm","description":"Pharmacy, Chemist and Skin Care 24x7","healthcare":"pharmacy"}},{"type":"Feature","geometry":{"type":"Point","coordinates":[72.918752,19.126711]},"properties":{"id":"osm:node/6804290505","name":"unique homoeo pharmacy","category":"pharmacy","source":"osm","description":"medical store","healthcare":"pharmacy"}},{"type":"Feature","geometry":{"type":"Point","coordinates":[72.908026,19.115253]},"properties":{"id":"osm:node/6805446087","name":"Life Panacea","category":"pharmacy","source":"osm"}},{"type":"Feature","geometry":{"type":"Point","coordinates":[72.908012,19.115425]},"properties":{"id":"osm:node/6805465785","name":"Ambaji Medicals","category":"pharmacy","source":"osm"}},{"type":"Feature","geometry":{"type":"Point","coordinates":[72.90702,19.11506]},"properties":{"id":"osm:node/6805481585","name":"Ashwin Medical and General Stores","category":"pharmacy","source":"osm"}},{"type":"Feature","geometry":{"type":"Point","coordinates":[72.904992,19.11782]},"properties":{"id":"osm:node/6805962686","name":"Noble Plus","category":"pharmacy","source":"osm","healthcare":"pharmacy"}},{"type":"Feature","geometry":{"type":"Point","coordinates":[72.964517,19.223225]},"properties":{"id":"osm:node/6813997797","name":"A1 chemist","category":"pharmacy","source":"osm","healthcare":"pharmacy"}},{"type":"Feature","geometry":{"type":"Point","coordinates":[72.91876,19.127086]},"properties":{"id":"osm:node/6924350186","name":"Shree Ganesh Medical and General","category":"pharmacy","source":"osm"}},{"type":"Feature","geometry":{"type":"Point","coordinates":[72.918515,19.126836]},"properties":{"id":"osm:node/6924363986","name":"Ojas Medical and General store","category":"pharmacy","source":"osm"}},{"type":"Feature","geometry":{"type":"Point","coordinates":[72.991384,19.195146]},"properties":{"id":"osm:node/7073537694","name":"Pharmacy","category":"pharmacy","source":"osm","opening_hours":"24/7","healthcare":"pharmacy"}},{"type":"Feature","geometry":{"type":"Point","coordinates":[72.825087,19.13478]},"properties":{"id":"osm:node/7158055668","name":"MG365","category":"pharmacy","source":"osm","opening_hours":"24/7","wheelchair":"no","healthcare":"pharmacy"}},{"type":"Feature","geometry":{"type":"Point","coordinates":[72.957294,19.171592]},"properties":{"id":"osm:node/7291623685","name":"Liberty","category":"pharmacy","source":"osm"}},{"type":"Feature","geometry":{"type":"Point","coordinates":[72.824604,19.142767]},"properties":{"id":"osm:node/7426184230","name":"Wellness Forever","category":"pharmacy","source":"osm","opening_hours":"Mo-Su 00:00-00:00","wheelchair":"no","healthcare":"pharmacy","level":"0"}},{"type":"Feature","geometry":{"type":"Point","coordinates":[72.83238,18.96183]},"properties":{"id":"osm:node/7565221199","name":"Parveen Medical & General Stores","category":"pharmacy","source":"osm","healthcare":"pharmacy"}},{"type":"Feature","geometry":{"type":"Point","coordinates":[72.832858,18.961955]},"properties":{"id":"osm:node/7565221200","name":"Munna General Store","category":"pharmacy","source":"osm","healthcare":"pharmacy"}},{"type":"Feature","geometry":{"type":"Point","coordinates":[72.920226,19.041801]},"properties":{"id":"osm:node/8407343895","name":"Shakari Bhandar Pharmacy","category":"pharmacy","source":"osm","healthcare":"pharmacy"}},{"type":"Feature","geometry":{"type":"Point","coordinates":[72.819675,18.959596]},"properties":{"id":"osm:node/8839016427","name":"Noble Chemist","category":"pharmacy","source":"osm","healthcare":"pharmacy"}},{"type":"Feature","geometry":{"type":"Point","coordinates":[72.814476,19.138437]},"properties":{"id":"osm:node/8839436974","name":"Lifeline Chemist","category":"pharmacy","source":"osm","healthcare":"pharmacy"}},{"type":"Feature","geometry":{"type":"Point","coordinates":[72.831069,18.964319]},"properties":{"id":"osm:node/9017049888","name":"Al Madina Medical Store","category":"pharmacy","source":"osm","opening_hours":"Mo-Sa 10:00-23:30","healthcare":"pharmacy"}},{"type":"Feature","geometry":{"type":"Point","coordinates":[72.829882,18.965554]},"properties":{"id":"osm:node/9017049889","name":"Al-Falah Medical & General Store","category":"pharmacy","source":"osm","healthcare":"pharmacy"}},{"type":"Feature","geometry":{"type":"Point","coordinates":[72.828833,18.966759]},"properties":{"id":"osm:node/9019367761","name":"Anmol Chemist","category":"pharmacy","source":"osm","healthcare":"pharmacy"}},{"type":"Feature","geometry":{"type":"Point","coordinates":[72.830807,18.96455]},"properties":{"id":"osm:node/9019367762","name":"Global Medical and General Store","category":"pharmacy","source":"osm","opening_hours":"Mo-Su 10:00-23:00","healthcare":"pharmacy"}},{"type":"Feature","geometry":{"type":"Point","coordinates":[72.827322,19.141065]},"properties":{"id":"osm:node/9080857999","name":"Noble Plus Medicals Store","category":"pharmacy","source":"osm","opening_hours":"24/7","healthcare":"pharmacy","phone":"+912226324253"}},{"type":"Feature","geometry":{"type":"Point","coordinates":[72.825693,19.128062]},"properties":{"id":"osm:node/9118087846","name":"Mohan Medicure","category":"pharmacy","source":"osm","opening_hours":"24/7","healthcare":"pharmacy"}},{"type":"Feature","geometry":{"type":"Point","coordinates":[72.825764,19.12836]},"properties":{"id":"osm:node/9118087862","name":"Wellness Forever","category":"pharmacy","source":"osm","opening_hours":"24/7","healthcare":"pharmacy"}},{"type":"Feature","geometry":{"type":"Point","coordinates":[72.825547,19.13304]},"properties":{"id":"osm:node/9122378286","name":"Health & More","category":"pharmacy","source":"osm","opening_hours":"24/7","description":"\"Pharmacy, Supermarket, Convenience\"","healthcare":"pharmacy"}},{"type":"Feature","geometry":{"type":"Point","coordinates":[72.831544,19.143038]},"properties":{"id":"osm:node/9132764341","name":"Shri Balaji Medical and General Store","category":"pharmacy","source":"osm","healthcare":"pharmacy"}},{"type":"Feature","geometry":{"type":"Point","coordinates":[72.831759,19.127766]},"properties":{"id":"osm:node/9132847880","name":"Heath Guard Chemist and Supermarket","category":"pharmacy","source":"osm","opening_hours":"24/7","wheelchair":"no","healthcare":"pharmacy"}},{"type":"Feature","geometry":{"type":"Point","coordinates":[72.827976,19.128639]},"properties":{"id":"osm:node/9132857974","name":"24x7 Chemist and General Store","category":"pharmacy","source":"osm","opening_hours":"24/7","healthcare":"pharmacy"}},{"type":"Feature","geometry":{"type":"Point","coordinates":[72.82185,19.136743]},"properties":{"id":"osm:node/9139640438","name":"Mohini Medical Store","category":"pharmacy","source":"osm","healthcare":"pharmacy"}},{"type":"Feature","geometry":{"type":"Point","coordinates":[72.826656,19.055144]},"properties":{"id":"osm:node/9405136895","name":"Shree Ganesh Medical & General Stores","category":"pharmacy","source":"osm","healthcare":"pharmacy","phone":"022 2644 1211;+91 93215 16281;+91 88796 61211"}},{"type":"Feature","geometry":{"type":"Point","coordinates":[72.98906,19.14683]},"properties":{"id":"osm:node/9801919458","name":"Laxmi Medical","category":"pharmacy","source":"osm","healthcare":"pharmacy"}},{"type":"Feature","geometry":{"type":"Point","coordinates":[72.988985,19.146712]},"properties":{"id":"osm:node/9805656981","name":"Waykar Medical","category":"pharmacy","source":"osm","healthcare":"pharmacy"}},{"type":"Feature","geometry":{"type":"Point","coordinates":[72.910521,19.060298]},"properties":{"id":"osm:node/10052708697","name":"Metro medical","category":"pharmacy","source":"osm","healthcare":"pharmacy"}},{"type":"Feature","geometry":{"type":"Point","coordinates":[72.944478,19.167386]},"properties":{"id":"osm:node/10241660710","name":"Sai Krishna Medical and General Stores","category":"pharmacy","source":"osm"}},{"type":"Feature","geometry":{"type":"Point","coordinates":[72.833582,19.057846]},"properties":{"id":"osm:node/10608361194","name":"Prime Pharma Distributor","category":"pharmacy","source":"osm","healthcare":"pharmacy"}},{"type":"Feature","geometry":{"type":"Point","coordinates":[72.913867,19.045394]},"properties":{"id":"osm:node/11055126102","name":"Tulsi medicals","category":"pharmacy","source":"osm","healthcare":"pharmacy"}},{"type":"Feature","geometry":{"type":"Point","coordinates":[72.902467,19.045694]},"properties":{"id":"osm:node/11098458923","name":"Orange Pharmacy","category":"pharmacy","source":"osm","healthcare":"pharmacy"}},{"type":"Feature","geometry":{"type":"Point","coordinates":[72.90257,19.045689]},"properties":{"id":"osm:node/11098464324","name":null,"category":"pharmacy","source":"osm","healthcare":"pharmacy"}},{"type":"Feature","geometry":{"type":"Point","coordinates":[72.902524,19.045691]},"properties":{"id":"osm:node/11098474640","name":null,"category":"pharmacy","source":"osm","healthcare":"pharmacy"}},{"type":"Feature","geometry":{"type":"Point","coordinates":[72.90971,19.10155]},"properties":{"id":"osm:node/11241778438","name":"Himalaya Medical & General Stores","category":"pharmacy","source":"osm","opening_hours":"Mo-Su 09:00-23:00"}},{"type":"Feature","geometry":{"type":"Point","coordinates":[72.82934,19.06271]},"properties":{"id":"osm:node/11296371069","name":"Modern Stores","category":"pharmacy","source":"osm","healthcare":"pharmacy"}},{"type":"Feature","geometry":{"type":"Point","coordinates":[72.829823,19.064914]},"properties":{"id":"osm:node/11298617858","name":"Wellness Forever","category":"pharmacy","source":"osm","healthcare":"pharmacy"}},{"type":"Feature","geometry":{"type":"Point","coordinates":[72.83162,19.065602]},"properties":{"id":"osm:node/11298645363","name":"Noble Plus","category":"pharmacy","source":"osm","healthcare":"pharmacy"}},{"type":"Feature","geometry":{"type":"Point","coordinates":[72.830508,18.947506]},"properties":{"id":"osm:node/11307722469","name":"Honeybell Pharma Pvt. Ltd","category":"pharmacy","source":"osm","healthcare":"pharmacy"}},{"type":"Feature","geometry":{"type":"Point","coordinates":[72.836529,19.05874]},"properties":{"id":"osm:node/11364270986","name":"Apollo Pharmacy","category":"pharmacy","source":"osm","healthcare":"pharmacy"}},{"type":"Feature","geometry":{"type":"Point","coordinates":[72.826716,19.110507]},"properties":{"id":"osm:node/11383288499","name":"Bafna Medical and General Stores","category":"pharmacy","source":"osm","healthcare":"pharmacy"}},{"type":"Feature","geometry":{"type":"Point","coordinates":[72.826712,19.110465]},"properties":{"id":"osm:node/11383288502","name":"Welcome Medical & General Stores","category":"pharmacy","source":"osm","healthcare":"pharmacy"}},{"type":"Feature","geometry":{"type":"Point","coordinates":[72.829614,19.055129]},"properties":{"id":"osm:node/11385106117","name":"Alive United","category":"pharmacy","source":"osm","healthcare":"pharmacy"}},{"type":"Feature","geometry":{"type":"Point","coordinates":[72.903565,19.02923]},"properties":{"id":"osm:node/11439700669","name":"राजपूत मेडिकल","category":"pharmacy","source":"osm"}},{"type":"Feature","geometry":{"type":"Point","coordinates":[72.889374,19.084532]},"properties":{"id":"osm:node/11449446312","name":"Grand Medical","category":"pharmacy","source":"osm"}},{"type":"Feature","geometry":{"type":"Point","coordinates":[72.839066,19.022103]},"properties":{"id":"osm:node/11451948928","name":"Sheetal Ayurveda","category":"pharmacy","source":"osm","healthcare":"pharmacy"}},{"type":"Feature","geometry":{"type":"Point","coordinates":[72.930071,19.046946]},"properties":{"id":"osm:node/11610034149","name":"Soham Medical and General Store","category":"pharmacy","source":"osm","healthcare":"pharmacy"}},{"type":"Feature","geometry":{"type":"Point","coordinates":[72.855097,19.23534]},"properties":{"id":"osm:node/11654029360","name":"Cambay Medical Stores","category":"pharmacy","source":"osm","opening_hours":"24/7","healthcare":"pharmacy"}},{"type":"Feature","geometry":{"type":"Point","coordinates":[72.842494,19.062184]},"properties":{"id":"osm:node/12026379669","name":"Apple Medical","category":"pharmacy","source":"osm","opening_hours":"Mo-Sa,PH 08:00-12:00; Su 08:00-13:00"}},{"type":"Feature","geometry":{"type":"Point","coordinates":[72.872268,19.094845]},"properties":{"id":"osm:node/12075203456","name":"Apollo Pharmacy","category":"pharmacy","source":"osm","healthcare":"pharmacy","level":"1"}},{"type":"Feature","geometry":{"type":"Point","coordinates":[72.849286,19.060932]},"properties":{"id":"osm:node/12150771701","name":"Generic Medicine Pharmacy","category":"pharmacy","source":"osm","healthcare":"pharmacy"}},{"type":"Feature","geometry":{"type":"Point","coordinates":[72.83087,19.062515]},"properties":{"id":"osm:node/12192784842","name":"New Liberty Drug Corner","category":"pharmacy","source":"osm","opening_hours":"24/7","healthcare":"pharmacy"}},{"type":"Feature","geometry":{"type":"Point","coordinates":[73.016992,19.033365]},"properties":{"id":"osm:node/12271316904","name":"Apollo Pharmacy","category":"pharmacy","source":"osm","healthcare":"pharmacy"}},{"type":"Feature","geometry":{"type":"Point","coordinates":[73.016985,19.033422]},"properties":{"id":"osm:node/12271316905","name":"Wellness Forever","category":"pharmacy","source":"osm","healthcare":"pharmacy"}},{"type":"Feature","geometry":{"type":"Point","coordinates":[73.016233,19.027516]},"properties":{"id":"osm:node/12287909412","name":"Dinesh Medical","category":"pharmacy","source":"osm","healthcare":"pharmacy"}},{"type":"Feature","geometry":{"type":"Point","coordinates":[72.846002,19.146225]},"properties":{"id":"osm:node/12290006107","name":"Carona Chemist","category":"pharmacy","source":"osm","healthcare":"pharmacy"}},{"type":"Feature","geometry":{"type":"Point","coordinates":[72.846377,19.14532]},"properties":{"id":"osm:node/12290034712","name":"Reliable Medical","category":"pharmacy","source":"osm","wheelchair":"yes","healthcare":"pharmacy","phone":"+91 98192 62635"}},{"type":"Feature","geometry":{"type":"Point","coordinates":[73.019712,19.037297]},"properties":{"id":"osm:node/12307080603","name":"Nerul Chemist","category":"pharmacy","source":"osm","healthcare":"pharmacy"}},{"type":"Feature","geometry":{"type":"Point","coordinates":[72.804481,19.141011]},"properties":{"id":"osm:node/12313437123","name":"Vikas Medial and General Store","category":"pharmacy","source":"osm","wheelchair":"no","healthcare":"pharmacy","level":"0"}},{"type":"Feature","geometry":{"type":"Point","coordinates":[72.823274,19.1364]},"properties":{"id":"osm:node/12317765975","name":"Paras Medical and General Store","category":"pharmacy","source":"osm","healthcare":"pharmacy","level":"0"}},{"type":"Feature","geometry":{"type":"Point","coordinates":[72.82175,19.136522]},"properties":{"id":"osm:node/12317766043","name":"Chamunda Medical Store","category":"pharmacy","source":"osm","healthcare":"pharmacy","level":"0"}},{"type":"Feature","geometry":{"type":"Point","coordinates":[72.820759,19.135766]},"properties":{"id":"osm:node/12317766142","name":"Maharashtra Medical","category":"pharmacy","source":"osm","wheelchair":"no","healthcare":"pharmacy","level":"0"}},{"type":"Feature","geometry":{"type":"Point","coordinates":[72.858705,19.105766]},"properties":{"id":"osm:node/12317845259","name":"Ashirwad Medical","category":"pharmacy","source":"osm","wheelchair":"no","healthcare":"pharmacy","level":"0"}},{"type":"Feature","geometry":{"type":"Point","coordinates":[72.858654,19.11119]},"properties":{"id":"osm:node/12317845292","name":"United Medical and General Stores","category":"pharmacy","source":"osm","healthcare":"pharmacy","level":"0"}},{"type":"Feature","geometry":{"type":"Point","coordinates":[73.016007,19.033678]},"properties":{"id":"osm:node/12324103604","name":"Mahalaxmi Medical","category":"pharmacy","source":"osm","healthcare":"pharmacy"}},{"type":"Feature","geometry":{"type":"Point","coordinates":[72.821625,19.13633]},"properties":{"id":"osm:node/12328165742","name":"Trimurti Medico and General Store","category":"pharmacy","source":"osm","opening_hours":"Mo-Su 09:00-00:00","wheelchair":"no","healthcare":"pharmacy","level":"0"}},{"type":"Feature","geometry":{"type":"Point","coordinates":[72.824229,19.14353]},"properties":{"id":"osm:node/12329881103","name":"Guruprasad","category":"pharmacy","source":"osm","opening_hours":"09:00-23:00","wheelchair":"no","healthcare":"pharmacy","phone":"+91 86938 08111; +91 97695 60515","level":"0"}},{"type":"Feature","geometry":{"type":"Point","coordinates":[72.834355,19.056269]},"properties":{"id":"osm:node/12346531474","name":"Wellness Forever","category":"pharmacy","source":"osm","healthcare":"pharmacy"}},{"type":"Feature","geometry":{"type":"Point","coordinates":[72.836488,19.054766]},"properties":{"id":"osm:node/12353886144","name":"Leelavati Medical","category":"pharmacy","source":"osm","healthcare":"pharmacy"}},{"type":"Feature","geometry":{"type":"Point","coordinates":[72.844634,19.078938]},"properties":{"id":"osm:node/12408808753","name":"M R Medical","category":"pharmacy","source":"osm","opening_hours":"24/7","healthcare":"pharmacy"}},{"type":"Feature","geometry":{"type":"Point","coordinates":[72.844577,19.079065]},"properties":{"id":"osm:node/12408822896","name":"Bhatia Medical","category":"pharmacy","source":"osm","opening_hours":"Mo-Su 09:00-23:00","healthcare":"pharmacy"}},{"type":"Feature","geometry":{"type":"Point","coordinates":[72.975776,19.234528]},"properties":{"id":"osm:node/12591894396","name":"Vitane Pharma","category":"pharmacy","source":"osm","healthcare":"pharmacy"}},{"type":"Feature","geometry":{"type":"Point","coordinates":[72.970225,19.227348]},"properties":{"id":"osm:node/12593740204","name":"Bafna Surgicals(Hiranandani Branch)Meadows","category":"pharmacy","source":"osm","healthcare":"pharmacy"}},{"type":"Feature","geometry":{"type":"Point","coordinates":[72.953116,19.171598]},"properties":{"id":"osm:node/12630665802","name":"Wellness Forever","category":"pharmacy","source":"osm"}},{"type":"Feature","geometry":{"type":"Point","coordinates":[72.856135,19.027181]},"properties":{"id":"osm:node/12770185627","name":"Noble Chemist","category":"pharmacy","source":"osm","opening_hours":"24/7","wheelchair":"no","healthcare":"pharmacy","phone":"+91 22 2404 2222;+91 22 2404 2230","level":"0"}},{"type":"Feature","geometry":{"type":"Point","coordinates":[72.854581,19.026919]},"properties":{"id":"osm:node/12770285317","name":"Apollo Pharmacy","category":"pharmacy","source":"osm","wheelchair":"no","healthcare":"pharmacy","level":"0"}},{"type":"Feature","geometry":{"type":"Point","coordinates":[72.845845,19.03196]},"properties":{"id":"osm:node/12775789705","name":"Phondaghat Pharmacy","category":"pharmacy","source":"osm","healthcare":"pharmacy"}},{"type":"Feature","geometry":{"type":"Point","coordinates":[72.847725,19.059209]},"properties":{"id":"osm:node/12784254798","name":"Esswell Pharma","category":"pharmacy","source":"osm","healthcare":"pharmacy","phone":"+91 70457 89598"}},{"type":"Feature","geometry":{"type":"Point","coordinates":[72.826329,19.10667]},"properties":{"id":"osm:node/12848913176","name":"Noble Plus","category":"pharmacy","source":"osm","healthcare":"pharmacy"}},{"type":"Feature","geometry":{"type":"Point","coordinates":[72.826807,19.107029]},"properties":{"id":"osm:node/12848913220","name":"Vidya Chemist","category":"pharmacy","source":"osm","healthcare":"pharmacy"}},{"type":"Feature","geometry":{"type":"Point","coordinates":[72.849494,19.061382]},"properties":{"id":"osm:node/12912776676","name":"Bhatia Clinic","category":"pharmacy","source":"osm","opening_hours":"24/7","healthcare":"pharmacy"}},{"type":"Feature","geometry":{"type":"Point","coordinates":[72.844053,19.061729]},"properties":{"id":"osm:node/12921862895","name":null,"category":"pharmacy","source":"osm","healthcare":"pharmacy"}},{"type":"Feature","geometry":{"type":"Point","coordinates":[72.830241,19.065632]},"properties":{"id":"osm:node/12923020647","name":"Guru Nanak Chemist","category":"pharmacy","source":"osm","healthcare":"pharmacy"}},{"type":"Feature","geometry":{"type":"Point","coordinates":[72.835048,19.062078]},"properties":{"id":"osm:node/12926034662","name":"Forever Yooung","category":"pharmacy","source":"osm","healthcare":"pharmacy"}},{"type":"Feature","geometry":{"type":"Point","coordinates":[72.825068,19.047451]},"properties":{"id":"osm:node/12926508557","name":"Shree Maruti Medical & General Store","category":"pharmacy","source":"osm","healthcare":"pharmacy","phone":"+91 98197 11538"}},{"type":"Feature","geometry":{"type":"Point","coordinates":[72.82512,19.04789]},"properties":{"id":"osm:node/12927277235","name":"National Chemist","category":"pharmacy","source":"osm","healthcare":"pharmacy"}},{"type":"Feature","geometry":{"type":"Point","coordinates":[72.86526,19.296866]},"properties":{"id":"osm:node/12982891526","name":"Jan Aushadhi","category":"pharmacy","source":"osm","wheelchair":"no","healthcare":"pharmacy","level":"0"}},{"type":"Feature","geometry":{"type":"Point","coordinates":[72.864189,19.299928]},"properties":{"id":"osm:node/12985444730","name":"Shanti Chemist","category":"pharmacy","source":"osm","wheelchair":"no","healthcare":"pharmacy"}},{"type":"Feature","geometry":{"type":"Point","coordinates":[72.864034,19.29926]},"properties":{"id":"osm:node/12994244654","name":"Shri Ramsagar Medical and General Store","category":"pharmacy","source":"osm","wheelchair":"no","healthcare":"pharmacy"}},{"type":"Feature","geometry":{"type":"Point","coordinates":[72.84389,19.01593]},"properties":{"id":"osm:node/13020281093","name":"Zeno Health Pharmacy","category":"pharmacy","source":"osm","healthcare":"pharmacy"}},{"type":"Feature","geometry":{"type":"Point","coordinates":[72.854394,19.03151]},"properties":{"id":"osm:node/13022352226","name":"Orange Medicals","category":"pharmacy","source":"osm","healthcare":"pharmacy"}},{"type":"Feature","geometry":{"type":"Point","coordinates":[72.824626,19.063392]},"properties":{"id":"osm:node/13086964886","name":"Shree Krishna Medical & General Store","category":"pharmacy","source":"osm","healthcare":"pharmacy"}},{"type":"Feature","geometry":{"type":"Point","coordinates":[72.813481,18.961251]},"properties":{"id":"osm:node/13131079893","name":"Ray Brothers Homoeopathic Pharmacy","category":"pharmacy","source":"osm","opening_hours":"Mo-Sa 09:30-13:30 15:00-18:00","healthcare":"pharmacy","phone":"+91-22-23810980"}},{"type":"Feature","geometry":{"type":"Point","coordinates":[72.82431,19.129848]},"properties":{"id":"osm:node/13240626321","name":"Metropolis","category":"pharmacy","source":"osm","opening_hours":"Mo-Su,PH 07:00-20:00, Su 07:00-15:00","healthcare":"pharmacy"}},{"type":"Feature","geometry":{"type":"Point","coordinates":[72.854229,19.313346]},"properties":{"id":"osm:node/13249373369","name":"Zeelab Pharmacy","category":"pharmacy","source":"osm","healthcare":"pharmacy","level":"0"}},{"type":"Feature","geometry":{"type":"Point","coordinates":[72.830865,19.008997]},"properties":{"id":"osm:node/13294722223","name":"Darshan pharmacy","category":"pharmacy","source":"osm","opening_hours":"Mo-Su 08:30-23:30","healthcare":"pharmacy","phone":"+9185910 23747"}},{"type":"Feature","geometry":{"type":"Point","coordinates":[72.830963,19.006615]},"properties":{"id":"osm:node/13295721535","name":"Noble Plus","category":"pharmacy","source":"osm","opening_hours":"Mo-Su 00:00-12:00","healthcare":"pharmacy"}},{"type":"Feature","geometry":{"type":"Point","coordinates":[72.863951,19.075856]},"properties":{"id":"osm:node/13331187601","name":"Laxmi Chemist & General Store","category":"pharmacy","source":"osm"}},{"type":"Feature","geometry":{"type":"Point","coordinates":[72.832687,19.127582]},"properties":{"id":"osm:node/13374174142","name":"Health Guard Medico","category":"pharmacy","source":"osm","opening_hours":"24/7","wheelchair":"no","healthcare":"pharmacy","level":"0"}},{"type":"Feature","geometry":{"type":"Point","coordinates":[72.996917,19.118475]},"properties":{"id":"osm:node/13375384670","name":"MedPlus","category":"pharmacy","source":"osm","healthcare":"pharmacy"}},{"type":"Feature","geometry":{"type":"Point","coordinates":[72.817879,19.130113]},"properties":{"id":"osm:node/13377438360","name":"Apollo Pharmacy","category":"pharmacy","source":"osm","opening_hours":"Mo-Su 07:00-23:00","wheelchair":"limited","healthcare":"pharmacy","level":"0"}},{"type":"Feature","geometry":{"type":"Point","coordinates":[72.847532,19.017018]},"properties":{"id":"osm:node/13388481691","name":"साईराम Medical","category":"pharmacy","source":"osm","healthcare":"pharmacy"}},{"type":"Feature","geometry":{"type":"Point","coordinates":[72.848605,19.019428]},"properties":{"id":"osm:node/13388573129","name":"Sai Krupa chemist","category":"pharmacy","source":"osm","healthcare":"pharmacy"}},{"type":"Feature","geometry":{"type":"Point","coordinates":[72.849355,19.20394]},"properties":{"id":"osm:node/13431955139","name":"Hemant Distributors","category":"pharmacy","source":"osm","opening_hours":"Mo-Sa 09:00-19:00","healthcare":"pharmacy"}},{"type":"Feature","geometry":{"type":"Point","coordinates":[72.825546,18.933123]},"properties":{"id":"osm:node/13470129584","name":"Wordell","category":"pharmacy","source":"osm","healthcare":"pharmacy"}},{"type":"Feature","geometry":{"type":"Point","coordinates":[72.946813,19.181276]},"properties":{"id":"osm:node/13504116716","name":"Wellness Forever","category":"pharmacy","source":"osm","healthcare":"pharmacy"}},{"type":"Feature","geometry":{"type":"Point","coordinates":[72.84652,19.137426]},"properties":{"id":"osm:node/13573752999","name":null,"category":"pharmacy","source":"osm","opening_hours":"24/7","healthcare":"pharmacy"}},{"type":"Feature","geometry":{"type":"Point","coordinates":[72.843841,19.135693]},"properties":{"id":"osm:node/13573757402","name":"Shri Ganesh General Store","category":"pharmacy","source":"osm","healthcare":"pharmacy"}},{"type":"Feature","geometry":{"type":"Point","coordinates":[72.839222,19.126762]},"properties":{"id":"osm:node/13579926767","name":null,"category":"pharmacy","source":"osm","opening_hours":"24/7","healthcare":"pharmacy","level":"0"}},{"type":"Feature","geometry":{"type":"Point","coordinates":[72.829276,19.117541]},"properties":{"id":"osm:node/13589398552","name":"Orange","category":"pharmacy","source":"osm","opening_hours":"24/7","wheelchair":"no","healthcare":"pharmacy","level":"0"}},{"type":"Feature","geometry":{"type":"Point","coordinates":[72.851631,19.110285]},"properties":{"id":"osm:node/13589398574","name":"Krishnam","category":"pharmacy","source":"osm","healthcare":"pharmacy","level":"0"}},{"type":"Feature","geometry":{"type":"Point","coordinates":[72.848087,19.1174]},"properties":{"id":"osm:node/13589430239","name":"Vora Medico","category":"pharmacy","source":"osm","wheelchair":"limited","healthcare":"pharmacy","level":"0"}},{"type":"Feature","geometry":{"type":"Point","coordinates":[72.823787,19.14491]},"properties":{"id":"osm:node/13589526354","name":"Kamdhenu Homoeopathic Pharmacy","category":"pharmacy","source":"osm","healthcare":"pharmacy"}},{"type":"Feature","geometry":{"type":"Point","coordinates":[72.825032,19.141472]},"properties":{"id":"osm:node/13597205715","name":"MG365","category":"pharmacy","source":"osm","opening_hours":"24/7","wheelchair":"no","healthcare":"pharmacy","level":"0"}},{"type":"Feature","geometry":{"type":"Point","coordinates":[72.887714,19.090896]},"properties":{"id":"osm:node/13685574901","name":"ओम साई मेडिकल","category":"pharmacy","source":"osm","opening_hours":"Mo-Su 09:00-12:00","phone":"9096588976"}},{"type":"Feature","geometry":{"type":"Point","coordinates":[72.859866,19.281126]},"properties":{"id":"osm:node/13686458524","name":"Patil Medical and General Stores","category":"pharmacy","source":"osm","healthcare":"pharmacy"}},{"type":"Feature","geometry":{"type":"Point","coordinates":[72.945948,19.175492]},"properties":{"id":"osm:node/13760670265","name":"Rinku Medical & General Stores","category":"pharmacy","source":"osm","wheelchair":"yes","healthcare":"pharmacy"}},{"type":"Feature","geometry":{"type":"Point","coordinates":[72.994125,19.182527]},"properties":{"id":"osm:node/13763959293","name":"Apollo Pharmacy","category":"pharmacy","source":"osm","healthcare":"pharmacy"}},{"type":"Feature","geometry":{"type":"Point","coordinates":[72.837774,19.082853]},"properties":{"id":"osm:node/13773028270","name":"Noble Medicals","category":"pharmacy","source":"osm","opening_hours":"24/7","healthcare":"pharmacy","level":"0"}},{"type":"Feature","geometry":{"type":"Point","coordinates":[72.996289,19.117559]},"properties":{"id":"osm:node/13798764683","name":"Apollo Pharmacy","category":"pharmacy","source":"osm","healthcare":"pharmacy"}},{"type":"Feature","geometry":{"type":"Point","coordinates":[72.999828,19.071552]},"properties":{"id":"osm:node/13866612716","name":"MedPlus","category":"pharmacy","source":"osm","opening_hours":"24/7","wheelchair":"limited","healthcare":"pharmacy","level":"0"}},{"type":"Feature","geometry":{"type":"Point","coordinates":[72.999157,19.071711]},"properties":{"id":"osm:node/13866629045","name":"Wellness Forever","category":"pharmacy","source":"osm","wheelchair":"limited","operator":"wellness","healthcare":"pharmacy","level":"ZERO"}},{"type":"Feature","geometry":{"type":"Point","coordinates":[72.999353,19.071601]},"properties":{"id":"osm:node/13866666107","name":"Wellness Forever","category":"pharmacy","source":"osm","opening_hours":"24/7","wheelchair":"limited","healthcare":"pharmacy","level":"0"}},{"type":"Feature","geometry":{"type":"Point","coordinates":[73.00016,19.071543]},"properties":{"id":"osm:node/13866695675","name":"Himalaya Wellness","category":"pharmacy","source":"osm","wheelchair":"limited","healthcare":"pharmacy","level":"0"}},{"type":"Feature","geometry":{"type":"Point","coordinates":[72.812884,18.961246]},"properties":{"id":"osm:way/39839763","name":"Nana Chowk Public Dispensary","category":"pharmacy","source":"osm","healthcare":"pharmacy"}},{"type":"Feature","geometry":{"type":"Point","coordinates":[72.977091,19.205822]},"properties":{"id":"osm:way/183155829","name":"Vikas Medicals","category":"pharmacy","source":"osm","healthcare":"pharmacy"}},{"type":"Feature","geometry":{"type":"Point","coordinates":[72.842936,19.202283]},"properties":{"id":"osm:way/1143905699","name":"wellness counter","category":"pharmacy","source":"osm","opening_hours":"24 hours","healthcare":"pharmacy"}},{"type":"Feature","geometry":{"type":"Point","coordinates":[72.939326,19.152026]},"properties":{"id":"osm:way/1215020298","name":"Krishna Medical","category":"pharmacy","source":"osm","opening_hours":"Mo-Su 08:00-22:00","healthcare":"pharmacy"}}]}