{"type":"FeatureCollection","attribution":"© OpenStreetMap contributors (ODbL) · MCGM public toilet data via data.opencity.in (public domain)","generated":"2026-08-13T12:41:13.275Z","bbox":"18.87,72.77,19.32,73.02","features":[{"type":"Feature","geometry":{"type":"Point","coordinates":[72.837114,19.064037]},"properties":{"id":"osm:node/347152618","name":"Khar Police Station","category":"police","source":"osm"}},{"type":"Feature","geometry":{"type":"Point","coordinates":[72.830331,18.945371]},"properties":{"id":"osm:node/605221901","name":"Lokmanya Tilak Road Police Station","category":"police","source":"osm"}},{"type":"Feature","geometry":{"type":"Point","coordinates":[72.829033,18.957007]},"properties":{"id":"osm:node/858544370","name":"Null Bazaar Police Chowkie","category":"police","source":"osm"}},{"type":"Feature","geometry":{"type":"Point","coordinates":[72.832021,18.954172]},"properties":{"id":"osm:node/858544419","name":"Pydhoni Police Station","category":"police","source":"osm"}},{"type":"Feature","geometry":{"type":"Point","coordinates":[72.839049,18.96214]},"properties":{"id":"osm:node/860348747","name":"Dongri Police Station","category":"police","source":"osm"}},{"type":"Feature","geometry":{"type":"Point","coordinates":[72.832291,18.963006]},"properties":{"id":"osm:node/861239805","name":"Sir JJ Marg Police Station","category":"police","source":"osm"}},{"type":"Feature","geometry":{"type":"Point","coordinates":[72.854382,19.166485]},"properties":{"id":"osm:node/985121037","name":"Aarey Police Station","category":"police","source":"osm"}},{"type":"Feature","geometry":{"type":"Point","coordinates":[72.857676,19.155874]},"properties":{"id":"osm:node/985121043","name":"Goregaon (E) Police Station","category":"police","source":"osm"}},{"type":"Feature","geometry":{"type":"Point","coordinates":[72.833389,18.947444]},"properties":{"id":"osm:node/1034965532","name":"Lokmanya Tilak Police Chowkie Beat No 4","category":"police","source":"osm"}},{"type":"Feature","geometry":{"type":"Point","coordinates":[72.833129,18.946329]},"properties":{"id":"osm:node/1034965537","name":"Lokmanya Tilak Police Station","category":"police","source":"osm"}},{"type":"Feature","geometry":{"type":"Point","coordinates":[72.832889,18.944448]},"properties":{"id":"osm:node/1241711502","name":null,"category":"police","source":"osm","description":"Police commissioner"}},{"type":"Feature","geometry":{"type":"Point","coordinates":[72.832365,18.967528]},"properties":{"id":"osm:node/1301593213","name":null,"category":"police","source":"osm"}},{"type":"Feature","geometry":{"type":"Point","coordinates":[72.824346,18.930262]},"properties":{"id":"osm:node/1332582403","name":"Marine Drive Police Station","category":"police","source":"osm"}},{"type":"Feature","geometry":{"type":"Point","coordinates":[72.83,19.122585]},"properties":{"id":"osm:node/1697431324","name":"D.N. Nagar Police Station","category":"police","source":"osm"}},{"type":"Feature","geometry":{"type":"Point","coordinates":[72.83037,19.124125]},"properties":{"id":"osm:node/1905389024","name":"Versova Police Station","category":"police","source":"osm"}},{"type":"Feature","geometry":{"type":"Point","coordinates":[72.981127,19.19608]},"properties":{"id":"osm:node/1960732105","name":"Police Commissioner Office","category":"police","source":"osm"}},{"type":"Feature","geometry":{"type":"Point","coordinates":[72.962761,19.213135]},"properties":{"id":"osm:node/1960732177","name":"Vartak Nagar Police Station","category":"police","source":"osm"}},{"type":"Feature","geometry":{"type":"Point","coordinates":[73.005183,19.099075]},"properties":{"id":"osm:node/1990647113","name":"KK POLICE STATION","category":"police","source":"osm"}},{"type":"Feature","geometry":{"type":"Point","coordinates":[72.858217,19.228207]},"properties":{"id":"osm:node/2097757614","name":null,"category":"police","source":"osm"}},{"type":"Feature","geometry":{"type":"Point","coordinates":[72.829219,19.062832]},"properties":{"id":"osm:node/2171447204","name":"Police Chowki","category":"police","source":"osm"}},{"type":"Feature","geometry":{"type":"Point","coordinates":[72.872904,19.205951]},"properties":{"id":"osm:node/2298079810","name":"Police Station, Thakur Village","category":"police","source":"osm"}},{"type":"Feature","geometry":{"type":"Point","coordinates":[72.857733,19.178949]},"properties":{"id":"osm:node/2308138695","name":"Dindoshi Police station","category":"police","source":"osm"}},{"type":"Feature","geometry":{"type":"Point","coordinates":[72.817067,18.960821]},"properties":{"id":"osm:node/2449734722","name":"Badhamkar Mark Police Station","category":"police","source":"osm"}},{"type":"Feature","geometry":{"type":"Point","coordinates":[72.867653,19.175591]},"properties":{"id":"osm:node/2562631232","name":"Gokuldham Police Station","category":"police","source":"osm"}},{"type":"Feature","geometry":{"type":"Point","coordinates":[72.829485,19.07389]},"properties":{"id":"osm:node/2680678193","name":"Police Chowk","category":"police","source":"osm"}},{"type":"Feature","geometry":{"type":"Point","coordinates":[72.895998,19.065286]},"properties":{"id":"osm:node/2930732807","name":"Tilak Nagar Police Station","category":"police","source":"osm"}},{"type":"Feature","geometry":{"type":"Point","coordinates":[72.884227,19.071717]},"properties":{"id":"osm:node/2933183452","name":"VB Nagar Police Station","category":"police","source":"osm"}},{"type":"Feature","geometry":{"type":"Point","coordinates":[72.833307,18.946295]},"properties":{"id":"osm:node/3008501715","name":"Police Commissioner's Office","category":"police","source":"osm"}},{"type":"Feature","geometry":{"type":"Point","coordinates":[72.855948,19.229495]},"properties":{"id":"osm:node/3186544582","name":null,"category":"police","source":"osm"}},{"type":"Feature","geometry":{"type":"Point","coordinates":[72.9357,19.0537]},"properties":{"id":"osm:node/3204171992","name":"POLICE STATION","category":"police","source":"osm"}},{"type":"Feature","geometry":{"type":"Point","coordinates":[72.949946,19.036145]},"properties":{"id":"osm:node/3205945190","name":"trombay police station","category":"police","source":"osm"}},{"type":"Feature","geometry":{"type":"Point","coordinates":[72.929111,19.15489]},"properties":{"id":"osm:node/3205950901","name":"Tembhipada Police Chowki","category":"police","source":"osm"}},{"type":"Feature","geometry":{"type":"Point","coordinates":[72.900825,19.063949]},"properties":{"id":"osm:node/3205956099","name":"chembur police station","category":"police","source":"osm"}},{"type":"Feature","geometry":{"type":"Point","coordinates":[72.937862,19.050247]},"properties":{"id":"osm:node/3215545236","name":"Maharashtra Nagar Police Station","category":"police","source":"osm"}},{"type":"Feature","geometry":{"type":"Point","coordinates":[72.911665,19.059521]},"properties":{"id":"osm:node/3215577539","name":"Govandi Police station","category":"police","source":"osm"}},{"type":"Feature","geometry":{"type":"Point","coordinates":[72.9271,19.052848]},"properties":{"id":"osm:node/3215584200","name":"Lallubhai Police Station","category":"police","source":"osm"}},{"type":"Feature","geometry":{"type":"Point","coordinates":[72.91044,19.060352]},"properties":{"id":"osm:node/3215621243","name":"gaikwaad nagar police station","category":"police","source":"osm"}},{"type":"Feature","geometry":{"type":"Point","coordinates":[72.955099,19.203187]},"properties":{"id":"osm:node/3263043837","name":"WAGLE POLICE STATION","category":"police","source":"osm"}},{"type":"Feature","geometry":{"type":"Point","coordinates":[72.880875,19.065066]},"properties":{"id":"osm:node/3532121099","name":"Nehru Nagar Kurla E Police Chowky","category":"police","source":"osm"}},{"type":"Feature","geometry":{"type":"Point","coordinates":[72.90883,19.055743]},"properties":{"id":"osm:node/3547889593","name":"Khardev Nagar Police Station","category":"police","source":"osm"}},{"type":"Feature","geometry":{"type":"Point","coordinates":[72.937325,19.118719]},"properties":{"id":"osm:node/3602876220","name":"Vikhroli Police Station","category":"police","source":"osm"}},{"type":"Feature","geometry":{"type":"Point","coordinates":[72.903157,19.067214]},"properties":{"id":"osm:node/4402150675","name":"Chheda Nagar Police Station","category":"police","source":"osm","operator":"Mumbai Police","phone":"+912225259663"}},{"type":"Feature","geometry":{"type":"Point","coordinates":[72.865094,19.257384]},"properties":{"id":"osm:node/4621598794","name":"Police Station","category":"police","source":"osm"}},{"type":"Feature","geometry":{"type":"Point","coordinates":[72.959176,19.16955]},"properties":{"id":"osm:node/4658680890","name":null,"category":"police","source":"osm"}},{"type":"Feature","geometry":{"type":"Point","coordinates":[72.956655,19.171584]},"properties":{"id":"osm:node/4791178925","name":null,"category":"police","source":"osm"}},{"type":"Feature","geometry":{"type":"Point","coordinates":[72.857588,19.031323]},"properties":{"id":"osm:node/4848773734","name":"Sion (E) Police Station","category":"police","source":"osm"}},{"type":"Feature","geometry":{"type":"Point","coordinates":[72.857879,19.031116]},"properties":{"id":"osm:node/5057817507","name":"Matunga Police Station","category":"police","source":"osm"}},{"type":"Feature","geometry":{"type":"Point","coordinates":[73.000928,19.146302]},"properties":{"id":"osm:node/5077468323","name":"Rabale Police Station","category":"police","source":"osm"}},{"type":"Feature","geometry":{"type":"Point","coordinates":[72.85014,19.209583]},"properties":{"id":"osm:node/5116459526","name":"Kandivali Police Station","category":"police","source":"osm"}},{"type":"Feature","geometry":{"type":"Point","coordinates":[72.823281,19.051928]},"properties":{"id":"osm:node/5258276335","name":"Mount Mary Police Chouki","category":"police","source":"osm"}},{"type":"Feature","geometry":{"type":"Point","coordinates":[72.837489,18.997883]},"properties":{"id":"osm:node/5448387024","name":null,"category":"police","source":"osm"}},{"type":"Feature","geometry":{"type":"Point","coordinates":[72.860341,19.064515]},"properties":{"id":"osm:node/5506320530","name":"BKC Police Station","category":"police","source":"osm"}},{"type":"Feature","geometry":{"type":"Point","coordinates":[72.804488,19.142974]},"properties":{"id":"osm:node/5614984680","name":"Versova Police Station","category":"police","source":"osm"}},{"type":"Feature","geometry":{"type":"Point","coordinates":[72.861415,19.199839]},"properties":{"id":"osm:node/5667043327","name":"Samatanagar Police Station","category":"police","source":"osm"}},{"type":"Feature","geometry":{"type":"Point","coordinates":[72.830977,18.991413]},"properties":{"id":"osm:node/5668284373","name":"NM Joshi Marg Police Station","category":"police","source":"osm"}},{"type":"Feature","geometry":{"type":"Point","coordinates":[72.937481,19.163976]},"properties":{"id":"osm:node/6052581621","name":"Traffic Police Chowky","category":"police","source":"osm"}},{"type":"Feature","geometry":{"type":"Point","coordinates":[72.830142,18.961878]},"properties":{"id":"osm:node/7499053623","name":"Chowki Mohalla Police Chowki","category":"police","source":"osm","operator":"Mumbai Police"}},{"type":"Feature","geometry":{"type":"Point","coordinates":[72.82867,18.961606]},"properties":{"id":"osm:node/7506854141","name":"Do Taki Police Chowki","category":"police","source":"osm","operator":"Mumbai Police"}},{"type":"Feature","geometry":{"type":"Point","coordinates":[72.844506,19.183497]},"properties":{"id":"osm:node/8170852418","name":"Malad Police Station","category":"police","source":"osm"}},{"type":"Feature","geometry":{"type":"Point","coordinates":[72.832559,19.008542]},"properties":{"id":"osm:node/9081860659","name":"Elphinstone Road Traffic Police Chowki","category":"police","source":"osm"}},{"type":"Feature","geometry":{"type":"Point","coordinates":[72.826643,19.098188]},"properties":{"id":"osm:node/9139914820","name":null,"category":"police","source":"osm"}},{"type":"Feature","geometry":{"type":"Point","coordinates":[72.976279,19.231394]},"properties":{"id":"osm:node/9215039104","name":"Chitalsar Police Station","category":"police","source":"osm"}},{"type":"Feature","geometry":{"type":"Point","coordinates":[72.837653,19.072887]},"properties":{"id":"osm:node/9730701801","name":"Khar Police Station","category":"police","source":"osm"}},{"type":"Feature","geometry":{"type":"Point","coordinates":[72.966995,19.259059]},"properties":{"id":"osm:node/10196823118","name":"Kasarvadavali Police Station","category":"police","source":"osm"}},{"type":"Feature","geometry":{"type":"Point","coordinates":[72.832712,19.103166]},"properties":{"id":"osm:node/10296626442","name":"Juhu Police Station","category":"police","source":"osm"}},{"type":"Feature","geometry":{"type":"Point","coordinates":[72.975904,19.187185]},"properties":{"id":"osm:node/10705115166","name":null,"category":"police","source":"osm"}},{"type":"Feature","geometry":{"type":"Point","coordinates":[72.834522,19.026024]},"properties":{"id":"osm:node/11452014435","name":"Chaitya Bhumi Police Chowk","category":"police","source":"osm"}},{"type":"Feature","geometry":{"type":"Point","coordinates":[72.982633,19.205964]},"properties":{"id":"osm:node/11615592630","name":"Anti Corruption Bureau Thane","category":"police","source":"osm"}},{"type":"Feature","geometry":{"type":"Point","coordinates":[72.843369,19.061098]},"properties":{"id":"osm:node/12026381269","name":"Shivaji Nagar Police Station","category":"police","source":"osm"}},{"type":"Feature","geometry":{"type":"Point","coordinates":[72.957515,19.17216]},"properties":{"id":"osm:node/12878867195","name":"Office Of The Inspector Incharge, Mulund East","category":"police","source":"osm","operator":"Indian Railways"}},{"type":"Feature","geometry":{"type":"Point","coordinates":[72.83185,18.932531]},"properties":{"id":"osm:node/13514237453","name":"Mata Ramabai Ambedkar Marg Police Thaane","category":"police","source":"osm","wheelchair":"limited"}},{"type":"Feature","geometry":{"type":"Point","coordinates":[72.812359,18.960523]},"properties":{"id":"osm:way/39834520","name":"Gamdevi Police Station","category":"police","source":"osm"}},{"type":"Feature","geometry":{"type":"Point","coordinates":[72.812837,18.961555]},"properties":{"id":"osm:way/39839519","name":"Traffic Police","category":"police","source":"osm"}},{"type":"Feature","geometry":{"type":"Point","coordinates":[72.814185,18.969526]},"properties":{"id":"osm:way/48754898","name":"Tardeo Police Station","category":"police","source":"osm"}},{"type":"Feature","geometry":{"type":"Point","coordinates":[72.830251,19.124572]},"properties":{"id":"osm:way/118898002","name":"Versova Police station (D.N.Nagar)","category":"police","source":"osm"}},{"type":"Feature","geometry":{"type":"Point","coordinates":[72.840918,19.023262]},"properties":{"id":"osm:way/135732933","name":"Shivaji Park Police Station","category":"police","source":"osm"}},{"type":"Feature","geometry":{"type":"Point","coordinates":[72.917545,19.048682]},"properties":{"id":"osm:way/179915833","name":"Govandi Police station","category":"police","source":"osm"}},{"type":"Feature","geometry":{"type":"Point","coordinates":[72.835066,19.084142]},"properties":{"id":"osm:way/196092411","name":"Santacruz Police Station","category":"police","source":"osm"}},{"type":"Feature","geometry":{"type":"Point","coordinates":[72.810635,19.136757]},"properties":{"id":"osm:way/196620996","name":"Versova Police Chowki","category":"police","source":"osm"}},{"type":"Feature","geometry":{"type":"Point","coordinates":[72.832942,18.941556]},"properties":{"id":"osm:way/207376649","name":"Azad Maidan Police Station","category":"police","source":"osm"}},{"type":"Feature","geometry":{"type":"Point","coordinates":[72.833265,18.942019]},"properties":{"id":"osm:way/207376650","name":null,"category":"police","source":"osm"}},{"type":"Feature","geometry":{"type":"Point","coordinates":[72.832947,18.944789]},"properties":{"id":"osm:way/207380908","name":null,"category":"police","source":"osm"}},{"type":"Feature","geometry":{"type":"Point","coordinates":[72.830983,18.922437]},"properties":{"id":"osm:way/207417322","name":"Colaba Police Station","category":"police","source":"osm"}},{"type":"Feature","geometry":{"type":"Point","coordinates":[72.831977,18.954154]},"properties":{"id":"osm:way/207538317","name":null,"category":"police","source":"osm"}},{"type":"Feature","geometry":{"type":"Point","coordinates":[72.959546,19.174276]},"properties":{"id":"osm:way/235939616","name":"RPF Reserve Line - Mulund","category":"police","source":"osm","operator":"Indian Railways"}},{"type":"Feature","geometry":{"type":"Point","coordinates":[72.816779,18.96096]},"properties":{"id":"osm:way/237025775","name":null,"category":"police","source":"osm"}},{"type":"Feature","geometry":{"type":"Point","coordinates":[72.8575,19.043266]},"properties":{"id":"osm:way/308016832","name":"Dharavi Police Station","category":"police","source":"osm"}},{"type":"Feature","geometry":{"type":"Point","coordinates":[72.855933,19.229555]},"properties":{"id":"osm:way/312763210","name":"Borivali Police Station","category":"police","source":"osm"}},{"type":"Feature","geometry":{"type":"Point","coordinates":[72.951694,19.177298]},"properties":{"id":"osm:way/317222141","name":"Mulund Police Station","category":"police","source":"osm"}},{"type":"Feature","geometry":{"type":"Point","coordinates":[72.890867,19.06181]},"properties":{"id":"osm:way/347008831","name":"beat no 2","category":"police","source":"osm"}},{"type":"Feature","geometry":{"type":"Point","coordinates":[72.881064,19.085294]},"properties":{"id":"osm:way/353192704","name":"Bail Bazar Police Station","category":"police","source":"osm"}},{"type":"Feature","geometry":{"type":"Point","coordinates":[72.818746,18.911915]},"properties":{"id":"osm:way/353758584","name":"Cuffe Parade Police Station","category":"police","source":"osm"}},{"type":"Feature","geometry":{"type":"Point","coordinates":[72.817387,19.005162]},"properties":{"id":"osm:way/353810415","name":"Worli Police Station","category":"police","source":"osm"}},{"type":"Feature","geometry":{"type":"Point","coordinates":[73.019385,19.028902]},"properties":{"id":"osm:way/354016607","name":"Nerul Police Station","category":"police","source":"osm"}},{"type":"Feature","geometry":{"type":"Point","coordinates":[72.969258,19.178283]},"properties":{"id":"osm:way/354063829","name":"Kopri Police Station","category":"police","source":"osm"}},{"type":"Feature","geometry":{"type":"Point","coordinates":[72.835454,19.015022]},"properties":{"id":"osm:way/354066127","name":"Dadar Police Station","category":"police","source":"osm"}},{"type":"Feature","geometry":{"type":"Point","coordinates":[72.839818,19.055634]},"properties":{"id":"osm:way/356258967","name":"Bandra Railway Police Station","category":"police","source":"osm"}},{"type":"Feature","geometry":{"type":"Point","coordinates":[72.822687,19.062812]},"properties":{"id":"osm:way/357472397","name":"Additional Commisioner of Police, Mumbai, West Region","category":"police","source":"osm","operator":"Mumbai Police","description":"Dr. Chhering Dorje, Addl. C.P. ( W.R. ) \nBandra West","phone":"+91 22 26402122"}},{"type":"Feature","geometry":{"type":"Point","coordinates":[72.831663,19.147603]},"properties":{"id":"osm:way/417320262","name":"Oshiwara Police Station","category":"police","source":"osm"}},{"type":"Feature","geometry":{"type":"Point","coordinates":[72.804716,19.228697]},"properties":{"id":"osm:way/427979103","name":null,"category":"police","source":"osm"}},{"type":"Feature","geometry":{"type":"Point","coordinates":[73.015944,19.015069]},"properties":{"id":"osm:way/558708648","name":"Gaimukh Chowk Police Station","category":"police","source":"osm","operator":"Navi Mumbai Police","level":"1"}},{"type":"Feature","geometry":{"type":"Point","coordinates":[72.84547,19.157315]},"properties":{"id":"osm:way/621696888","name":"Goregaon Police Station","category":"police","source":"osm"}},{"type":"Feature","geometry":{"type":"Point","coordinates":[72.880543,19.058796]},"properties":{"id":"osm:way/627802514","name":"Nehru Nagar Kurla Police Station","category":"police","source":"osm","opening_hours":"24/7"}},{"type":"Feature","geometry":{"type":"Point","coordinates":[72.883354,19.124911]},"properties":{"id":"osm:way/628861218","name":"Marol Police Camp","category":"police","source":"osm"}},{"type":"Feature","geometry":{"type":"Point","coordinates":[72.945256,19.038016]},"properties":{"id":"osm:way/816431603","name":"Trombay Police Station","category":"police","source":"osm","operator":"Maharashtra Police"}},{"type":"Feature","geometry":{"type":"Point","coordinates":[73.019655,19.066616]},"properties":{"id":"osm:way/825118101","name":"Turbhe Police Station","category":"police","source":"osm"}},{"type":"Feature","geometry":{"type":"Point","coordinates":[72.833994,18.973278]},"properties":{"id":"osm:way/829610657","name":"Byculla Police Station","category":"police","source":"osm","operator":"Mumbai Police"}},{"type":"Feature","geometry":{"type":"Point","coordinates":[72.818766,18.911918]},"properties":{"id":"osm:way/1009581717","name":"Cuffe Parade Police Station","category":"police","source":"osm"}},{"type":"Feature","geometry":{"type":"Point","coordinates":[72.993127,19.148486]},"properties":{"id":"osm:way/1068842996","name":"Rabale Traffic Police Station","category":"police","source":"osm"}},{"type":"Feature","geometry":{"type":"Point","coordinates":[73.001112,19.146278]},"properties":{"id":"osm:way/1071173544","name":"Rabale Police Station","category":"police","source":"osm"}},{"type":"Feature","geometry":{"type":"Point","coordinates":[72.968465,19.169086]},"properties":{"id":"osm:way/1120071108","name":null,"category":"police","source":"osm"}},{"type":"Feature","geometry":{"type":"Point","coordinates":[72.956276,19.172369]},"properties":{"id":"osm:way/1122104211","name":"Mulund Police Chowky","category":"police","source":"osm","phone":"+91 22 25684535"}},{"type":"Feature","geometry":{"type":"Point","coordinates":[72.850183,19.065945]},"properties":{"id":"osm:way/1149824750","name":"Kherwadi Police Station","category":"police","source":"osm"}},{"type":"Feature","geometry":{"type":"Point","coordinates":[72.96722,19.188715]},"properties":{"id":"osm:way/1150984455","name":"Naupada Police Station","category":"police","source":"osm","opening_hours":"24/7","operator":"Thane Police"}},{"type":"Feature","geometry":{"type":"Point","coordinates":[72.826915,19.09648]},"properties":{"id":"osm:way/1226336527","name":"Juhu Tara Road Police Station","category":"police","source":"osm"}},{"type":"Feature","geometry":{"type":"Point","coordinates":[72.982276,19.210246]},"properties":{"id":"osm:way/1249585544","name":"Rabodi Police Station","category":"police","source":"osm"}},{"type":"Feature","geometry":{"type":"Point","coordinates":[73.019855,19.019432]},"properties":{"id":"osm:way/1311209831","name":"Seawoods Traffic Police Station","category":"police","source":"osm","operator":"Maharashtra Police","level":"0"}},{"type":"Feature","geometry":{"type":"Point","coordinates":[72.83574,19.05591]},"properties":{"id":"osm:way/1334676842","name":"Bandra Police Station","category":"police","source":"osm","operator":"Mumbai Police"}},{"type":"Feature","geometry":{"type":"Point","coordinates":[72.840173,19.04215]},"properties":{"id":"osm:way/1381366790","name":"Mahim Traffic Division","category":"police","source":"osm"}},{"type":"Feature","geometry":{"type":"Point","coordinates":[72.858702,19.295575]},"properties":{"id":"osm:way/1385281128","name":"Golden Nest Police Chowki","category":"police","source":"osm"}},{"type":"Feature","geometry":{"type":"Point","coordinates":[72.891905,19.09041]},"properties":{"id":"osm:way/1411467112","name":"Homeguard Central Training Institute","category":"police","source":"osm"}},{"type":"Feature","geometry":{"type":"Point","coordinates":[72.835323,19.084136]},"properties":{"id":"osm:way/1424156817","name":null,"category":"police","source":"osm"}},{"type":"Feature","geometry":{"type":"Point","coordinates":[72.829924,19.050769]},"properties":{"id":"osm:way/1428230096","name":"Bandra Reclamation Police Station","category":"police","source":"osm"}},{"type":"Feature","geometry":{"type":"Point","coordinates":[72.829239,18.96703]},"properties":{"id":"osm:way/1442619090","name":"Nagpada Police Station","category":"police","source":"osm"}},{"type":"Feature","geometry":{"type":"Point","coordinates":[72.824592,18.961992]},"properties":{"id":"osm:way/1457063703","name":"Chhota Sonapur Police Chowki","category":"police","source":"osm"}},{"type":"Feature","geometry":{"type":"Point","coordinates":[72.916808,19.063471]},"properties":{"id":"osm:way/1457969605","name":"Shivajinagar Police Station","category":"police","source":"osm"}},{"type":"Feature","geometry":{"type":"Point","coordinates":[72.830347,18.935084]},"properties":{"id":"osm:way/1468852699","name":"Colaba Traffic Police Division","category":"police","source":"osm"}},{"type":"Feature","geometry":{"type":"Point","coordinates":[72.831932,19.175242]},"properties":{"id":"osm:way/1523903435","name":"Bangur Nagar Link Road Police Station","category":"police","source":"osm","operator":"Maharashtra Police"}},{"type":"Feature","geometry":{"type":"Point","coordinates":[72.833526,18.92511]},"properties":{"id":"osm:relation/19278855","name":"Maharashtra Police Headquarters","category":"police","source":"osm"}}]}