{"type":"FeatureCollection","attribution":"© OpenStreetMap contributors (ODbL) · MCGM public toilet data via data.opencity.in (public domain)","generated":"2026-08-13T12:42:04.910Z","bbox":"18.87,72.77,19.32,73.02","features":[{"type":"Feature","geometry":{"type":"Point","coordinates":[72.928773,19.159574]},"properties":{"id":"osm:node/5839259786","name":null,"category":"shelter","source":"osm"}},{"type":"Feature","geometry":{"type":"Point","coordinates":[72.938443,19.180508]},"properties":{"id":"osm:node/6786447383","name":null,"category":"shelter","source":"osm"}},{"type":"Feature","geometry":{"type":"Point","coordinates":[72.938511,19.18035]},"properties":{"id":"osm:node/6786447384","name":null,"category":"shelter","source":"osm"}},{"type":"Feature","geometry":{"type":"Point","coordinates":[72.939189,19.180091]},"properties":{"id":"osm:node/6786448085","name":null,"category":"shelter","source":"osm"}},{"type":"Feature","geometry":{"type":"Point","coordinates":[72.939083,19.180062]},"properties":{"id":"osm:node/6786448086","name":null,"category":"shelter","source":"osm"}},{"type":"Feature","geometry":{"type":"Point","coordinates":[72.938983,19.180052]},"properties":{"id":"osm:node/6786448087","name":null,"category":"shelter","source":"osm"}},{"type":"Feature","geometry":{"type":"Point","coordinates":[72.938621,19.180191]},"properties":{"id":"osm:node/6786448088","name":null,"category":"shelter","source":"osm"}},{"type":"Feature","geometry":{"type":"Point","coordinates":[72.938572,19.180255]},"properties":{"id":"osm:node/6786448089","name":null,"category":"shelter","source":"osm"}},{"type":"Feature","geometry":{"type":"Point","coordinates":[72.866308,19.22437]},"properties":{"id":"osm:node/6824541043","name":"Ariana Gazebo","category":"shelter","source":"osm"}},{"type":"Feature","geometry":{"type":"Point","coordinates":[72.858043,19.037758]},"properties":{"id":"osm:node/6869956036","name":null,"category":"shelter","source":"osm"}},{"type":"Feature","geometry":{"type":"Point","coordinates":[72.83949,19.221773]},"properties":{"id":"osm:node/7550795850","name":"Chikoowadi Park Gazebo","category":"shelter","source":"osm"}},{"type":"Feature","geometry":{"type":"Point","coordinates":[72.970733,19.17392]},"properties":{"id":"osm:node/7816771378","name":null,"category":"shelter","source":"osm"}},{"type":"Feature","geometry":{"type":"Point","coordinates":[72.982234,19.182555]},"properties":{"id":"osm:node/8957102091","name":null,"category":"shelter","source":"osm"}},{"type":"Feature","geometry":{"type":"Point","coordinates":[72.815694,19.141074]},"properties":{"id":"osm:node/9506956959","name":"ANIMAL SHELTER","category":"shelter","source":"osm","operator":"BMC"}},{"type":"Feature","geometry":{"type":"Point","coordinates":[72.934492,19.167281]},"properties":{"id":"osm:node/10245359679","name":null,"category":"shelter","source":"osm"}},{"type":"Feature","geometry":{"type":"Point","coordinates":[72.928642,19.166227]},"properties":{"id":"osm:node/10257627259","name":null,"category":"shelter","source":"osm"}},{"type":"Feature","geometry":{"type":"Point","coordinates":[72.937985,19.164033]},"properties":{"id":"osm:node/10259321592","name":null,"category":"shelter","source":"osm"}},{"type":"Feature","geometry":{"type":"Point","coordinates":[72.937866,19.164597]},"properties":{"id":"osm:node/10259321597","name":null,"category":"shelter","source":"osm"}},{"type":"Feature","geometry":{"type":"Point","coordinates":[72.946592,19.179764]},"properties":{"id":"osm:node/10275731788","name":null,"category":"shelter","source":"osm"}},{"type":"Feature","geometry":{"type":"Point","coordinates":[72.937521,19.150875]},"properties":{"id":"osm:node/10308317054","name":null,"category":"shelter","source":"osm"}},{"type":"Feature","geometry":{"type":"Point","coordinates":[72.938209,19.181083]},"properties":{"id":"osm:node/10792797763","name":null,"category":"shelter","source":"osm"}},{"type":"Feature","geometry":{"type":"Point","coordinates":[72.937439,19.178813]},"properties":{"id":"osm:node/10810264020","name":null,"category":"shelter","source":"osm"}},{"type":"Feature","geometry":{"type":"Point","coordinates":[72.935457,19.176265]},"properties":{"id":"osm:node/10848157737","name":null,"category":"shelter","source":"osm"}},{"type":"Feature","geometry":{"type":"Point","coordinates":[72.900362,19.102088]},"properties":{"id":"osm:node/11071531747","name":null,"category":"shelter","source":"osm"}},{"type":"Feature","geometry":{"type":"Point","coordinates":[72.900479,19.101897]},"properties":{"id":"osm:node/11071531748","name":null,"category":"shelter","source":"osm"}},{"type":"Feature","geometry":{"type":"Point","coordinates":[72.90058,19.10209]},"properties":{"id":"osm:node/11071531749","name":null,"category":"shelter","source":"osm"}},{"type":"Feature","geometry":{"type":"Point","coordinates":[72.928836,19.165761]},"properties":{"id":"osm:node/11109855445","name":null,"category":"shelter","source":"osm"}},{"type":"Feature","geometry":{"type":"Point","coordinates":[72.929548,19.166451]},"properties":{"id":"osm:node/11109855457","name":"School Bus Stop","category":"shelter","source":"osm"}},{"type":"Feature","geometry":{"type":"Point","coordinates":[72.937248,19.185596]},"properties":{"id":"osm:node/11124763253","name":null,"category":"shelter","source":"osm"}},{"type":"Feature","geometry":{"type":"Point","coordinates":[72.948161,19.162414]},"properties":{"id":"osm:node/11271667368","name":null,"category":"shelter","source":"osm"}},{"type":"Feature","geometry":{"type":"Point","coordinates":[72.943749,19.163136]},"properties":{"id":"osm:node/11271696643","name":null,"category":"shelter","source":"osm"}},{"type":"Feature","geometry":{"type":"Point","coordinates":[72.940597,19.177713]},"properties":{"id":"osm:node/11567692043","name":"Shivsahyadri Mitra Mandal","category":"shelter","source":"osm"}},{"type":"Feature","geometry":{"type":"Point","coordinates":[72.931506,19.172096]},"properties":{"id":"osm:node/11955773629","name":null,"category":"shelter","source":"osm"}},{"type":"Feature","geometry":{"type":"Point","coordinates":[72.939131,19.17583]},"properties":{"id":"osm:node/12389311415","name":null,"category":"shelter","source":"osm"}},{"type":"Feature","geometry":{"type":"Point","coordinates":[72.936756,19.1787]},"properties":{"id":"osm:node/12389418488","name":null,"category":"shelter","source":"osm"}},{"type":"Feature","geometry":{"type":"Point","coordinates":[72.941759,19.187719]},"properties":{"id":"osm:node/12769498045","name":null,"category":"shelter","source":"osm"}},{"type":"Feature","geometry":{"type":"Point","coordinates":[72.964328,19.175285]},"properties":{"id":"osm:node/12850860313","name":null,"category":"shelter","source":"osm"}},{"type":"Feature","geometry":{"type":"Point","coordinates":[72.966711,19.179513]},"properties":{"id":"osm:node/12855220560","name":null,"category":"shelter","source":"osm"}},{"type":"Feature","geometry":{"type":"Point","coordinates":[72.850033,19.228011]},"properties":{"id":"osm:node/12865221007","name":null,"category":"shelter","source":"osm"}},{"type":"Feature","geometry":{"type":"Point","coordinates":[72.841566,19.224401]},"properties":{"id":"osm:node/12865275680","name":null,"category":"shelter","source":"osm"}},{"type":"Feature","geometry":{"type":"Point","coordinates":[72.84148,19.224222]},"properties":{"id":"osm:node/12865275681","name":null,"category":"shelter","source":"osm"}},{"type":"Feature","geometry":{"type":"Point","coordinates":[72.822549,19.04973]},"properties":{"id":"osm:node/13009290132","name":null,"category":"shelter","source":"osm"}},{"type":"Feature","geometry":{"type":"Point","coordinates":[72.819096,19.045201]},"properties":{"id":"osm:node/13078614603","name":null,"category":"shelter","source":"osm"}},{"type":"Feature","geometry":{"type":"Point","coordinates":[72.86547,19.302315]},"properties":{"id":"osm:node/13272115346","name":null,"category":"shelter","source":"osm"}},{"type":"Feature","geometry":{"type":"Point","coordinates":[72.93429,19.171971]},"properties":{"id":"osm:node/13610946211","name":null,"category":"shelter","source":"osm"}},{"type":"Feature","geometry":{"type":"Point","coordinates":[72.837339,18.943451]},"properties":{"id":"osm:way/207358985","name":null,"category":"shelter","source":"osm"}},{"type":"Feature","geometry":{"type":"Point","coordinates":[72.990039,19.148917]},"properties":{"id":"osm:way/581403615","name":null,"category":"shelter","source":"osm"}},{"type":"Feature","geometry":{"type":"Point","coordinates":[72.990303,19.149207]},"properties":{"id":"osm:way/581403616","name":null,"category":"shelter","source":"osm"}},{"type":"Feature","geometry":{"type":"Point","coordinates":[72.938586,19.180587]},"properties":{"id":"osm:way/723561442","name":null,"category":"shelter","source":"osm"}},{"type":"Feature","geometry":{"type":"Point","coordinates":[72.832534,19.217935]},"properties":{"id":"osm:way/729355372","name":"Gazebo at Musical Garden","category":"shelter","source":"osm"}},{"type":"Feature","geometry":{"type":"Point","coordinates":[72.82946,19.200924]},"properties":{"id":"osm:way/763441710","name":null,"category":"shelter","source":"osm"}},{"type":"Feature","geometry":{"type":"Point","coordinates":[72.970028,19.181487]},"properties":{"id":"osm:way/840042054","name":null,"category":"shelter","source":"osm"}},{"type":"Feature","geometry":{"type":"Point","coordinates":[72.969722,19.179321]},"properties":{"id":"osm:way/840070617","name":null,"category":"shelter","source":"osm"}},{"type":"Feature","geometry":{"type":"Point","coordinates":[72.968656,19.180512]},"properties":{"id":"osm:way/840070618","name":null,"category":"shelter","source":"osm"}},{"type":"Feature","geometry":{"type":"Point","coordinates":[72.97032,19.180311]},"properties":{"id":"osm:way/840070619","name":null,"category":"shelter","source":"osm"}},{"type":"Feature","geometry":{"type":"Point","coordinates":[72.966982,19.180969]},"properties":{"id":"osm:way/844469866","name":null,"category":"shelter","source":"osm"}},{"type":"Feature","geometry":{"type":"Point","coordinates":[72.967394,19.180469]},"properties":{"id":"osm:way/844774346","name":null,"category":"shelter","source":"osm"}},{"type":"Feature","geometry":{"type":"Point","coordinates":[72.974086,19.174924]},"properties":{"id":"osm:way/846148730","name":null,"category":"shelter","source":"osm"}},{"type":"Feature","geometry":{"type":"Point","coordinates":[72.974474,19.175096]},"properties":{"id":"osm:way/846148731","name":null,"category":"shelter","source":"osm"}},{"type":"Feature","geometry":{"type":"Point","coordinates":[72.973723,19.174748]},"properties":{"id":"osm:way/891004183","name":null,"category":"shelter","source":"osm"}},{"type":"Feature","geometry":{"type":"Point","coordinates":[72.970137,19.232651]},"properties":{"id":"osm:way/894117835","name":null,"category":"shelter","source":"osm","operator":"Thane Muncipal Transport"}},{"type":"Feature","geometry":{"type":"Point","coordinates":[72.949799,19.223398]},"properties":{"id":"osm:way/909242573","name":null,"category":"shelter","source":"osm"}},{"type":"Feature","geometry":{"type":"Point","coordinates":[72.96414,19.266649]},"properties":{"id":"osm:way/911843322","name":null,"category":"shelter","source":"osm"}},{"type":"Feature","geometry":{"type":"Point","coordinates":[72.969982,19.17799]},"properties":{"id":"osm:way/971353449","name":"Yogeshwar Senior Citizen Katta","category":"shelter","source":"osm"}},{"type":"Feature","geometry":{"type":"Point","coordinates":[72.97229,19.179773]},"properties":{"id":"osm:way/980936416","name":null,"category":"shelter","source":"osm"}},{"type":"Feature","geometry":{"type":"Point","coordinates":[72.976977,19.18195]},"properties":{"id":"osm:way/980938662","name":null,"category":"shelter","source":"osm"}},{"type":"Feature","geometry":{"type":"Point","coordinates":[72.837281,18.978818]},"properties":{"id":"osm:way/1006878176","name":null,"category":"shelter","source":"osm"}},{"type":"Feature","geometry":{"type":"Point","coordinates":[72.982523,19.182261]},"properties":{"id":"osm:way/1081155797","name":null,"category":"shelter","source":"osm"}},{"type":"Feature","geometry":{"type":"Point","coordinates":[72.982414,19.182234]},"properties":{"id":"osm:way/1081162236","name":null,"category":"shelter","source":"osm"}},{"type":"Feature","geometry":{"type":"Point","coordinates":[72.835496,18.979414]},"properties":{"id":"osm:way/1104696787","name":null,"category":"shelter","source":"osm"}},{"type":"Feature","geometry":{"type":"Point","coordinates":[72.974581,19.202609]},"properties":{"id":"osm:way/1112634482","name":null,"category":"shelter","source":"osm"}},{"type":"Feature","geometry":{"type":"Point","coordinates":[72.946886,19.179885]},"properties":{"id":"osm:way/1123644878","name":null,"category":"shelter","source":"osm"}},{"type":"Feature","geometry":{"type":"Point","coordinates":[72.93738,19.178202]},"properties":{"id":"osm:way/1164331249","name":null,"category":"shelter","source":"osm"}},{"type":"Feature","geometry":{"type":"Point","coordinates":[72.926874,19.154057]},"properties":{"id":"osm:way/1287697988","name":null,"category":"shelter","source":"osm"}},{"type":"Feature","geometry":{"type":"Point","coordinates":[72.829139,19.152427]},"properties":{"id":"osm:way/1320469553","name":null,"category":"shelter","source":"osm"}},{"type":"Feature","geometry":{"type":"Point","coordinates":[72.842948,19.133097]},"properties":{"id":"osm:way/1326198309","name":null,"category":"shelter","source":"osm"}},{"type":"Feature","geometry":{"type":"Point","coordinates":[72.845429,19.146806]},"properties":{"id":"osm:way/1328347051","name":null,"category":"shelter","source":"osm"}},{"type":"Feature","geometry":{"type":"Point","coordinates":[72.864659,19.093983]},"properties":{"id":"osm:way/1376379688","name":null,"category":"shelter","source":"osm"}},{"type":"Feature","geometry":{"type":"Point","coordinates":[72.863972,19.094714]},"properties":{"id":"osm:way/1376379689","name":null,"category":"shelter","source":"osm"}},{"type":"Feature","geometry":{"type":"Point","coordinates":[72.855135,19.027075]},"properties":{"id":"osm:way/1378123599","name":null,"category":"shelter","source":"osm"}},{"type":"Feature","geometry":{"type":"Point","coordinates":[72.84709,19.02172]},"properties":{"id":"osm:way/1378123602","name":null,"category":"shelter","source":"osm"}},{"type":"Feature","geometry":{"type":"Point","coordinates":[72.967301,19.177393]},"properties":{"id":"osm:way/1387767538","name":null,"category":"shelter","source":"osm"}},{"type":"Feature","geometry":{"type":"Point","coordinates":[72.931193,19.171365]},"properties":{"id":"osm:way/1388424834","name":null,"category":"shelter","source":"osm"}},{"type":"Feature","geometry":{"type":"Point","coordinates":[72.966989,19.178723]},"properties":{"id":"osm:way/1388747710","name":null,"category":"shelter","source":"osm"}},{"type":"Feature","geometry":{"type":"Point","coordinates":[72.967606,19.181151]},"properties":{"id":"osm:way/1388748641","name":null,"category":"shelter","source":"osm"}},{"type":"Feature","geometry":{"type":"Point","coordinates":[72.930436,19.167272]},"properties":{"id":"osm:way/1389698990","name":null,"category":"shelter","source":"osm"}},{"type":"Feature","geometry":{"type":"Point","coordinates":[72.899559,19.073815]},"properties":{"id":"osm:way/1390028818","name":"Kacchi Haveli","category":"shelter","source":"osm"}},{"type":"Feature","geometry":{"type":"Point","coordinates":[72.864436,19.297754]},"properties":{"id":"osm:way/1419367869","name":null,"category":"shelter","source":"osm"}},{"type":"Feature","geometry":{"type":"Point","coordinates":[72.819857,19.042477]},"properties":{"id":"osm:way/1423267461","name":null,"category":"shelter","source":"osm"}},{"type":"Feature","geometry":{"type":"Point","coordinates":[72.82167,19.059437]},"properties":{"id":"osm:way/1455096284","name":null,"category":"shelter","source":"osm"}},{"type":"Feature","geometry":{"type":"Point","coordinates":[72.821557,19.059658]},"properties":{"id":"osm:way/1455096285","name":null,"category":"shelter","source":"osm"}},{"type":"Feature","geometry":{"type":"Point","coordinates":[72.821421,19.05937]},"properties":{"id":"osm:way/1455096286","name":null,"category":"shelter","source":"osm"}},{"type":"Feature","geometry":{"type":"Point","coordinates":[72.84935,19.140677]},"properties":{"id":"osm:way/1466779992","name":null,"category":"shelter","source":"osm"}},{"type":"Feature","geometry":{"type":"Point","coordinates":[72.845945,19.024949]},"properties":{"id":"osm:way/1473196643","name":null,"category":"shelter","source":"osm"}},{"type":"Feature","geometry":{"type":"Point","coordinates":[72.84548,19.023785]},"properties":{"id":"osm:way/1473196644","name":null,"category":"shelter","source":"osm"}},{"type":"Feature","geometry":{"type":"Point","coordinates":[72.932237,18.963339]},"properties":{"id":"osm:way/1478056959","name":null,"category":"shelter","source":"osm"}},{"type":"Feature","geometry":{"type":"Point","coordinates":[72.860403,19.280425]},"properties":{"id":"osm:way/1482431559","name":null,"category":"shelter","source":"osm"}},{"type":"Feature","geometry":{"type":"Point","coordinates":[72.975664,19.186765]},"properties":{"id":"osm:way/1500172078","name":null,"category":"shelter","source":"osm"}},{"type":"Feature","geometry":{"type":"Point","coordinates":[72.928803,19.067386]},"properties":{"id":"osm:way/1510203334","name":null,"category":"shelter","source":"osm"}},{"type":"Feature","geometry":{"type":"Point","coordinates":[72.928571,19.066946]},"properties":{"id":"osm:way/1510203335","name":null,"category":"shelter","source":"osm"}}]}