{"type":"FeatureCollection","attribution":"© OpenStreetMap contributors (ODbL) · MCGM public toilet data via data.opencity.in (public domain)","generated":"2026-08-13T12:51:20.774Z","bbox":"18.87,72.77,19.32,73.02","features":[{"type":"Feature","geometry":{"type":"Point","coordinates":[72.852699,19.310185]},"properties":{"id":"osm:node/30518297","name":"Bhayandar","category":"transit","source":"osm","operator":"WR"}},{"type":"Feature","geometry":{"type":"Point","coordinates":[72.984468,19.298321]},"properties":{"id":"osm:node/30518361","name":"Kharbhav","category":"transit","source":"osm","operator":"CR"}},{"type":"Feature","geometry":{"type":"Point","coordinates":[72.85963,19.249357]},"properties":{"id":"osm:node/213030669","name":"Dahisar","category":"transit","source":"osm","operator":"WR"}},{"type":"Feature","geometry":{"type":"Point","coordinates":[72.841757,19.081522]},"properties":{"id":"osm:node/213030714","name":"Santa Cruz","category":"transit","source":"osm","operator":"WR"}},{"type":"Feature","geometry":{"type":"Point","coordinates":[72.975766,19.186483]},"properties":{"id":"osm:node/246582717","name":"Thane","category":"transit","source":"osm","operator":"CR"}},{"type":"Feature","geometry":{"type":"Point","coordinates":[72.840041,19.068241]},"properties":{"id":"osm:node/347138797","name":"Khar Road","category":"transit","source":"osm","operator":"WR"}},{"type":"Feature","geometry":{"type":"Point","coordinates":[72.996333,19.195224]},"properties":{"id":"osm:node/619119023","name":"Kalva","category":"transit","source":"osm","operator":"CR"}},{"type":"Feature","geometry":{"type":"Point","coordinates":[72.928039,19.128653]},"properties":{"id":"osm:node/619992025","name":"Kanjur Marg","category":"transit","source":"osm","wheelchair":"limited","operator":"CR"}},{"type":"Feature","geometry":{"type":"Point","coordinates":[72.897117,19.079542]},"properties":{"id":"osm:node/620013256","name":"Vidyavihar","category":"transit","source":"osm","operator":"CR"}},{"type":"Feature","geometry":{"type":"Point","coordinates":[72.830276,18.99568]},"properties":{"id":"osm:node/621911847","name":"Lower Parel","category":"transit","source":"osm","operator":"WR"}},{"type":"Feature","geometry":{"type":"Point","coordinates":[72.815826,18.963355]},"properties":{"id":"osm:node/631579580","name":"Grant Road","category":"transit","source":"osm","operator":"WR"}},{"type":"Feature","geometry":{"type":"Point","coordinates":[72.897591,19.061213]},"properties":{"id":"osm:node/632337506","name":"Chembur","category":"transit","source":"osm","wheelchair":"limited"}},{"type":"Feature","geometry":{"type":"Point","coordinates":[72.877572,19.028972]},"properties":{"id":"osm:node/632340589","name":"Bhakti Park","category":"transit","source":"osm"}},{"type":"Feature","geometry":{"type":"Point","coordinates":[72.874025,19.038824]},"properties":{"id":"osm:node/632342238","name":"Wadala Depot","category":"transit","source":"osm"}},{"type":"Feature","geometry":{"type":"Point","coordinates":[72.849529,18.95694]},"properties":{"id":"osm:node/700736540","name":"Bhaucha Dhakka / Ferry Wharf","category":"transit","source":"osm"}},{"type":"Feature","geometry":{"type":"Point","coordinates":[72.854422,18.99878]},"properties":{"id":"osm:node/700886180","name":"Sewri","category":"transit","source":"osm","operator":"CR"}},{"type":"Feature","geometry":{"type":"Point","coordinates":[72.843896,18.987187]},"properties":{"id":"osm:node/700886403","name":"Cotton Green","category":"transit","source":"osm","operator":"CR"}},{"type":"Feature","geometry":{"type":"Point","coordinates":[72.829636,19.232396]},"properties":{"id":"osm:node/814440777","name":"Gorai Bus Depot","category":"transit","source":"osm"}},{"type":"Feature","geometry":{"type":"Point","coordinates":[72.857632,19.229955]},"properties":{"id":"osm:node/969935158","name":"Borivali  RS (East)","category":"transit","source":"osm"}},{"type":"Feature","geometry":{"type":"Point","coordinates":[72.865721,19.117908]},"properties":{"id":"osm:node/1348867392","name":"Marol Depot","category":"transit","source":"osm"}},{"type":"Feature","geometry":{"type":"Point","coordinates":[72.880323,19.064502]},"properties":{"id":"osm:node/1366008911","name":"Kurla East","category":"transit","source":"osm","operator":"BEST"}},{"type":"Feature","geometry":{"type":"Point","coordinates":[72.950364,19.033651]},"properties":{"id":"osm:node/1366794662","name":"Trombay","category":"transit","source":"osm"}},{"type":"Feature","geometry":{"type":"Point","coordinates":[72.841537,19.062949]},"properties":{"id":"osm:node/1392005679","name":"Bandra Terminus","category":"transit","source":"osm","wheelchair":"yes"}},{"type":"Feature","geometry":{"type":"Point","coordinates":[72.852397,19.014778]},"properties":{"id":"osm:node/1640942358","name":"Wadala Depot","category":"transit","source":"osm"}},{"type":"Feature","geometry":{"type":"Point","coordinates":[72.89144,19.027717]},"properties":{"id":"osm:node/1643263977","name":"Mysore Colony","category":"transit","source":"osm"}},{"type":"Feature","geometry":{"type":"Point","coordinates":[72.946488,19.175698]},"properties":{"id":"osm:node/1643351700","name":"Mulund Depot","category":"transit","source":"osm"}},{"type":"Feature","geometry":{"type":"Point","coordinates":[72.956697,19.172137]},"properties":{"id":"osm:node/1643351703","name":"Mulund","category":"transit","source":"osm","operator":"CR"}},{"type":"Feature","geometry":{"type":"Point","coordinates":[72.908163,19.08754]},"properties":{"id":"osm:node/1644086506","name":"Ghatkopar Station (W)","category":"transit","source":"osm"}},{"type":"Feature","geometry":{"type":"Point","coordinates":[72.869745,19.206861]},"properties":{"id":"osm:node/1648175825","name":"Samata Nagar","category":"transit","source":"osm"}},{"type":"Feature","geometry":{"type":"Point","coordinates":[72.865288,19.097537]},"properties":{"id":"osm:node/1648195662","name":"Sahar Cargo Complex","category":"transit","source":"osm"}},{"type":"Feature","geometry":{"type":"Point","coordinates":[72.85373,19.201696]},"properties":{"id":"osm:node/1650186261","name":"Kandivali (E)","category":"transit","source":"osm"}},{"type":"Feature","geometry":{"type":"Point","coordinates":[72.857737,19.031682]},"properties":{"id":"osm:node/1650694464","name":"King's Circle","category":"transit","source":"osm","operator":"CR"}},{"type":"Feature","geometry":{"type":"Point","coordinates":[72.858015,19.281672]},"properties":{"id":"osm:node/1651530905","name":"Mira Road Railway Station (E)","category":"transit","source":"osm","operator":"Mira-Bhayander Municipal Transport"}},{"type":"Feature","geometry":{"type":"Point","coordinates":[72.86476,19.138936]},"properties":{"id":"osm:node/1651801044","name":"Majas Depot","category":"transit","source":"osm"}},{"type":"Feature","geometry":{"type":"Point","coordinates":[72.839372,18.960924]},"properties":{"id":"osm:node/2178163576","name":"Sandhurst Road","category":"transit","source":"osm","operator":"CR"}},{"type":"Feature","geometry":{"type":"Point","coordinates":[72.905688,18.999406]},"properties":{"id":"osm:node/2294433428","name":null,"category":"transit","source":"osm"}},{"type":"Feature","geometry":{"type":"Point","coordinates":[72.893527,19.045259]},"properties":{"id":"osm:node/2319215780","name":"Chembur Colony Bus Depot","category":"transit","source":"osm","operator":"BEST"}},{"type":"Feature","geometry":{"type":"Point","coordinates":[72.820083,19.016916]},"properties":{"id":"osm:node/2439495324","name":"Worli Village","category":"transit","source":"osm"}},{"type":"Feature","geometry":{"type":"Point","coordinates":[72.979748,19.187929]},"properties":{"id":"osm:node/2440266920","name":"Chendani Koliwada (C.I.D.C.O)","category":"transit","source":"osm"}},{"type":"Feature","geometry":{"type":"Point","coordinates":[72.844548,18.967477]},"properties":{"id":"osm:node/2443092123","name":"Dockyard Road","category":"transit","source":"osm","operator":"CR"}},{"type":"Feature","geometry":{"type":"Point","coordinates":[72.844101,18.977551]},"properties":{"id":"osm:node/2443096202","name":"Reay Road","category":"transit","source":"osm","operator":"CR"}},{"type":"Feature","geometry":{"type":"Point","coordinates":[72.832856,18.993749]},"properties":{"id":"osm:node/2444001671","name":"Currey Road","category":"transit","source":"osm","operator":"WR"}},{"type":"Feature","geometry":{"type":"Point","coordinates":[72.90114,19.062632]},"properties":{"id":"osm:node/2454571178","name":"Chembur","category":"transit","source":"osm","wheelchair":"limited","operator":"CR"}},{"type":"Feature","geometry":{"type":"Point","coordinates":[72.828595,18.933108]},"properties":{"id":"osm:node/2629682524","name":"Churchgate","category":"transit","source":"osm"}},{"type":"Feature","geometry":{"type":"Point","coordinates":[72.931714,19.048209]},"properties":{"id":"osm:node/2629720841","name":"Mankhurd","category":"transit","source":"osm","wheelchair":"yes","operator":"CR"}},{"type":"Feature","geometry":{"type":"Point","coordinates":[72.946652,19.15464]},"properties":{"id":"osm:node/2629791007","name":"Nahur","category":"transit","source":"osm","operator":"CR"}},{"type":"Feature","geometry":{"type":"Point","coordinates":[72.84022,19.054979]},"properties":{"id":"osm:node/2630075000","name":"Bandra","category":"transit","source":"osm","wheelchair":"no","operator":"WR"}},{"type":"Feature","geometry":{"type":"Point","coordinates":[72.832794,18.976622]},"properties":{"id":"osm:node/2630075001","name":"Byculla","category":"transit","source":"osm","operator":"CR"}},{"type":"Feature","geometry":{"type":"Point","coordinates":[72.81824,18.951844]},"properties":{"id":"osm:node/2630075002","name":"Charni Road","category":"transit","source":"osm","operator":"WR"}},{"type":"Feature","geometry":{"type":"Point","coordinates":[72.843026,19.017376]},"properties":{"id":"osm:node/2630075003","name":"Dadar","category":"transit","source":"osm","operator":"CR"}},{"type":"Feature","geometry":{"type":"Point","coordinates":[72.842848,19.019227]},"properties":{"id":"osm:node/2630075004","name":"Dadar","category":"transit","source":"osm","operator":"WR"}},{"type":"Feature","geometry":{"type":"Point","coordinates":[72.846604,19.040663]},"properties":{"id":"osm:node/2630075005","name":"Mahim Junction","category":"transit","source":"osm","operator":"WR"}},{"type":"Feature","geometry":{"type":"Point","coordinates":[72.823719,18.945764]},"properties":{"id":"osm:node/2630075006","name":"Marine Lines","category":"transit","source":"osm","operator":"WR"}},{"type":"Feature","geometry":{"type":"Point","coordinates":[72.819315,18.969586]},"properties":{"id":"osm:node/2630075008","name":"Mumbai Central","category":"transit","source":"osm","operator":"WR"}},{"type":"Feature","geometry":{"type":"Point","coordinates":[72.844004,19.09991]},"properties":{"id":"osm:node/2630075010","name":"Vile Parle","category":"transit","source":"osm","operator":"WR"}},{"type":"Feature","geometry":{"type":"Point","coordinates":[72.895555,19.035284]},"properties":{"id":"osm:node/2647295137","name":"Bharat Petroleum","category":"transit","source":"osm"}},{"type":"Feature","geometry":{"type":"Point","coordinates":[72.894279,19.052642]},"properties":{"id":"osm:node/2647295140","name":"VNP & RC Marg Junction","category":"transit","source":"osm"}},{"type":"Feature","geometry":{"type":"Point","coordinates":[72.869097,19.05177]},"properties":{"id":"osm:node/2663219988","name":"Chuna Bhatti","category":"transit","source":"osm","wheelchair":"yes","operator":"CR"}},{"type":"Feature","geometry":{"type":"Point","coordinates":[72.863283,19.046521]},"properties":{"id":"osm:node/2663263713","name":"Sion","category":"transit","source":"osm","operator":"CR"}},{"type":"Feature","geometry":{"type":"Point","coordinates":[72.87938,19.06528]},"properties":{"id":"osm:node/2663447640","name":"Kurla","category":"transit","source":"osm","wheelchair":"limited","operator":"CR"}},{"type":"Feature","geometry":{"type":"Point","coordinates":[72.893456,19.043878]},"properties":{"id":"osm:node/2986295912","name":"Fertilizer Township","category":"transit","source":"osm"}},{"type":"Feature","geometry":{"type":"Point","coordinates":[72.91507,19.055369]},"properties":{"id":"osm:node/3205733664","name":"Govandi","category":"transit","source":"osm","wheelchair":"limited","operator":"CR"}},{"type":"Feature","geometry":{"type":"Point","coordinates":[72.937654,19.142757]},"properties":{"id":"osm:node/3248305759","name":"Bhandup","category":"transit","source":"osm","wheelchair":"limited","operator":"CR"}},{"type":"Feature","geometry":{"type":"Point","coordinates":[72.857363,19.229068]},"properties":{"id":"osm:node/3347009325","name":"Borivali","category":"transit","source":"osm","operator":"WR"}},{"type":"Feature","geometry":{"type":"Point","coordinates":[72.851738,19.204114]},"properties":{"id":"osm:node/3347023609","name":"Kandivali","category":"transit","source":"osm","operator":"WR"}},{"type":"Feature","geometry":{"type":"Point","coordinates":[72.848588,19.186719]},"properties":{"id":"osm:node/3347034598","name":"Malad","category":"transit","source":"osm","operator":"WR"}},{"type":"Feature","geometry":{"type":"Point","coordinates":[72.849549,19.164869]},"properties":{"id":"osm:node/3347034961","name":"Goregaon","category":"transit","source":"osm","operator":"WR"}},{"type":"Feature","geometry":{"type":"Point","coordinates":[72.835897,19.007472]},"properties":{"id":"osm:node/3462327239","name":"Prabhadevi","category":"transit","source":"osm","operator":"WR"}},{"type":"Feature","geometry":{"type":"Point","coordinates":[72.832672,18.987198]},"properties":{"id":"osm:node/3501418211","name":"Chinchpokli","category":"transit","source":"osm","operator":"CR"}},{"type":"Feature","geometry":{"type":"Point","coordinates":[72.837661,19.009482]},"properties":{"id":"osm:node/3501418212","name":"Parel","category":"transit","source":"osm","operator":"WR"}},{"type":"Feature","geometry":{"type":"Point","coordinates":[72.89047,19.065786]},"properties":{"id":"osm:node/3530903066","name":"Tilak Nagar","category":"transit","source":"osm","wheelchair":"limited","operator":"CR"}},{"type":"Feature","geometry":{"type":"Point","coordinates":[72.859317,19.017485]},"properties":{"id":"osm:node/3732540593","name":"Wadala Bridge","category":"transit","source":"osm"}},{"type":"Feature","geometry":{"type":"Point","coordinates":[72.863799,19.023647]},"properties":{"id":"osm:node/3806743187","name":"Acharya Atre Nagar","category":"transit","source":"osm"}},{"type":"Feature","geometry":{"type":"Point","coordinates":[72.844227,19.001592]},"properties":{"id":"osm:node/3806743188","name":"Ambedkar Nagar","category":"transit","source":"osm"}},{"type":"Feature","geometry":{"type":"Point","coordinates":[72.852227,19.016253]},"properties":{"id":"osm:node/3806743192","name":"Dadar East","category":"transit","source":"osm"}},{"type":"Feature","geometry":{"type":"Point","coordinates":[72.870786,19.036687]},"properties":{"id":"osm:node/3806743193","name":"Guru Tegh Bahadur Nagar","category":"transit","source":"osm"}},{"type":"Feature","geometry":{"type":"Point","coordinates":[72.828587,18.983092]},"properties":{"id":"osm:node/3806743194","name":"Sant Gadge Maharaj Chowk","category":"transit","source":"osm"}},{"type":"Feature","geometry":{"type":"Point","coordinates":[72.843309,18.994514]},"properties":{"id":"osm:node/3806743195","name":"Mint Colony","category":"transit","source":"osm"}},{"type":"Feature","geometry":{"type":"Point","coordinates":[72.847871,19.009539]},"properties":{"id":"osm:node/3806743196","name":"Naigaon","category":"transit","source":"osm"}},{"type":"Feature","geometry":{"type":"Point","coordinates":[72.835773,19.154244]},"properties":{"id":"osm:node/3878491940","name":"Goregaon Bus Depot","category":"transit","source":"osm"}},{"type":"Feature","geometry":{"type":"Point","coordinates":[72.835898,19.153133]},"properties":{"id":"osm:node/3878491941","name":"Oshiwara Bus Depot","category":"transit","source":"osm"}},{"type":"Feature","geometry":{"type":"Point","coordinates":[72.876058,19.074566]},"properties":{"id":"osm:node/3878597746","name":"Kurla Depot","category":"transit","source":"osm"}},{"type":"Feature","geometry":{"type":"Point","coordinates":[72.94553,19.187297]},"properties":{"id":"osm:node/3931917833","name":"Vaishali Nagar","category":"transit","source":"osm"}},{"type":"Feature","geometry":{"type":"Point","coordinates":[72.838283,19.090568]},"properties":{"id":"osm:node/3951527111","name":"Santacruz Bus Depot","category":"transit","source":"osm"}},{"type":"Feature","geometry":{"type":"Point","coordinates":[72.928021,19.11148]},"properties":{"id":"osm:node/4258411797","name":"Vikhroli","category":"transit","source":"osm","operator":"CR"}},{"type":"Feature","geometry":{"type":"Point","coordinates":[72.827174,18.93548]},"properties":{"id":"osm:node/4260136290","name":"Churchgate","category":"transit","source":"osm","operator":"WR"}},{"type":"Feature","geometry":{"type":"Point","coordinates":[72.850147,19.027436]},"properties":{"id":"osm:node/4264457295","name":"Matunga","category":"transit","source":"osm","operator":"CR"}},{"type":"Feature","geometry":{"type":"Point","coordinates":[72.846681,19.027815]},"properties":{"id":"osm:node/4264462833","name":"Matunga Road","category":"transit","source":"osm","wheelchair":"limited","operator":"WR"}},{"type":"Feature","geometry":{"type":"Point","coordinates":[72.82422,18.98252]},"properties":{"id":"osm:node/4264478427","name":"Mahalaxmi","category":"transit","source":"osm","operator":"WR"}},{"type":"Feature","geometry":{"type":"Point","coordinates":[72.908367,19.085693]},"properties":{"id":"osm:node/4264539430","name":"Ghatkopar","category":"transit","source":"osm","operator":"CR"}},{"type":"Feature","geometry":{"type":"Point","coordinates":[72.864345,19.038005]},"properties":{"id":"osm:node/4264841906","name":"Guru Tegh Bahadur Nagar","category":"transit","source":"osm","operator":"Central Railway"}},{"type":"Feature","geometry":{"type":"Point","coordinates":[72.860258,19.231755]},"properties":{"id":"osm:node/4382193894","name":"Sukurwadi Bus Fepot","category":"transit","source":"osm"}},{"type":"Feature","geometry":{"type":"Point","coordinates":[72.813697,18.899786]},"properties":{"id":"osm:node/4583581092","name":"R.C. Church","category":"transit","source":"osm","operator":"BEST"}},{"type":"Feature","geometry":{"type":"Point","coordinates":[72.808542,18.913833]},"properties":{"id":"osm:node/4583590689","name":"Geeta Nagar","category":"transit","source":"osm","operator":"BEST"}},{"type":"Feature","geometry":{"type":"Point","coordinates":[72.858191,19.051096]},"properties":{"id":"osm:node/4583600393","name":"Dharavi Depot","category":"transit","source":"osm","operator":"BEST"}},{"type":"Feature","geometry":{"type":"Point","coordinates":[72.940619,18.873411]},"properties":{"id":"osm:node/4585486002","name":"Uran ST Depot","category":"transit","source":"osm","operator":"MSRTC"}},{"type":"Feature","geometry":{"type":"Point","coordinates":[72.947599,18.873967]},"properties":{"id":"osm:node/4585493594","name":"Telipada Bus Station","category":"transit","source":"osm","operator":"NMMT"}},{"type":"Feature","geometry":{"type":"Point","coordinates":[72.988302,19.191425]},"properties":{"id":"osm:node/4647685694","name":"Kalwa Depot","category":"transit","source":"osm","operator":"TMT"}},{"type":"Feature","geometry":{"type":"Point","coordinates":[73.016347,19.007865]},"properties":{"id":"osm:node/4648505096","name":"Nerul Sector 46/48 NMMT Bus Depot","category":"transit","source":"osm","operator":"NMMT"}},{"type":"Feature","geometry":{"type":"Point","coordinates":[72.856068,19.281697]},"properties":{"id":"osm:node/5122858908","name":"Mira Road","category":"transit","source":"osm","operator":"WR"}},{"type":"Feature","geometry":{"type":"Point","coordinates":[72.83704,18.953613]},"properties":{"id":"osm:node/5174623523","name":null,"category":"transit","source":"osm"}},{"type":"Feature","geometry":{"type":"Point","coordinates":[72.837063,18.953693]},"properties":{"id":"osm:node/5174656421","name":null,"category":"transit","source":"osm"}},{"type":"Feature","geometry":{"type":"Point","coordinates":[72.892806,19.05413]},"properties":{"id":"osm:node/5219622321","name":"Chembur","category":"transit","source":"osm"}},{"type":"Feature","geometry":{"type":"Point","coordinates":[72.834807,19.206232]},"properties":{"id":"osm:node/5219622342","name":"Dahanukarwadi","category":"transit","source":"osm","wheelchair":"yes"}},{"type":"Feature","geometry":{"type":"Point","coordinates":[72.837305,19.214004]},"properties":{"id":"osm:node/5219622343","name":"Kandivali (West)","category":"transit","source":"osm","wheelchair":"yes"}},{"type":"Feature","geometry":{"type":"Point","coordinates":[72.840861,19.231392]},"properties":{"id":"osm:node/5219622344","name":"Borivali (West)","category":"transit","source":"osm"}},{"type":"Feature","geometry":{"type":"Point","coordinates":[72.8458,19.249586]},"properties":{"id":"osm:node/5219622345","name":"Mandapeshwar - I.C. Colony","category":"transit","source":"osm"}},{"type":"Feature","geometry":{"type":"Point","coordinates":[72.850504,19.256634]},"properties":{"id":"osm:node/5219622346","name":"Kandarpada","category":"transit","source":"osm"}},{"type":"Feature","geometry":{"type":"Point","coordinates":[72.866349,19.257209]},"properties":{"id":"osm:node/5219622347","name":"Anand Nagar","category":"transit","source":"osm"}},{"type":"Feature","geometry":{"type":"Point","coordinates":[72.901838,19.051719]},"properties":{"id":"osm:node/5219622393","name":"Diamond Garden","category":"transit","source":"osm","wheelchair":"yes"}},{"type":"Feature","geometry":{"type":"Point","coordinates":[72.840943,19.222833]},"properties":{"id":"osm:node/5219623032","name":"Shimpoli","category":"transit","source":"osm"}},{"type":"Feature","geometry":{"type":"Point","coordinates":[72.843446,19.240377]},"properties":{"id":"osm:node/5219623047","name":"Eksar","category":"transit","source":"osm"}},{"type":"Feature","geometry":{"type":"Point","coordinates":[72.874469,19.102334]},"properties":{"id":"osm:node/5221297132","name":"CSMI Airport International T2","category":"transit","source":"osm","operator":"Mumbai Metro Rail Corporation Ltd"}},{"type":"Feature","geometry":{"type":"Point","coordinates":[72.85468,19.060663]},"properties":{"id":"osm:node/5221297179","name":"Bandra Kurla Complex (BKC)","category":"transit","source":"osm","operator":"Mumbai Metro Rail Corporation Ltd"}},{"type":"Feature","geometry":{"type":"Point","coordinates":[72.9525,18.878419]},"properties":{"id":"osm:node/5442005137","name":"Uran City","category":"transit","source":"osm","operator":"CR"}},{"type":"Feature","geometry":{"type":"Point","coordinates":[72.84642,19.119698]},"properties":{"id":"osm:node/5696928866","name":"Andheri","category":"transit","source":"osm","wheelchair":"yes","operator":"Western Railway"}},{"type":"Feature","geometry":{"type":"Point","coordinates":[72.873727,19.125999]},"properties":{"id":"osm:node/5787704195","name":"SEEPZ","category":"transit","source":"osm","operator":"Mumbai Metro Rail Corporation Ltd"}},{"type":"Feature","geometry":{"type":"Point","coordinates":[72.873597,19.117354]},"properties":{"id":"osm:node/5787704196","name":"MIDC - Andheri","category":"transit","source":"osm","operator":"Mumbai Metro Rail Corporation Ltd"}},{"type":"Feature","geometry":{"type":"Point","coordinates":[72.878578,19.108504]},"properties":{"id":"osm:node/5787704197","name":"Marol Naka (Line 3)","category":"transit","source":"osm","operator":"Mumbai Metro Rail Corporation Ltd"}},{"type":"Feature","geometry":{"type":"Point","coordinates":[72.850147,19.151023]},"properties":{"id":"osm:node/5909533857","name":"Ram Mandir","category":"transit","source":"osm","operator":"WR"}},{"type":"Feature","geometry":{"type":"Point","coordinates":[72.848843,19.120564]},"properties":{"id":"osm:node/6020955334","name":"Andheri L1","category":"transit","source":"osm","description":"Andheri Metro Station"}},{"type":"Feature","geometry":{"type":"Point","coordinates":[72.891978,19.069466]},"properties":{"id":"osm:node/6175360983","name":"Lokmanya Tilak Terminus","category":"transit","source":"osm","operator":"CR"}},{"type":"Feature","geometry":{"type":"Point","coordinates":[72.83147,18.99312]},"properties":{"id":"osm:node/6498408219","name":"Lower Parel","category":"transit","source":"osm"}},{"type":"Feature","geometry":{"type":"Point","coordinates":[72.964731,18.881333]},"properties":{"id":"osm:node/7555912827","name":"Dronagiri","category":"transit","source":"osm","operator":"CR"}},{"type":"Feature","geometry":{"type":"Point","coordinates":[72.987797,18.898061]},"properties":{"id":"osm:node/7555912828","name":"Nhava Sheva","category":"transit","source":"osm","operator":"CR"}},{"type":"Feature","geometry":{"type":"Point","coordinates":[73.015849,18.909258]},"properties":{"id":"osm:node/7555912829","name":"Ranjanpada","category":"transit","source":"osm","operator":"CR"}},{"type":"Feature","geometry":{"type":"Point","coordinates":[72.998352,19.068863]},"properties":{"id":"osm:node/7728934351","name":"Vashi","category":"transit","source":"osm"}},{"type":"Feature","geometry":{"type":"Point","coordinates":[72.996259,19.068427]},"properties":{"id":"osm:node/7728934353","name":"Vashi","category":"transit","source":"osm"}},{"type":"Feature","geometry":{"type":"Point","coordinates":[72.977424,19.224143]},"properties":{"id":"osm:node/8342841400","name":"Kapurbawdi Station","category":"transit","source":"osm"}},{"type":"Feature","geometry":{"type":"Point","coordinates":[72.946808,19.284435]},"properties":{"id":"osm:node/8462729069","name":"Gaimukh Station","category":"transit","source":"osm"}},{"type":"Feature","geometry":{"type":"Point","coordinates":[72.958227,19.276747]},"properties":{"id":"osm:node/8462729070","name":"Gowniwada Station","category":"transit","source":"osm"}},{"type":"Feature","geometry":{"type":"Point","coordinates":[72.980999,19.241037]},"properties":{"id":"osm:node/8462838145","name":"Azad Nagar Bus Stop","category":"transit","source":"osm"}},{"type":"Feature","geometry":{"type":"Point","coordinates":[72.961587,19.187046]},"properties":{"id":"osm:node/9126268647","name":"Teen Hath Naka Station","category":"transit","source":"osm"}},{"type":"Feature","geometry":{"type":"Point","coordinates":[72.843129,19.294238]},"properties":{"id":"osm:node/9130240851","name":"Subhash Chandra Bose Ground","category":"transit","source":"osm"}},{"type":"Feature","geometry":{"type":"Point","coordinates":[72.854017,19.105818]},"properties":{"id":"osm:node/9131712733","name":"Airport Colony Station","category":"transit","source":"osm"}},{"type":"Feature","geometry":{"type":"Point","coordinates":[72.878634,19.045827]},"properties":{"id":"osm:node/9132436368","name":"Anik Nagar Bus Depot Station","category":"transit","source":"osm"}},{"type":"Feature","geometry":{"type":"Point","coordinates":[72.866666,19.250698]},"properties":{"id":"osm:node/9627118208","name":"Dahisar (East) [Line 7]","category":"transit","source":"osm"}},{"type":"Feature","geometry":{"type":"Point","coordinates":[72.867332,19.251733]},"properties":{"id":"osm:node/9627118209","name":"Dahisar (East) [Line 2]","category":"transit","source":"osm"}},{"type":"Feature","geometry":{"type":"Point","coordinates":[72.858792,19.169324]},"properties":{"id":"osm:node/9629564097","name":"Aarey","category":"transit","source":"osm","wheelchair":"limited"}},{"type":"Feature","geometry":{"type":"Point","coordinates":[72.858298,19.179758]},"properties":{"id":"osm:node/9629564098","name":"Dindoshi","category":"transit","source":"osm","wheelchair":"limited"}},{"type":"Feature","geometry":{"type":"Point","coordinates":[72.858455,19.1873]},"properties":{"id":"osm:node/9629564099","name":"Kurar","category":"transit","source":"osm"}},{"type":"Feature","geometry":{"type":"Point","coordinates":[72.86049,19.198159]},"properties":{"id":"osm:node/9629564100","name":"Akurli","category":"transit","source":"osm"}},{"type":"Feature","geometry":{"type":"Point","coordinates":[72.863104,19.203517]},"properties":{"id":"osm:node/9629564101","name":"Poisar","category":"transit","source":"osm"}},{"type":"Feature","geometry":{"type":"Point","coordinates":[72.866801,19.216797]},"properties":{"id":"osm:node/9629564102","name":"Magathane","category":"transit","source":"osm","wheelchair":"yes"}},{"type":"Feature","geometry":{"type":"Point","coordinates":[72.864325,19.224036]},"properties":{"id":"osm:node/9629564103","name":"Devipada","category":"transit","source":"osm"}},{"type":"Feature","geometry":{"type":"Point","coordinates":[72.863137,19.234614]},"properties":{"id":"osm:node/9629564104","name":"Rashtriya Udyan","category":"transit","source":"osm","operator":"MMRDA"}},{"type":"Feature","geometry":{"type":"Point","coordinates":[72.864138,19.243149]},"properties":{"id":"osm:node/9629564105","name":"Ovaripada","category":"transit","source":"osm","operator":"MMRDA"}},{"type":"Feature","geometry":{"type":"Point","coordinates":[72.847986,19.247667]},"properties":{"id":"osm:node/9812336620","name":"IC colony","category":"transit","source":"osm"}},{"type":"Feature","geometry":{"type":"Point","coordinates":[72.830548,18.920963]},"properties":{"id":"osm:node/10257874073","name":"Colaba Bus Depot","category":"transit","source":"osm"}},{"type":"Feature","geometry":{"type":"Point","coordinates":[72.820006,19.013515]},"properties":{"id":"osm:node/10257911200","name":"Worli Depot","category":"transit","source":"osm"}},{"type":"Feature","geometry":{"type":"Point","coordinates":[72.866379,19.221361]},"properties":{"id":"osm:node/10257915994","name":"Magathane Bus Depot","category":"transit","source":"osm"}},{"type":"Feature","geometry":{"type":"Point","coordinates":[72.835708,19.183696]},"properties":{"id":"osm:node/10257947691","name":"Malad Depot","category":"transit","source":"osm"}},{"type":"Feature","geometry":{"type":"Point","coordinates":[72.850715,19.213723]},"properties":{"id":"osm:node/10257959918","name":"Poisar Bus Depot","category":"transit","source":"osm"}},{"type":"Feature","geometry":{"type":"Point","coordinates":[72.901148,19.108489]},"properties":{"id":"osm:node/10261220747","name":"Sangharsh Nagar","category":"transit","source":"osm"}},{"type":"Feature","geometry":{"type":"Point","coordinates":[72.855769,19.093453]},"properties":{"id":"osm:node/10261228661","name":"Domestic Airport Terminal 1","category":"transit","source":"osm"}},{"type":"Feature","geometry":{"type":"Point","coordinates":[72.844562,19.100728]},"properties":{"id":"osm:node/10267208087","name":"Vile Parle Station (E)","category":"transit","source":"osm"}},{"type":"Feature","geometry":{"type":"Point","coordinates":[72.927689,19.110694]},"properties":{"id":"osm:node/10276589079","name":"Vikhroli Station (W)","category":"transit","source":"osm"}},{"type":"Feature","geometry":{"type":"Point","coordinates":[72.849362,19.294812]},"properties":{"id":"osm:node/10299481539","name":"Shahid Bhagat Singh Garden","category":"transit","source":"osm"}},{"type":"Feature","geometry":{"type":"Point","coordinates":[72.855156,19.114513]},"properties":{"id":"osm:node/10576622687","name":"Gundavali","category":"transit","source":"osm","wheelchair":"yes"}},{"type":"Feature","geometry":{"type":"Point","coordinates":[72.855456,19.128436]},"properties":{"id":"osm:node/10576622712","name":"Mogra","category":"transit","source":"osm"}},{"type":"Feature","geometry":{"type":"Point","coordinates":[72.855185,19.142945]},"properties":{"id":"osm:node/10576622721","name":"Jogeshwari (East)","category":"transit","source":"osm"}},{"type":"Feature","geometry":{"type":"Point","coordinates":[72.856597,19.152449]},"properties":{"id":"osm:node/10576622722","name":"Goregaon (East)","category":"transit","source":"osm"}},{"type":"Feature","geometry":{"type":"Point","coordinates":[72.831431,19.129134]},"properties":{"id":"osm:node/10576726748","name":"Andheri (West)","category":"transit","source":"osm","wheelchair":"limited"}},{"type":"Feature","geometry":{"type":"Point","coordinates":[72.831714,19.140698]},"properties":{"id":"osm:node/10576726751","name":"Lower Oshiwara","category":"transit","source":"osm","wheelchair":"yes"}},{"type":"Feature","geometry":{"type":"Point","coordinates":[72.833952,19.146035]},"properties":{"id":"osm:node/10576726756","name":"Oshiwara","category":"transit","source":"osm"}},{"type":"Feature","geometry":{"type":"Point","coordinates":[72.835666,19.153024]},"properties":{"id":"osm:node/10576726757","name":"Goregaon (West)","category":"transit","source":"osm"}},{"type":"Feature","geometry":{"type":"Point","coordinates":[72.83648,19.173098]},"properties":{"id":"osm:node/10576726761","name":"Lower Malad","category":"transit","source":"osm"}},{"type":"Feature","geometry":{"type":"Point","coordinates":[72.835861,19.185285]},"properties":{"id":"osm:node/10576726762","name":"Malad (West)","category":"transit","source":"osm"}},{"type":"Feature","geometry":{"type":"Point","coordinates":[72.833775,19.196829]},"properties":{"id":"osm:node/10576726763","name":"Valnai-Meeth Chowky","category":"transit","source":"osm"}},{"type":"Feature","geometry":{"type":"Point","coordinates":[72.84936,19.069963]},"properties":{"id":"osm:node/12074909129","name":"Bandra Colony","category":"transit","source":"osm","wheelchair":"yes","operator":"Mumbai Metro Rail Corporation Ltd"}},{"type":"Feature","geometry":{"type":"Point","coordinates":[72.847118,19.079289]},"properties":{"id":"osm:node/12074909130","name":"Santacruz","category":"transit","source":"osm","operator":"Mumbai Metro Rail Corporation Ltd"}},{"type":"Feature","geometry":{"type":"Point","coordinates":[72.853577,19.093899]},"properties":{"id":"osm:node/12074909131","name":"CSMI Airport Domestic T1","category":"transit","source":"osm","operator":"Mumbai Metro Rail Corporation Ltd"}},{"type":"Feature","geometry":{"type":"Point","coordinates":[72.865236,19.102196]},"properties":{"id":"osm:node/12074909132","name":"Sahar Road","category":"transit","source":"osm","operator":"Mumbai Metro Rail Corporation Ltd"}},{"type":"Feature","geometry":{"type":"Point","coordinates":[72.838177,18.952295]},"properties":{"id":"osm:node/12171122260","name":"Masjid","category":"transit","source":"osm","operator":"CR"}},{"type":"Feature","geometry":{"type":"Point","coordinates":[72.835786,18.940493]},"properties":{"id":"osm:node/12176277888","name":"Mumbai CSMT","category":"transit","source":"osm","wheelchair":"yes","operator":"Central Railway"}},{"type":"Feature","geometry":{"type":"Point","coordinates":[73.019159,19.021819]},"properties":{"id":"osm:node/12189351683","name":"Seawoods","category":"transit","source":"osm","operator":"Central Railway"}},{"type":"Feature","geometry":{"type":"Point","coordinates":[72.849421,19.141154]},"properties":{"id":"osm:node/12189351698","name":"Jogeshwari (Harbour Line)","category":"transit","source":"osm","operator":"Western Railway"}},{"type":"Feature","geometry":{"type":"Point","coordinates":[72.848936,19.136114]},"properties":{"id":"osm:node/12189363305","name":"Jogeshwari (Western Line)","category":"transit","source":"osm","operator":"Western Railway"}},{"type":"Feature","geometry":{"type":"Point","coordinates":[72.834871,19.162472]},"properties":{"id":"osm:node/12196197980","name":"Bangur Nagar","category":"transit","source":"osm"}},{"type":"Feature","geometry":{"type":"Point","coordinates":[72.961568,19.187089]},"properties":{"id":"osm:node/12238602889","name":"Teen Hath Naka Station","category":"transit","source":"osm"}},{"type":"Feature","geometry":{"type":"Point","coordinates":[72.839221,19.023624]},"properties":{"id":"osm:node/12855459845","name":"Dadar","category":"transit","source":"osm","operator":"Mumbai Metro Rail Corporation Ltd"}},{"type":"Feature","geometry":{"type":"Point","coordinates":[72.841965,19.038464]},"properties":{"id":"osm:node/12855459846","name":"Shitala Devi Mandir","category":"transit","source":"osm","operator":"Mumbai Metro Rail Corporation Ltd"}},{"type":"Feature","geometry":{"type":"Point","coordinates":[72.849741,19.046261]},"properties":{"id":"osm:node/12855459847","name":"Dharavi","category":"transit","source":"osm","operator":"Mumbai Metro Rail Corporation Ltd"}},{"type":"Feature","geometry":{"type":"Point","coordinates":[72.81772,18.99782]},"properties":{"id":"osm:node/12857565154","name":"Acharya Atre Chowk","category":"transit","source":"osm","operator":"Mumbai Metro Rail Corporation Ltd"}},{"type":"Feature","geometry":{"type":"Point","coordinates":[72.819274,19.008606]},"properties":{"id":"osm:node/12857565155","name":"Worli","category":"transit","source":"osm","operator":"Mumbai Metro Rail Corporation Ltd"}},{"type":"Feature","geometry":{"type":"Point","coordinates":[72.83092,19.015894]},"properties":{"id":"osm:node/12857565156","name":"Siddhivinayak Temple","category":"transit","source":"osm","operator":"Mumbai Metro Rail Corporation Ltd"}},{"type":"Feature","geometry":{"type":"Point","coordinates":[72.95772,19.173512]},"properties":{"id":"osm:node/12880330782","name":"TMT Mulund Bus Station","category":"transit","source":"osm"}},{"type":"Feature","geometry":{"type":"Point","coordinates":[72.919323,19.101758]},"properties":{"id":"osm:node/12972806178","name":"Vikhroli Depot","category":"transit","source":"osm"}},{"type":"Feature","geometry":{"type":"Point","coordinates":[72.962439,19.187461]},"properties":{"id":"osm:node/12974237856","name":"Marathon Chowk Teen Hath Naka","category":"transit","source":"osm"}},{"type":"Feature","geometry":{"type":"Point","coordinates":[72.821179,18.969992]},"properties":{"id":"osm:node/13192130534","name":"Jagannath Shankar Sheth Metro","category":"transit","source":"osm","operator":"Mumbai Metro Rail Corporation Ltd"}},{"type":"Feature","geometry":{"type":"Point","coordinates":[72.825401,18.979467]},"properties":{"id":"osm:node/13192130535","name":"Mahalaxmi","category":"transit","source":"osm","operator":"Mumbai Metro Rail Corporation Ltd"}},{"type":"Feature","geometry":{"type":"Point","coordinates":[72.821352,18.990895]},"properties":{"id":"osm:node/13192130536","name":"Science Centre","category":"transit","source":"osm","operator":"Mumbai Metro Rail Corporation Ltd"}},{"type":"Feature","geometry":{"type":"Point","coordinates":[72.820715,18.913569]},"properties":{"id":"osm:node/13207029317","name":"Cuffe Parade","category":"transit","source":"osm","operator":"Mumbai Metro Rail Corporation Ltd"}},{"type":"Feature","geometry":{"type":"Point","coordinates":[72.825493,18.924781]},"properties":{"id":"osm:node/13207029318","name":"Vidhan Bhavan","category":"transit","source":"osm","operator":"Mumbai Metro Rail Corporation Ltd"}},{"type":"Feature","geometry":{"type":"Point","coordinates":[72.826939,18.931495]},"properties":{"id":"osm:node/13207029319","name":"Churchgate","category":"transit","source":"osm","operator":"Mumbai Metro Rail Corporation Ltd"}},{"type":"Feature","geometry":{"type":"Point","coordinates":[72.832504,18.934185]},"properties":{"id":"osm:node/13207029320","name":"Hutatma Chowk","category":"transit","source":"osm","operator":"Mumbai Metro Rail Corporation Ltd"}},{"type":"Feature","geometry":{"type":"Point","coordinates":[72.831861,18.940833]},"properties":{"id":"osm:node/13207029322","name":"Chhatrapati Shivaji Maharaj Terminus","category":"transit","source":"osm","operator":"Mumbai Metro Rail Corporation Ltd"}},{"type":"Feature","geometry":{"type":"Point","coordinates":[72.827193,18.946329]},"properties":{"id":"osm:node/13207029323","name":"Kalbadevi","category":"transit","source":"osm","operator":"Mumbai Metro Rail Corporation Ltd"}},{"type":"Feature","geometry":{"type":"Point","coordinates":[72.822206,18.952102]},"properties":{"id":"osm:node/13207029324","name":"Girgaon","category":"transit","source":"osm","operator":"Mumbai Metro Rail Corporation Ltd"}},{"type":"Feature","geometry":{"type":"Point","coordinates":[72.818044,18.963218]},"properties":{"id":"osm:node/13207029325","name":"Grant Road","category":"transit","source":"osm","operator":"Mumbai Metro Rail Corporation Ltd"}},{"type":"Feature","geometry":{"type":"Point","coordinates":[72.938661,19.049592]},"properties":{"id":"osm:node/13252985100","name":"Mandale","category":"transit","source":"osm"}},{"type":"Feature","geometry":{"type":"Point","coordinates":[72.906981,19.047938]},"properties":{"id":"osm:node/13252997901","name":"Shivaji Chowk (Chembur)","category":"transit","source":"osm","wheelchair":"yes","operator":"Mumbai Metro Rail Corporation Ltd"}},{"type":"Feature","geometry":{"type":"Point","coordinates":[72.917495,19.044833]},"properties":{"id":"osm:node/13252997906","name":"Deonar","category":"transit","source":"osm"}},{"type":"Feature","geometry":{"type":"Point","coordinates":[72.931231,19.049217]},"properties":{"id":"osm:node/13252997911","name":"Mankhurd","category":"transit","source":"osm"}},{"type":"Feature","geometry":{"type":"Point","coordinates":[72.86695,19.030181]},"properties":{"id":"osm:node/13284781018","name":"Antop Hill","category":"transit","source":"osm"}},{"type":"Feature","geometry":{"type":"Point","coordinates":[72.867452,19.25108]},"properties":{"id":"osm:node/13758670735","name":"Dahisar (East) [Line 9]","category":"transit","source":"osm"}},{"type":"Feature","geometry":{"type":"Point","coordinates":[72.87264,19.260099]},"properties":{"id":"osm:node/13758670736","name":"Pandurang Wadi","category":"transit","source":"osm"}},{"type":"Feature","geometry":{"type":"Point","coordinates":[72.880698,19.271007]},"properties":{"id":"osm:node/13758670737","name":"Miragaon","category":"transit","source":"osm"}},{"type":"Feature","geometry":{"type":"Point","coordinates":[72.88024,19.277666]},"properties":{"id":"osm:node/13758670740","name":"Kashigaon","category":"transit","source":"osm"}},{"type":"Feature","geometry":{"type":"Point","coordinates":[72.827547,19.09609]},"properties":{"id":"osm:way/27036772","name":"Juhu Chowpati Bus Station","category":"transit","source":"osm"}},{"type":"Feature","geometry":{"type":"Point","coordinates":[72.795582,18.946776]},"properties":{"id":"osm:way/39092819","name":null,"category":"transit","source":"osm"}},{"type":"Feature","geometry":{"type":"Point","coordinates":[72.814173,18.9868]},"properties":{"id":"osm:way/42441498","name":null,"category":"transit","source":"osm","wheelchair":"limited"}},{"type":"Feature","geometry":{"type":"Point","coordinates":[72.822056,18.969326]},"properties":{"id":"osm:way/49685673","name":"Mumbai Central Bus Station","category":"transit","source":"osm","operator":"MSRTC"}},{"type":"Feature","geometry":{"type":"Point","coordinates":[72.848986,19.163637]},"properties":{"id":"osm:way/84832706","name":"Goregaon Bus Station (W)","category":"transit","source":"osm","operator":"BEST"}},{"type":"Feature","geometry":{"type":"Point","coordinates":[72.850443,19.16573]},"properties":{"id":"osm:way/84832710","name":"Goregaon Bus Station East","category":"transit","source":"osm","operator":"BEST"}},{"type":"Feature","geometry":{"type":"Point","coordinates":[72.872978,19.12599]},"properties":{"id":"osm:way/102652995","name":"SEEPZ Bus Station","category":"transit","source":"osm","operator":"BEST"}},{"type":"Feature","geometry":{"type":"Point","coordinates":[72.841303,19.062704]},"properties":{"id":"osm:way/107303404","name":"Bandra Terminus","category":"transit","source":"osm","operator":"WR"}},{"type":"Feature","geometry":{"type":"Point","coordinates":[72.926397,19.042615]},"properties":{"id":"osm:way/121371138","name":"Anushakti Nagar Bus Stand","category":"transit","source":"osm","wheelchair":"yes","operator":"BEST"}},{"type":"Feature","geometry":{"type":"Point","coordinates":[72.918026,19.087792]},"properties":{"id":"osm:way/131950445","name":"Ghatkopar Bus Station","category":"transit","source":"osm","operator":"BEST"}},{"type":"Feature","geometry":{"type":"Point","coordinates":[72.908069,19.0867]},"properties":{"id":"osm:way/151205149","name":"Ghatkopar L1","category":"transit","source":"osm","operator":"Mumbai Metro One"}},{"type":"Feature","geometry":{"type":"Point","coordinates":[72.829287,19.220434]},"properties":{"id":"osm:way/151766056","name":"Prabhodankar Thakre Charkop Bus Station","category":"transit","source":"osm","operator":"BEST"}},{"type":"Feature","geometry":{"type":"Point","coordinates":[72.998762,19.063291]},"properties":{"id":"osm:way/151768155","name":"Vashi","category":"transit","source":"osm","wheelchair":"limited","operator":"Central Railways"}},{"type":"Feature","geometry":{"type":"Point","coordinates":[73.009533,19.065986]},"properties":{"id":"osm:way/151769149","name":"Sanpada","category":"transit","source":"osm","wheelchair":"limited","operator":"Central Railways"}},{"type":"Feature","geometry":{"type":"Point","coordinates":[72.85251,18.997845]},"properties":{"id":"osm:way/151818593","name":"P.Thakre Bus Station","category":"transit","source":"osm","operator":"BEST Undertaking"}},{"type":"Feature","geometry":{"type":"Point","coordinates":[72.829291,19.116431]},"properties":{"id":"osm:way/151829677","name":"JVPD Bus Station","category":"transit","source":"osm","wheelchair":"yes","operator":"BEST"}},{"type":"Feature","geometry":{"type":"Point","coordinates":[72.819553,19.183087]},"properties":{"id":"osm:way/151847079","name":"Malvani Bus Depot","category":"transit","source":"osm","operator":"BEST"}},{"type":"Feature","geometry":{"type":"Point","coordinates":[72.97565,19.186938]},"properties":{"id":"osm:way/151866533","name":"Thane Station (W)","category":"transit","source":"osm","operator":"TMT","level":"1"}},{"type":"Feature","geometry":{"type":"Point","coordinates":[72.977403,19.187247]},"properties":{"id":"osm:way/151866565","name":"Thane Bus Depot","category":"transit","source":"osm","operator":"MSRTC"}},{"type":"Feature","geometry":{"type":"Point","coordinates":[72.819921,19.131033]},"properties":{"id":"osm:way/198565173","name":"7 Bungalows Bus Depot","category":"transit","source":"osm"}},{"type":"Feature","geometry":{"type":"Point","coordinates":[72.830088,18.921467]},"properties":{"id":"osm:way/207415960","name":"Colaba Bus Depot","category":"transit","source":"osm"}},{"type":"Feature","geometry":{"type":"Point","coordinates":[72.820982,18.964507]},"properties":{"id":"osm:way/220311101","name":"Tardeo Bus Depot","category":"transit","source":"osm","operator":"BEST"}},{"type":"Feature","geometry":{"type":"Point","coordinates":[72.954087,19.183182]},"properties":{"id":"osm:way/235944246","name":"Mulund Check Naka","category":"transit","source":"osm"}},{"type":"Feature","geometry":{"type":"Point","coordinates":[72.997188,19.075219]},"properties":{"id":"osm:way/235988235","name":"Vashi Bus Depot","category":"transit","source":"osm","operator":"NMMT"}},{"type":"Feature","geometry":{"type":"Point","coordinates":[72.878668,19.042005]},"properties":{"id":"osm:way/236210010","name":"Inter State Bus Terminal-ISBT","category":"transit","source":"osm","operator":"MMRDA"}},{"type":"Feature","geometry":{"type":"Point","coordinates":[72.846133,19.015631]},"properties":{"id":"osm:way/236594134","name":"Asiad MSRTC Stand","category":"transit","source":"osm"}},{"type":"Feature","geometry":{"type":"Point","coordinates":[72.826703,19.047945]},"properties":{"id":"osm:way/237027559","name":"Bandra Reclamation Bus Station","category":"transit","source":"osm","operator":"BEST"}},{"type":"Feature","geometry":{"type":"Point","coordinates":[72.821126,18.970477]},"properties":{"id":"osm:way/258361639","name":"Bus Agencies","category":"transit","source":"osm"}},{"type":"Feature","geometry":{"type":"Point","coordinates":[72.816998,18.909766]},"properties":{"id":"osm:way/260798115","name":"Backbay Depot","category":"transit","source":"osm","operator":"BEST"}},{"type":"Feature","geometry":{"type":"Point","coordinates":[72.821377,19.130252]},"properties":{"id":"osm:way/287299861","name":"Versova","category":"transit","source":"osm","wheelchair":"yes","operator":"MMRDA"}},{"type":"Feature","geometry":{"type":"Point","coordinates":[72.830193,19.128292]},"properties":{"id":"osm:way/287299866","name":"D.N. Nagar","category":"transit","source":"osm","wheelchair":"yes"}},{"type":"Feature","geometry":{"type":"Point","coordinates":[73.003892,19.104976]},"properties":{"id":"osm:way/288596878","name":"Koparkhairane NMMT Bus Station","category":"transit","source":"osm","wheelchair":"yes","operator":"NMMT"}},{"type":"Feature","geometry":{"type":"Point","coordinates":[72.874169,19.110135]},"properties":{"id":"osm:way/311841874","name":"Airport Road","category":"transit","source":"osm","operator":"Mumbai Metro One"}},{"type":"Feature","geometry":{"type":"Point","coordinates":[72.90191,19.09258]},"properties":{"id":"osm:way/311841875","name":"Jagruti Nagar","category":"transit","source":"osm","operator":"Mumbai Metro One"}},{"type":"Feature","geometry":{"type":"Point","coordinates":[72.879487,19.108152]},"properties":{"id":"osm:way/311841876","name":"Marol Naka L1","category":"transit","source":"osm","operator":"Mumbai Metro One"}},{"type":"Feature","geometry":{"type":"Point","coordinates":[72.846606,19.241741]},"properties":{"id":"osm:way/318034227","name":"Shanti Ashram Bus Depo","category":"transit","source":"osm","operator":"BEST"}},{"type":"Feature","geometry":{"type":"Point","coordinates":[72.952189,19.209302]},"properties":{"id":"osm:way/319831104","name":"Lokmanya Nagar Bus Depot","category":"transit","source":"osm"}},{"type":"Feature","geometry":{"type":"Point","coordinates":[72.968127,19.169272]},"properties":{"id":"osm:way/320659668","name":"MHADA Bus Station","category":"transit","source":"osm","operator":"BEST"}},{"type":"Feature","geometry":{"type":"Point","coordinates":[72.837648,19.12691]},"properties":{"id":"osm:way/331815667","name":"Azad Nagar","category":"transit","source":"osm"}},{"type":"Feature","geometry":{"type":"Point","coordinates":[72.856425,19.115863]},"properties":{"id":"osm:way/331815671","name":"Western Express Highway","category":"transit","source":"osm","wheelchair":"yes"}},{"type":"Feature","geometry":{"type":"Point","coordinates":[72.867622,19.112036]},"properties":{"id":"osm:way/331824153","name":"Chakala - J.B. Nagar","category":"transit","source":"osm"}},{"type":"Feature","geometry":{"type":"Point","coordinates":[72.887958,19.103536]},"properties":{"id":"osm:way/331824155","name":"Saki Naka","category":"transit","source":"osm"}},{"type":"Feature","geometry":{"type":"Point","coordinates":[72.894878,19.096422]},"properties":{"id":"osm:way/331827626","name":"Asalpha","category":"transit","source":"osm"}},{"type":"Feature","geometry":{"type":"Point","coordinates":[72.845075,19.055996]},"properties":{"id":"osm:way/339531325","name":"Bandra East","category":"transit","source":"osm","operator":"BEST"}},{"type":"Feature","geometry":{"type":"Point","coordinates":[72.845818,19.119252]},"properties":{"id":"osm:way/384528522","name":"Andheri West","category":"transit","source":"osm","wheelchair":"yes"}},{"type":"Feature","geometry":{"type":"Point","coordinates":[72.915764,19.054233]},"properties":{"id":"osm:way/384538412","name":"Govandi Bus Depot","category":"transit","source":"osm"}},{"type":"Feature","geometry":{"type":"Point","coordinates":[72.929153,19.066042]},"properties":{"id":"osm:way/395230147","name":"Shivaji Nagar Bus Depot","category":"transit","source":"osm"}},{"type":"Feature","geometry":{"type":"Point","coordinates":[72.8789,19.067442]},"properties":{"id":"osm:way/403646143","name":"Kurla West","category":"transit","source":"osm"}},{"type":"Feature","geometry":{"type":"Point","coordinates":[72.879269,19.065307]},"properties":{"id":"osm:way/427199220","name":"Kurla","category":"transit","source":"osm","wheelchair":"limited"}},{"type":"Feature","geometry":{"type":"Point","coordinates":[72.848199,19.119067]},"properties":{"id":"osm:way/431427967","name":"Andheri East","category":"transit","source":"osm"}},{"type":"Feature","geometry":{"type":"Point","coordinates":[72.839734,19.054017]},"properties":{"id":"osm:way/434887902","name":"Bandra Bus Station (W)","category":"transit","source":"osm","wheelchair":"yes","operator":"BEST"}},{"type":"Feature","geometry":{"type":"Point","coordinates":[72.848087,19.134111]},"properties":{"id":"osm:way/486561072","name":null,"category":"transit","source":"osm"}},{"type":"Feature","geometry":{"type":"Point","coordinates":[72.89632,19.080036]},"properties":{"id":"osm:way/512487822","name":"Vidyavihar (W)","category":"transit","source":"osm","operator":"BEST"}},{"type":"Feature","geometry":{"type":"Point","coordinates":[72.97275,19.201246]},"properties":{"id":"osm:way/532665654","name":"ST Bus Stand - Khopat","category":"transit","source":"osm"}},{"type":"Feature","geometry":{"type":"Point","coordinates":[73.015034,19.015243]},"properties":{"id":"osm:way/548961672","name":"Seawoods Bus Station","category":"transit","source":"osm","wheelchair":"yes","operator":"NMMT"}},{"type":"Feature","geometry":{"type":"Point","coordinates":[73.018158,19.03358]},"properties":{"id":"osm:way/572630813","name":"Nerul","category":"transit","source":"osm","wheelchair":"limited","operator":"Central Railways"}},{"type":"Feature","geometry":{"type":"Point","coordinates":[72.987139,19.070486]},"properties":{"id":"osm:way/574007908","name":"Vashi Sector-6 Bus Depot","category":"transit","source":"osm"}},{"type":"Feature","geometry":{"type":"Point","coordinates":[73.019796,19.040024]},"properties":{"id":"osm:way/575018148","name":"Nerul Bus Station","category":"transit","source":"osm"}},{"type":"Feature","geometry":{"type":"Point","coordinates":[73.009231,19.066998]},"properties":{"id":"osm:way/592381471","name":"Sanpada Railway Station","category":"transit","source":"osm","operator":"NMMT"}},{"type":"Feature","geometry":{"type":"Point","coordinates":[72.998463,19.156569]},"properties":{"id":"osm:way/603251681","name":"Airoli Bus Station","category":"transit","source":"osm","operator":"NMMT"}},{"type":"Feature","geometry":{"type":"Point","coordinates":[73.014193,19.040315]},"properties":{"id":"osm:way/603574291","name":"Sarsole Bus Station","category":"transit","source":"osm","operator":"NMMT"}},{"type":"Feature","geometry":{"type":"Point","coordinates":[72.866619,19.02578]},"properties":{"id":"osm:way/625837788","name":"Antop Hill Bus Depot","category":"transit","source":"osm"}},{"type":"Feature","geometry":{"type":"Point","coordinates":[72.901162,19.059927]},"properties":{"id":"osm:way/626185287","name":"Dr. B. R. Ambedkar Udyan","category":"transit","source":"osm","operator":"Brihanmumbai Electricity Supply & Transport (BEST)"}},{"type":"Feature","geometry":{"type":"Point","coordinates":[72.879799,19.118045]},"properties":{"id":"osm:way/628785889","name":"Marol Maroshi","category":"transit","source":"osm"}},{"type":"Feature","geometry":{"type":"Point","coordinates":[72.865483,19.176044]},"properties":{"id":"osm:way/629015650","name":"Dindoshi","category":"transit","source":"osm"}},{"type":"Feature","geometry":{"type":"Point","coordinates":[73.018249,19.055865]},"properties":{"id":"osm:way/642845770","name":"Juinagar","category":"transit","source":"osm","wheelchair":"limited","operator":"Cental Railways"}},{"type":"Feature","geometry":{"type":"Point","coordinates":[72.835424,18.939166]},"properties":{"id":"osm:way/647133466","name":"CSMT Bus Station","category":"transit","source":"osm"}},{"type":"Feature","geometry":{"type":"Point","coordinates":[73.014132,18.959894]},"properties":{"id":"osm:way/648982743","name":"Kharkopar","category":"transit","source":"osm","wheelchair":"yes","operator":"Central Railways"}},{"type":"Feature","geometry":{"type":"Point","coordinates":[73.017699,19.076145]},"properties":{"id":"osm:way/655144828","name":"Turbhe","category":"transit","source":"osm","wheelchair":"yes","operator":"Central Railways"}},{"type":"Feature","geometry":{"type":"Point","coordinates":[72.999402,19.158523]},"properties":{"id":"osm:way/655146730","name":"Airoli","category":"transit","source":"osm","wheelchair":"yes","operator":"Central Railways"}},{"type":"Feature","geometry":{"type":"Point","coordinates":[73.002782,19.136636]},"properties":{"id":"osm:way/655530295","name":"Rabale","category":"transit","source":"osm","wheelchair":"yes","operator":"Central Railways"}},{"type":"Feature","geometry":{"type":"Point","coordinates":[73.00702,19.116311]},"properties":{"id":"osm:way/655530297","name":"Ghansoli","category":"transit","source":"osm","wheelchair":"yes","operator":"Central Railways"}},{"type":"Feature","geometry":{"type":"Point","coordinates":[73.011311,19.103245]},"properties":{"id":"osm:way/655530301","name":"Koparkhairne","category":"transit","source":"osm","wheelchair":"yes","operator":"Central Railways"}},{"type":"Feature","geometry":{"type":"Point","coordinates":[72.826589,19.108084]},"properties":{"id":"osm:way/766478200","name":"Juhu Bus Station","category":"transit","source":"osm"}},{"type":"Feature","geometry":{"type":"Point","coordinates":[72.997857,19.064162]},"properties":{"id":"osm:way/827825796","name":"Vashi Railway Station","category":"transit","source":"osm","operator":"NMMT"}},{"type":"Feature","geometry":{"type":"Point","coordinates":[73.018773,19.057005]},"properties":{"id":"osm:way/832522808","name":"Juinagar Railway Station","category":"transit","source":"osm"}},{"type":"Feature","geometry":{"type":"Point","coordinates":[72.815415,18.969743]},"properties":{"id":"osm:way/837580929","name":"Vasantrao Naik Chowk Tardeo Bus Station","category":"transit","source":"osm","operator":"BEST"}},{"type":"Feature","geometry":{"type":"Point","coordinates":[72.99443,19.180776]},"properties":{"id":"osm:way/900607248","name":"Digha Gaon","category":"transit","source":"osm","operator":"Central Railways"}},{"type":"Feature","geometry":{"type":"Point","coordinates":[72.868698,19.051515]},"properties":{"id":"osm:way/909382854","name":"Chuna Bhatti","category":"transit","source":"osm"}},{"type":"Feature","geometry":{"type":"Point","coordinates":[72.96597,19.228858]},"properties":{"id":"osm:way/912422941","name":"Pawar Nagar","category":"transit","source":"osm","wheelchair":"limited"}},{"type":"Feature","geometry":{"type":"Point","coordinates":[72.906008,19.118094]},"properties":{"id":"osm:way/959543436","name":"Hiranandani Powai","category":"transit","source":"osm"}},{"type":"Feature","geometry":{"type":"Point","coordinates":[72.808483,19.139138]},"properties":{"id":"osm:way/989056454","name":"Vesave/Yari Road Bus Station","category":"transit","source":"osm","operator":"BEST"}},{"type":"Feature","geometry":{"type":"Point","coordinates":[72.996362,19.068383]},"properties":{"id":"osm:way/1080713426","name":"Vashi Highway","category":"transit","source":"osm"}},{"type":"Feature","geometry":{"type":"Point","coordinates":[72.929066,19.110562]},"properties":{"id":"osm:way/1120016077","name":"Vikhroli Station (E)","category":"transit","source":"osm"}},{"type":"Feature","geometry":{"type":"Point","coordinates":[72.95652,19.172805]},"properties":{"id":"osm:way/1122104214","name":"Mulund Railway Station (W)","category":"transit","source":"osm","operator":"BEST"}},{"type":"Feature","geometry":{"type":"Point","coordinates":[72.937971,19.144236]},"properties":{"id":"osm:way/1122111841","name":"Bhandup Railway Station (W)","category":"transit","source":"osm"}},{"type":"Feature","geometry":{"type":"Point","coordinates":[72.853495,19.312247]},"properties":{"id":"osm:way/1122265495","name":null,"category":"transit","source":"osm"}},{"type":"Feature","geometry":{"type":"Point","coordinates":[72.894439,19.13912]},"properties":{"id":"osm:way/1122440948","name":"Filter Pada","category":"transit","source":"osm"}},{"type":"Feature","geometry":{"type":"Point","coordinates":[72.907346,19.084696]},"properties":{"id":"osm:way/1122483527","name":"Ghatkopar Station (E)","category":"transit","source":"osm"}},{"type":"Feature","geometry":{"type":"Point","coordinates":[72.938578,19.12058]},"properties":{"id":"osm:way/1123726009","name":"Kannamwar Nagar","category":"transit","source":"osm"}},{"type":"Feature","geometry":{"type":"Point","coordinates":[72.850688,19.06154]},"properties":{"id":"osm:way/1149824741","name":"Bandra Colony","category":"transit","source":"osm"}},{"type":"Feature","geometry":{"type":"Point","coordinates":[72.842302,19.081328]},"properties":{"id":"osm:way/1170043439","name":"Santa Cruz Station (E)","category":"transit","source":"osm"}},{"type":"Feature","geometry":{"type":"Point","coordinates":[72.843422,19.240323]},"properties":{"id":"osm:way/1218500503","name":null,"category":"transit","source":"osm"}},{"type":"Feature","geometry":{"type":"Point","coordinates":[72.808288,18.907668]},"properties":{"id":"osm:way/1288781460","name":"Navy Nagar Bus Depot","category":"transit","source":"osm"}},{"type":"Feature","geometry":{"type":"Point","coordinates":[72.840539,19.043095]},"properties":{"id":"osm:way/1299175077","name":"Mahim Bus Depot","category":"transit","source":"osm"}},{"type":"Feature","geometry":{"type":"Point","coordinates":[72.942541,19.175697]},"properties":{"id":"osm:way/1330126872","name":"Mulund Fire Station Metro","category":"transit","source":"osm"}},{"type":"Feature","geometry":{"type":"Point","coordinates":[72.956148,19.172079]},"properties":{"id":"osm:way/1330148427","name":null,"category":"transit","source":"osm"}},{"type":"Feature","geometry":{"type":"Point","coordinates":[72.884349,19.130428]},"properties":{"id":"osm:way/1330720641","name":"Aarey JVLR","category":"transit","source":"osm","operator":"Mumbai Metro Rail Corporation Ltd"}},{"type":"Feature","geometry":{"type":"Point","coordinates":[72.858913,19.016136]},"properties":{"id":"osm:way/1343435452","name":"Vadala Road","category":"transit","source":"osm","wheelchair":"limited","operator":"Central Railways"}},{"type":"Feature","geometry":{"type":"Point","coordinates":[72.863757,19.04374]},"properties":{"id":"osm:way/1361614735","name":"Rani Laxmibai Chowk (Sion)","category":"transit","source":"osm"}},{"type":"Feature","geometry":{"type":"Point","coordinates":[72.85278,19.047548]},"properties":{"id":"osm:way/1394097474","name":"Dharavi T-junction","category":"transit","source":"osm"}},{"type":"Feature","geometry":{"type":"Point","coordinates":[72.987935,19.220554]},"properties":{"id":"osm:way/1484919200","name":"Balkum","category":"transit","source":"osm"}},{"type":"Feature","geometry":{"type":"Point","coordinates":[72.977438,19.224059]},"properties":{"id":"osm:way/1484919201","name":null,"category":"transit","source":"osm"}},{"type":"Feature","geometry":{"type":"Point","coordinates":[72.976583,19.231404]},"properties":{"id":"osm:way/1484919206","name":"Manpada","category":"transit","source":"osm"}},{"type":"Feature","geometry":{"type":"Point","coordinates":[72.958087,19.276941]},"properties":{"id":"osm:way/1485342201","name":null,"category":"transit","source":"osm"}},{"type":"Feature","geometry":{"type":"Point","coordinates":[72.947412,19.284381]},"properties":{"id":"osm:way/1485342202","name":null,"category":"transit","source":"osm"}},{"type":"Feature","geometry":{"type":"Point","coordinates":[72.854022,19.10584]},"properties":{"id":"osm:way/1485677774","name":null,"category":"transit","source":"osm"}},{"type":"Feature","geometry":{"type":"Point","coordinates":[72.843127,19.294239]},"properties":{"id":"osm:way/1485713537","name":null,"category":"transit","source":"osm"}},{"type":"Feature","geometry":{"type":"Point","coordinates":[72.849362,19.294821]},"properties":{"id":"osm:way/1485713542","name":null,"category":"transit","source":"osm"}}]}