{"type":"FeatureCollection","attribution":"© OpenStreetMap contributors (ODbL) · MCGM public toilet data via data.opencity.in (public domain)","generated":"2026-09-16T10:48:32.387Z","bbox":"18.87,72.77,19.32,73.02","features":[{"type":"Feature","geometry":{"type":"Point","coordinates":[72.851007,19.103719]},"properties":{"id":"osm:node/1579184280","name":"Loop Gallery","category":"waterfront","subtype":"tourism=viewpoint","source":"osm"}},{"type":"Feature","geometry":{"type":"Point","coordinates":[72.928887,18.960798]},"properties":{"id":"osm:node/2841826661","name":"Bombay Skyline viewpoint","category":"waterfront","subtype":"tourism=viewpoint","source":"osm"}},{"type":"Feature","geometry":{"type":"Point","coordinates":[72.805871,18.955562]},"properties":{"id":"osm:node/3313013697","name":null,"category":"waterfront","subtype":"tourism=viewpoint","source":"osm"}},{"type":"Feature","geometry":{"type":"Point","coordinates":[72.841413,19.175605]},"properties":{"id":"osm:node/4129555689","name":"Patidar Co Op Housing Society","category":"waterfront","subtype":"tourism=viewpoint","source":"osm"}},{"type":"Feature","geometry":{"type":"Point","coordinates":[72.945126,19.234398]},"properties":{"id":"osm:node/4585381992","name":"Yeoor Hill","category":"waterfront","subtype":"tourism=viewpoint","source":"osm"}},{"type":"Feature","geometry":{"type":"Point","coordinates":[72.803886,18.963718]},"properties":{"id":"osm:node/5380297057","name":"Mount Blanc View Gallery","category":"waterfront","subtype":"tourism=viewpoint","source":"osm"}},{"type":"Feature","geometry":{"type":"Point","coordinates":[72.928969,19.160565]},"properties":{"id":"osm:node/5839258285","name":"Khindipada Viewpoint","category":"waterfront","subtype":"tourism=viewpoint","source":"osm"}},{"type":"Feature","geometry":{"type":"Point","coordinates":[72.918113,19.140891]},"properties":{"id":"osm:node/5882322886","name":"Sameer Hill","category":"waterfront","subtype":"tourism=viewpoint","source":"osm"}},{"type":"Feature","geometry":{"type":"Point","coordinates":[72.821517,18.92353]},"properties":{"id":"osm:node/6121162486","name":"Nariman Point","category":"waterfront","subtype":"tourism=viewpoint","source":"osm"}},{"type":"Feature","geometry":{"type":"Point","coordinates":[72.823444,18.9337]},"properties":{"id":"osm:node/6287774485","name":"Good view of Mumbai","category":"waterfront","subtype":"tourism=viewpoint","source":"osm"}},{"type":"Feature","geometry":{"type":"Point","coordinates":[72.8247,18.982048]},"properties":{"id":"osm:node/6369646785","name":"Dhobi Ghat Viewpoint","category":"waterfront","subtype":"tourism=viewpoint","source":"osm"}},{"type":"Feature","geometry":{"type":"Point","coordinates":[72.910351,19.129892]},"properties":{"id":"osm:node/6784511247","name":"Powai Lake Viewpoint","category":"waterfront","subtype":"tourism=viewpoint","source":"osm"}},{"type":"Feature","geometry":{"type":"Point","coordinates":[72.823718,19.056221]},"properties":{"id":"osm:node/8344285126","name":"Chimbai Beach","category":"waterfront","subtype":"natural=beach","source":"osm"}},{"type":"Feature","geometry":{"type":"Point","coordinates":[72.802646,19.147251]},"properties":{"id":"osm:node/8571449556","name":null,"category":"waterfront","subtype":"leisure=marina","source":"osm"}},{"type":"Feature","geometry":{"type":"Point","coordinates":[72.818191,19.041702]},"properties":{"id":"osm:node/10725360455","name":null,"category":"waterfront","subtype":"tourism=viewpoint","source":"osm"}},{"type":"Feature","geometry":{"type":"Point","coordinates":[72.871757,19.225847]},"properties":{"id":"osm:node/10777556359","name":"Gandhi Tekdi","category":"waterfront","subtype":"tourism=viewpoint","source":"osm"}},{"type":"Feature","geometry":{"type":"Point","coordinates":[72.981899,19.148616]},"properties":{"id":"osm:node/10796920120","name":null,"category":"waterfront","subtype":"tourism=viewpoint","source":"osm"}},{"type":"Feature","geometry":{"type":"Point","coordinates":[72.981978,19.147327]},"properties":{"id":"osm:node/10799685270","name":null,"category":"waterfront","subtype":"tourism=viewpoint","source":"osm"}},{"type":"Feature","geometry":{"type":"Point","coordinates":[72.935312,19.181296]},"properties":{"id":"osm:node/11409011873","name":null,"category":"waterfront","subtype":"tourism=viewpoint","source":"osm"}},{"type":"Feature","geometry":{"type":"Point","coordinates":[72.818787,18.926021]},"properties":{"id":"osm:node/11587888470","name":null,"category":"waterfront","subtype":"tourism=viewpoint","source":"osm"}},{"type":"Feature","geometry":{"type":"Point","coordinates":[72.991037,19.229516]},"properties":{"id":"osm:node/11611028591","name":null,"category":"waterfront","subtype":"tourism=viewpoint","source":"osm"}},{"type":"Feature","geometry":{"type":"Point","coordinates":[72.989748,19.228384]},"properties":{"id":"osm:node/11611029000","name":"Observation Deck","category":"waterfront","subtype":"tourism=viewpoint","source":"osm"}},{"type":"Feature","geometry":{"type":"Point","coordinates":[72.932005,19.181291]},"properties":{"id":"osm:node/12389469713","name":"Tulsi Lake View","category":"waterfront","subtype":"tourism=viewpoint","source":"osm"}},{"type":"Feature","geometry":{"type":"Point","coordinates":[72.934721,19.188893]},"properties":{"id":"osm:node/12850034015","name":"Tulsi Lake Viewpoint","category":"waterfront","subtype":"tourism=viewpoint","source":"osm"}},{"type":"Feature","geometry":{"type":"Point","coordinates":[72.930941,19.179517]},"properties":{"id":"osm:node/12852249268","name":null,"category":"waterfront","subtype":"tourism=viewpoint","source":"osm"}},{"type":"Feature","geometry":{"type":"Point","coordinates":[72.821581,19.115272]},"properties":{"id":"osm:node/13423218572","name":null,"category":"waterfront","subtype":"natural=beach","source":"osm"}},{"type":"Feature","geometry":{"type":"Point","coordinates":[72.930235,19.173924]},"properties":{"id":"osm:node/13425511701","name":null,"category":"waterfront","subtype":"tourism=viewpoint","source":"osm"}},{"type":"Feature","geometry":{"type":"Point","coordinates":[72.806038,18.956519]},"properties":{"id":"osm:node/13577417278","name":"Echo Point","category":"waterfront","subtype":"tourism=viewpoint","source":"osm"}},{"type":"Feature","geometry":{"type":"Point","coordinates":[72.957134,19.139219]},"properties":{"id":"osm:node/13990919364","name":"Bhandup Bird Watching Point","category":"waterfront","subtype":"tourism=viewpoint","source":"osm"}},{"type":"Feature","geometry":{"type":"Point","coordinates":[72.811424,18.954387]},"properties":{"id":"osm:way/38718382","name":"Girgaum Chowpatty Beach","category":"waterfront","subtype":"natural=beach","source":"osm"}},{"type":"Feature","geometry":{"type":"Point","coordinates":[72.783241,19.203752]},"properties":{"id":"osm:way/49423605","name":"Manori Aum Beach","category":"waterfront","subtype":"natural=beach","source":"osm"}},{"type":"Feature","geometry":{"type":"Point","coordinates":[72.838153,19.044076]},"properties":{"id":"osm:way/53366367","name":"Mahim Beach","category":"waterfront","subtype":"natural=beach","source":"osm"}},{"type":"Feature","geometry":{"type":"Point","coordinates":[72.783935,19.267852]},"properties":{"id":"osm:way/99205659","name":null,"category":"waterfront","subtype":"natural=beach","source":"osm"}},{"type":"Feature","geometry":{"type":"Point","coordinates":[72.823057,19.102963]},"properties":{"id":"osm:way/151253238","name":"Juhu Beach","category":"waterfront","subtype":"natural=beach","source":"osm"}},{"type":"Feature","geometry":{"type":"Point","coordinates":[72.795684,19.185447]},"properties":{"id":"osm:way/202661508","name":"Aksa Beach","category":"waterfront","subtype":"natural=beach","source":"osm"}},{"type":"Feature","geometry":{"type":"Point","coordinates":[72.813308,19.130052]},"properties":{"id":"osm:way/203054460","name":"Versova Beach","category":"waterfront","subtype":"natural=beach","source":"osm"}},{"type":"Feature","geometry":{"type":"Point","coordinates":[72.786713,19.151039]},"properties":{"id":"osm:way/204704714","name":"Madh Chowpatty","category":"waterfront","subtype":"natural=beach","source":"osm"}},{"type":"Feature","geometry":{"type":"Point","coordinates":[72.8047,19.140126]},"properties":{"id":"osm:way/204886720","name":null,"category":"waterfront","subtype":"natural=beach","source":"osm"}},{"type":"Feature","geometry":{"type":"Point","coordinates":[72.783277,19.161557]},"properties":{"id":"osm:way/278538737","name":null,"category":"waterfront","subtype":"natural=beach","source":"osm"}},{"type":"Feature","geometry":{"type":"Point","coordinates":[72.822503,19.06913]},"properties":{"id":"osm:way/554805309","name":"Carter Road Beach","category":"waterfront","subtype":"natural=beach","source":"osm"}},{"type":"Feature","geometry":{"type":"Point","coordinates":[72.819077,19.122125]},"properties":{"id":"osm:way/608429347","name":"Juhu Beach","category":"waterfront","subtype":"natural=beach","source":"osm"}},{"type":"Feature","geometry":{"type":"Point","coordinates":[72.824463,19.081364]},"properties":{"id":"osm:way/910346415","name":"Danda Beach","category":"waterfront","subtype":"natural=beach","source":"osm"}},{"type":"Feature","geometry":{"type":"Point","coordinates":[72.797102,19.197941]},"properties":{"id":"osm:way/911455478","name":null,"category":"waterfront","subtype":"natural=beach","source":"osm"}},{"type":"Feature","geometry":{"type":"Point","coordinates":[72.825511,19.018532]},"properties":{"id":"osm:way/1019454081","name":"Prabhadevi Beach","category":"waterfront","subtype":"natural=beach","source":"osm"}},{"type":"Feature","geometry":{"type":"Point","coordinates":[72.83021,19.021922]},"properties":{"id":"osm:way/1030994894","name":"Dadar Beach","category":"waterfront","subtype":"natural=beach","source":"osm"}},{"type":"Feature","geometry":{"type":"Point","coordinates":[72.808077,18.954843]},"properties":{"id":"osm:way/1152601787","name":null,"category":"waterfront","subtype":"tourism=viewpoint","source":"osm"}},{"type":"Feature","geometry":{"type":"Point","coordinates":[72.837998,19.038137]},"properties":{"id":"osm:way/1186979525","name":null,"category":"waterfront","subtype":"natural=beach","source":"osm"}}]}